{"type": "FeatureCollection", "name": "France", "crs": {"type": "name", "properties": {"name": "urn:ogc:def:crs:OGC:1.3:CRS84"}}, "features": [{"type": "Feature", "properties": {"id": "relation/2202162", "@id": "relation/2202162", "ISO3166-1": "FR", "ISO3166-1:alpha2": "FR", "ISO3166-1:alpha3": "FRA", "ISO3166-1:numeric": "250", "admin_level": "2", "alt_name:br": "Fra\u00f1s", "alt_name:eo": "Francujo", "alt_name:ja": "\u4ecf\u862d\u897f;\u4f5b\u862d\u897f;\u6cd5\u862d\u897f", "alt_name:zh": "\u6cd5\u5170\u897f/\u6cd5\u862d\u897f", "alt_name:zh-Hans": "\u6cd5\u5170\u897f", "alt_name:zh-Hant": "\u6cd5\u862d\u897f", "border_type": "territorial", "boundary": "administrative", "currency": "EUR", "default_language": "fr", "driving_side": "right", "euro_const": "FR", "flag": "https://upload.wikimedia.org/wikipedia/commons/c/c3/Flag_of_France.svg", "int_name": "France", "name": "France", "name:ace": "Peurancih", "name:af": "Frankryk", "name:ak": "Fr\u025bnkyeman", "name:am": "\u1348\u1228\u1295\u1223\u12ed", "name:an": "Francia", "name:ang": "Francland", "name:ar": "\u0641\u0631\u0646\u0633\u0627", "name:arc": "\u0726\u072a\u0722\u0723\u0710", "name:arz": "\u0641\u0631\u0646\u0633\u0627", "name:as": "\u09ab\u09cd\u09f0\u09be\u09a8\u09cd\u09b8", "name:ast": "Francia", "name:ay": "Phransiya", "name:az": "Fransa", "name:ba": "\u0424\u0440\u0430\u043d\u0446\u0438\u044f", "name:bar": "Frankreich", "name:bat-smg": "Pranc\u016bz\u0117j\u0117", "name:bcl": "Pransya", "name:be": "\u0424\u0440\u0430\u043d\u0446\u044b\u044f", "name:be-tarask": "\u0424\u0440\u0430\u043d\u0446\u044b\u044f", "name:bg": "\u0424\u0440\u0430\u043d\u0446\u0438\u044f", "name:bi": "Franis", "name:bjn": "Parancis", "name:bm": "France", "name:bn": "\u09ab\u09cd\u09b0\u09be\u09a8\u09cd\u09b8", "name:bo": "\u0f67\u0fa5\u0f0b\u0f62\u0f53\u0f0b\u0f66\u0f72\u0f0d", "name:bpy": "\u09ab\u09cd\u09b0\u09be\u09a8\u09cd\u09b8", "name:br": "Bro-C'hall", "name:bs": "Francuska", "name:bug": "Perancis", "name:bxr": "\u0424\u0440\u0430\u043d\u0446\u0438", "name:ca": "Fran\u00e7a", "name:cbk-zam": "Francia", "name:cdo": "Hu\u00e1k-gu\u00f3k", "name:ce": "\u0424\u0440\u0430\u043d\u0446\u0438", "name:ceb": "Pransiya", "name:chr": "\u13a6\u13b8\u13e5\u13f1", "name:chy": "France", "name:ckb": "\u0641\u06d5\u0695\u06d5\u0646\u0633\u0627", "name:co": "Francia", "name:crh": "Frenkistan", "name:cs": "Francie", "name:csb": "Franc\u00ebj\u00f4", "name:cu": "\u0424\u0440\u0430\u043d\u043a\u0457\ua657", "name:cv": "\u0424\u0440\u0430\u043d\u0446\u0438", "name:cy": "Ffrainc", "name:da": "Frankrig", "name:de": "Frankreich", "name:diq": "Fransa", "name:dsb": "Francojska", "name:dv": "\u078a\u07a6\u0783\u07a6\u0782\u07b0\u0790\u07ad\u0790\u07a8\u0788\u07a8\u078d\u07a7\u078c\u07b0", "name:dz": "\u0f55\u0f62\u0f71\u0f53\u0f66\u0f72\u0f0b", "name:ee": "France", "name:el": "\u0393\u03b1\u03bb\u03bb\u03af\u03b1", "name:eml": "Franza", "name:en": "France", "name:eo": "Francio", "name:es": "Francia", "name:et": "Prantsusmaa", "name:eu": "Frantzia", "name:ext": "Fr\u00e1ncia", "name:fa": "\u0641\u0631\u0627\u0646\u0633\u0647", "name:ff": "Faransi", "name:fi": "Ranska", "name:fo": "Frakland", "name:fr": "France", "name:frp": "France", "name:frr": "Fr\u00e5nkrik", "name:fur": "France", "name:fy": "Frankryk", "name:ga": "An Fhrainc", "name:gag": "Fran\u021biya", "name:gan": "\u6cd5\u570b", "name:gd": "An Fhraing", "name:gl": "Francia", "name:gn": "Hy\u00e3sia", "name:grc": "\u0393\u03b1\u03bb\u03bb\u03af\u03b1", "name:gsw": "Frankreich", "name:gu": "\u0aab\u0acd\u0ab0\u0abe\u0aa8\u0acd\u0ab8", "name:gv": "Yn Rank", "name:ha": "Faransa", "name:hak": "Fap-koet", "name:haw": "Palani", "name:he": "\u05e6\u05e8\u05e4\u05ea", "name:hi": "\u092b\u093c\u094d\u0930\u093e\u0928\u094d\u0938", "name:hif": "France", "name:hr": "Francuska", "name:hsb": "Francoska", "name:ht": "Frans", "name:hu": "Franciaorsz\u00e1g", "name:hy": "\u0556\u0580\u0561\u0576\u057d\u056b\u0561", "name:ia": "Francia", "name:id": "Perancis", "name:ie": "Francia", "name:ii": "\ua0d4\ua1e9", "name:ilo": "Pransia", "name:io": "Francia", "name:is": "Frakkland", "name:it": "Francia", "name:ja": "\u30d5\u30e9\u30f3\u30b9", "name:ja-Hira": "\u3075\u3089\u3093\u3059", "name:jbo": "fasygu'e'Eyn", "name:jv": "Prancis", "name:ka": "\u10e1\u10d0\u10e4\u10e0\u10d0\u10dc\u10d2\u10d4\u10d7\u10d8", "name:kaa": "Frantsiya", "name:kab": "Fransa", "name:kbd": "\u0424\u0440\u044d\u043d\u0434\u0436", "name:kg": "Fwalansa", "name:ki": "Ubaranja", "name:kk": "\u0424\u0440\u0430\u043d\u0446\u0438\u044f", "name:kl": "Frankrigi", "name:km": "\u1794\u17b6\u179a\u17b6\u17c6\u1784", "name:kn": "\u0cab\u0ccd\u0cb0\u0cbe\u0ca8\u0ccd\u0cb8\u0ccd", "name:ko": "\ud504\ub791\uc2a4", "name:koi": "\u0424\u0440\u0430\u043d\u0441", "name:krc": "\u0424\u0440\u0430\u043d\u0446\u0438\u044f", "name:ks": "\u0641\u0631\u065b\u0627\u0646\u0633", "name:ksh": "Frankreich", "name:ku": "Fransa", "name:kv": "\u0424\u0440\u0430\u043d\u0446\u0438\u044f", "name:kw": "Pow Frynk", "name:ky": "\u0424\u0440\u0430\u043d\u0446\u0438\u044f", "name:la": "Francia", "name:lad": "Fransia", "name:lb": "Frankr\u00e4ich", "name:lez": "\u0424\u0440\u0430\u043d\u0446\u0438\u044f", "name:lfn": "Frans", "name:lg": "Bufalansa", "name:li": "Frankriek", "name:lij": "Fransa", "name:lmo": "Fr\u00e0ncia", "name:ln": "Falansia", "name:lo": "\u0e9b\u0eb0\u0ec0\u0e97\u0e94\u0e9d\u0eb0\u0ea5\u0eb1\u0ec8\u0e87", "name:lt": "Pranc\u016bzija", "name:ltg": "Pra\u0146ceja", "name:lv": "Francija", "name:lzh": "\u6cd5\u570b", "name:mdf": "\u041a\u0440\u0430\u043d\u0446\u043c\u0430\u0441\u0442\u043e\u0440", "name:mg": "Frantsa", "name:mhr": "\u0424\u0440\u0430\u043d\u0446\u0438\u0439", "name:mi": "W\u012bw\u012b", "name:min": "Parancih", "name:mk": "\u0424\u0440\u0430\u043d\u0446\u0438\u0458\u0430", "name:ml": "\u0d2b\u0d4d\u0d30\u0d3e\u0d7b\u0d38\u0d4d", "name:mn": "\u0424\u0440\u0430\u043d\u0446", "name:mo": "\u0424\u0440\u0430\u043d\u0446\u0430", "name:mr": "\u092b\u094d\u0930\u093e\u0928\u094d\u0938", "name:ms": "Perancis", "name:mt": "Franza", "name:mwl": "Fr\u00e1ncia", "name:my": "\u1015\u103c\u1004\u103a\u101e\u1005\u103a\u1014\u102d\u102f\u1004\u103a\u1004\u1036", "name:myv": "\u0424\u0440\u0430\u043d\u0446\u0438\u044f \u041c\u0430\u0441\u0442\u043e\u0440", "name:mzn": "\u0641\u0631\u0627\u0646\u0633\u0647", "name:na": "Prant", "name:nah": "Francia", "name:nan": "Hoat-kok", "name:nap": "Franza", "name:nds": "Frankriek", "name:nds-nl": "Frankriek", "name:ne": "\u092b\u094d\u0930\u093e\u0928\u094d\u0938", "name:nl": "Frankrijk", "name:nn": "Frankrike", "name:no": "Frankrike", "name:nov": "Fransia", "name:nrm": "France", "name:nso": "Fora", "name:nv": "D\u00e1\u00e1ghahii Dine\u02bc\u00e9 Bik\u00e9yah", "name:oc": "Fran\u00e7a", "name:or": "\u0b2b\u0b4d\u0b30\u0b3e\u0b28\u0b4d\u0b38", "name:os": "\u0424\u0440\u0430\u043d\u0446", "name:pa": "\u0a2b\u0a4d\u0a30\u0a3e\u0a02\u0a38", "name:pag": "Fransia", "name:pam": "Pransiya", "name:pap": "Fransia", "name:pcd": "Franche", "name:pdc": "Frankreich", "name:pfl": "Frongraisch", "name:pih": "France", "name:pl": "Francja", "name:pms": "Fransa", "name:pnb": "\u0641\u0631\u0627\u0646\u0633", "name:pnt": "\u0393\u03b1\u03bb\u03bb\u03af\u03b1", "name:ps": "\u0641\u0631\u0627\u0646\u0633\u0647", "name:pt": "Fran\u00e7a", "name:qu": "Ransiya", "name:rm": "Frantscha", "name:rmy": "Franchiya", "name:rn": "Francia", "name:ro": "Fran\u021ba", "name:roa-tara": "Frange", "name:ru": "\u0424\u0440\u0430\u043d\u0446\u0438\u044f", "name:rue": "\u0424\u0440\u0430\u043d\u0446\u0456\u044f", "name:rw": "Ubufaransa", "name:sa": "\u092b\u094d\u0930\u093e\u0928\u094d\u0938\u0926\u0947\u0936\u0903", "name:sah": "\u0424\u0440\u0430\u043d\u0446\u0438\u044f", "name:sc": "Frantza", "name:scn": "Francia", "name:sco": "Fraunce", "name:se": "Frankriika", "name:sg": "Far\u00e2nzi", "name:sh": "Francuska", "name:si": "\u0db4\u0dca\u0dbb\u0d82\u0dc1\u0dba", "name:sje": "Frankrijjka", "name:sk": "Franc\u00fazsko", "name:sl": "Francija", "name:sm": "Farani", "name:smn": "R\u00e1nsk\u00e1", "name:sms": "Franskkj\u00e2nnam", "name:so": "Faransiiska", "name:sq": "Franca", "name:sr": "\u0424\u0440\u0430\u043d\u0446\u0443\u0441\u043a\u0430", "name:srn": "Franskondre", "name:ss": "IFulansi", "name:st": "Fora", "name:stq": "Frankriek", "name:su": "Perancis", "name:sv": "Frankrike", "name:sw": "Ufaransa", "name:szl": "Francyj\u014f", "name:ta": "\u0baa\u0bbf\u0bb0\u0bbe\u0ba9\u0bcd\u0b9a\u0bc1", "name:te": "\u0c2b\u0c4d\u0c30\u0c3e\u0c28\u0c4d\u0c38\u0c4d", "name:tet": "Fransa", "name:tg": "\u0424\u0430\u0440\u043e\u043d\u0441\u0430", "name:th": "\u0e1b\u0e23\u0e30\u0e40\u0e17\u0e28\u0e1d\u0e23\u0e31\u0e48\u0e07\u0e40\u0e28\u0e2a", "name:ti": "\u1348\u1228\u1295\u1233\u12ed", "name:tk": "Fransi\u00fda", "name:tl": "Pransiya", "name:to": "Falanis\u0113", "name:tok": "ma Kanse", "name:tpi": "Frens", "name:tr": "Fransa", "name:tt": "\u0424\u0440\u0430\u043d\u0446\u0438\u044f", "name:ty": "Far\u0101ni", "name:tzl": "Fran\u00e7a", "name:udm": "\u0424\u0440\u0430\u043d\u0446\u0438\u044f", "name:ug": "\u0641\u0631\u0627\u0646\u0633\u0649\u064a\u06d5", "name:uk": "\u0424\u0440\u0430\u043d\u0446\u0456\u044f", "name:ur": "\u0641\u0631\u0627\u0646\u0633", "name:uz": "Fransiya", "name:vec": "Fransa", "name:vep": "Francii", "name:vi": "Ph\u00e1p", "name:vls": "Vrankryk", "name:vo": "Frans\u00e4n", "name:vro": "Prantsusmaa", "name:wa": "France", "name:war": "Fransya", "name:wo": "Faraas", "name:wuu": "\u6cd5\u56fd", "name:xal": "\u041f\u0440\u0430\u043d\u0446\u0441\u0438\u043d \u041e\u0440\u043d", "name:xmf": "\u10e1\u10d0\u10e4\u10e0\u10d0\u10dc\u10d2\u10d4\u10d7\u10d8", "name:yi": "\u05e4\u05e8\u05d0\u05e0\u05e7\u05e8\u05d9\u05d9\u05da", "name:yo": "Fr\u00e1ns\u00ec", "name:yue": "\u6cd5\u570b", "name:za": "Fazgoz", "name:zea": "Frankriek", "name:zh": "\u6cd5\u56fd", "name:zh-Hans": "\u6cd5\u56fd", "name:zh-Hant": "\u6cd5\u570b", "name:zh-Latn-pinyin": "F\u01cegu\u00f3", "name:zu": "IFulansi", "note": "this includes the full country (outer roles), i.e. the all territorial waters", "note:population": "somme des populations de tous les territoires (d\u00e9partements, COM, etc)", "official_name": "R\u00e9publique fran\u00e7aise", "official_name:ar": "\u0627\u0644\u062c\u0645\u0647\u0648\u0631\u064a\u0629 \u0627\u0644\u0641\u0631\u0646\u0633\u064a\u0629", "official_name:azb": "\u0641\u0631\u0627\u0646\u0633\u0647 \u062c\u0648\u0645\u0647\u0648\u0631\u06cc\u062a\u06cc", "official_name:be": "\u0420\u044d\u0441\u043f\u0443\u0431\u043b\u0456\u043a\u0430 \u0424\u0440\u0430\u043d\u0446\u044b\u044f", "official_name:be-tarask": "\u0420\u044d\u0441\u043f\u0443\u0431\u043b\u0456\u043a\u0430 \u0424\u0440\u0430\u043d\u0446\u044b\u044f", "official_name:br": "Republik Fra\u00f1s", "official_name:ca": "Rep\u00fablica Francesa", "official_name:ckb": "\u06a9\u06c6\u0645\u0627\u0631\u06cc \u0641\u06d5\u0695\u06d5\u0646\u0633\u0627", "official_name:cs": "Francouzsk\u00e1 republika", "official_name:el": "\u0393\u03b1\u03bb\u03bb\u03b9\u03ba\u03ae \u0394\u03b7\u03bc\u03bf\u03ba\u03c1\u03b1\u03c4\u03af\u03b1", "official_name:en": "French Republic", "official_name:eo": "Franca Respubliko", "official_name:es": "Rep\u00fablica francesa", "official_name:et": "Prantsuse Vabariik", "official_name:eu": "Frantziako Errepublika", "official_name:fa": "\u062c\u0645\u0647\u0648\u0631\u06cc \u0641\u0631\u0627\u0646\u0633\u0647", "official_name:fr": "R\u00e9publique fran\u00e7aise", "official_name:gd": "Poblachd na Frainge", "official_name:id": "Republik Perancis", "official_name:it": "Repubblica francese", "official_name:ja": "\u30d5\u30e9\u30f3\u30b9\u5171\u548c\u56fd", "official_name:ku": "Komara Fransay\u00ea", "official_name:lb": "Frans\u00e9isch Republik", "official_name:lt": "Pranc\u016bzijos Respublika", "official_name:mo": "\u0420\u0435\u043f\u0443\u0431\u043b\u0438\u043a\u0430 \u0424\u0440\u0430\u043d\u0447\u0435\u0437\u044d", "official_name:nl": "Franse Republiek", "official_name:ps": "\u062f \u0641\u0631\u0627\u0646\u0633\u06d0 \u062c\u0645\u0647\u0648\u0631\u06cc\u062a", "official_name:pt": "Rep\u00fablica Francesa", "official_name:ru": "\u0424\u0440\u0430\u043d\u0446\u0443\u0437\u0441\u043a\u0430\u044f \u0420\u0435\u0441\u043f\u0443\u0431\u043b\u0438\u043a\u0430", "official_name:sk": "Franc\u00fazska republika", "official_name:sl": "Francoska republika", "official_name:sr": "\u0420\u0435\u043f\u0443\u0431\u043b\u0438\u043a\u0430 \u0424\u0440\u0430\u043d\u0446\u0443\u0441\u043a\u0430", "official_name:sv": "Republiken Frankrike", "official_name:ug": "\u0641\u0631\u0627\u0646\u0633\u0649\u064a\u06d5 \u062c\u06c7\u0645\u06be\u06c7\u0631\u0649\u064a\u0649\u062a\u0649", "official_name:ur": "\u062c\u0645\u06c1\u0648\u0631\u06cc\u06c1 \u0641\u0631\u0627\u0646\u0633", "official_name:uz": "Fransiya Respublikasi", "official_name:vi": "C\u1ed9ng h\u00f2a Ph\u00e1p", "official_name:vls": "Fransche Republik", "official_name:zh": "\u6cd5\u5170\u897f\u5171\u548c\u56fd/\u6cd5\u862d\u897f\u5171\u548c\u570b", "official_name:zh-Hans": "\u6cd5\u5170\u897f\u5171\u548c\u56fd", "official_name:zh-Hant": "\u6cd5\u862d\u897f\u5171\u548c\u570b", "population": "67852556", "short_name:ja": "\u4ecf;\u4f5b", "source:euro_const": "https://www.legifrance.gouv.fr/jorf/id/JORFTEXT000037102048", "source:name:br": "ofis publik ar brezhoneg", "source:name:oc": "ieo-bdtopoc", "source:population": "INSEE 2022", "type": "boundary", "wikidata": "Q142", "wikipedia": "fr:France"}, "geometry": {"type": "LineString", "coordinates": [[6.8750114, 45.8441637], [6.8737252, 45.8456202], [6.8817492, 45.849821], [6.8947024, 45.8426157], [6.9037218, 45.8422329], [6.9075331, 45.8439992], [6.9137597, 45.8405926], [6.9219339, 45.8476204], [6.9340698, 45.845168], [6.9416143, 45.847641], [6.9425923, 45.8489498], [6.9415062, 45.8511911], [6.9458469, 45.8530186], [6.9514357, 45.8590066], [6.9518096, 45.8616766], [6.9575985, 45.860894], [6.977488, 45.8685119], [6.9905623, 45.8682352], [6.9990711, 45.8735189], [6.9983737, 45.8781003], [7.0051291, 45.8840233], [7.0064743, 45.8870222], [7.0031259, 45.8917199], [7.0037821, 45.899499], [7.0106386, 45.9058628], [7.0141432, 45.9065539], [7.0141209, 45.9097619], [7.0182716, 45.9127414], [7.0182171, 45.9143064], [7.0309258, 45.9205951], [7.0378621, 45.9208023], [7.0407122, 45.9230235], [7.0452884, 45.9223722], [7.0432584, 45.9234138], [7.0414839, 45.9313212], [7.0356315, 45.9375508], [7.0364246, 45.9441455], [7.0382443, 45.9454791], [7.0369605, 45.9552063], [7.0176426, 45.9605383], [7.0089702, 45.9691722], [7.0101194, 45.9731088], [7.0236556, 45.9781293], [7.0190546, 45.9840141], [7.012064, 45.9869888], [7.0102969, 45.9971029], [7.0054345, 46.0014241], [7.0006461, 45.9985518], [6.9851712, 46.004448], [6.9812934, 46.0196204], [6.9710459, 46.0256741], [6.9665388, 46.0311467], [6.9629003, 46.0304301], [6.9545329, 46.0416657], [6.9501919, 46.0514973], [6.9439193, 46.0505924], [6.9350047, 46.0561304], [6.936924, 46.0600979], [6.9364336, 46.0624966], [6.9382595, 46.0631937], [6.9375064, 46.0642703], [6.9339979, 46.0659885], [6.9245985, 46.0652411], [6.9110259, 46.0541001], [6.9097118, 46.050761], [6.8950174, 46.0481491], [6.8919077, 46.0462364], [6.8914056, 46.0426379], [6.8896966, 46.0419678], [6.8861567, 46.0443693], [6.8779193, 46.046314], [6.8720667, 46.0510053], [6.8801494, 46.0693633], [6.8909598, 46.0740908], [6.8880235, 46.07912], [6.8903566, 46.0809048], [6.8917895, 46.085123], [6.8823362, 46.0951793], [6.8931314, 46.1047142], [6.8953798, 46.1087825], [6.8934101, 46.1099699], [6.8930795, 46.1138062], [6.9000083, 46.1239403], [6.8907124, 46.1255062], [6.8823204, 46.1229423], [6.8732662, 46.1259462], [6.8515709, 46.1266582], [6.8429767, 46.1290372], [6.8420278, 46.1319764], [6.8389436, 46.1327455], [6.8186957, 46.1310854], [6.8150725, 46.1292701], [6.8074292, 46.1364423], [6.799428, 46.1355754], [6.7964688, 46.1389454], [6.7945255, 46.1477591], [6.7903776, 46.1535558], [6.792647, 46.1597245], [6.7917076, 46.1628128], [6.8053407, 46.1725818], [6.8066707, 46.1780614], [6.8125574, 46.1814205], [6.8033234, 46.2031288], [6.8038427, 46.2048683], [6.8099938, 46.2119662], [6.809859, 46.2138399], [6.8134731, 46.2153546], [6.8169735, 46.220353], [6.8217391, 46.2233627], [6.8212233, 46.2323082], [6.8307494, 46.2344674], [6.8371599, 46.2408102], [6.8398013, 46.2482192], [6.8519884, 46.2521379], [6.8554217, 46.2552017], [6.8544587, 46.2592945], [6.8601917, 46.2662283], [6.8589064, 46.2738779], [6.8649338, 46.2801905], [6.8643418, 46.2831535], [6.8577893, 46.2912952], [6.8543563, 46.2925341], [6.8473463, 46.2898911], [6.8439219, 46.2942911], [6.8396282, 46.2950721], [6.8347838, 46.2997957], [6.8299582, 46.3001798], [6.8281163, 46.3025654], [6.8302712, 46.3061314], [6.8253401, 46.3119657], [6.8215245, 46.3129513], [6.8198054, 46.3155471], [6.8157042, 46.3158724], [6.8070449, 46.3207467], [6.8003617, 46.3200419], [6.7974267, 46.3266655], [6.7990015, 46.3290748], [6.7964003, 46.3329997], [6.7843162, 46.332804], [6.7845331, 46.3368317], [6.7790902, 46.3446227], [6.7745843, 46.3473325], [6.7711008, 46.3538159], [6.7717249, 46.3611693], [6.7807165, 46.3665295], [6.7926795, 46.3675856], [6.7988362, 46.3742931], [6.8054372, 46.3784102], [6.806424, 46.3829587], [6.8019705, 46.3858394], [6.8019343, 46.3888896], [6.8210834, 46.4271524], [6.6818777, 46.4543368], [6.519124, 46.4563726], [6.4256379, 46.4158117], [6.3352077, 46.4037215], [6.2529745, 46.3604259], [6.2195646, 46.3118838], [6.2489199, 46.3018243], [6.2469354, 46.3000338], [6.249285, 46.2988422], [6.2482236, 46.2965765], [6.2501308, 46.2964841], [6.2486217, 46.2942757], [6.2529314, 46.2905082], [6.24897, 46.2865585], [6.2417391, 46.2850142], [6.2399017, 46.282075], [6.2380085, 46.2821234], [6.2390334, 46.2794645], [6.23759, 46.2775515], [6.2428782, 46.2728507], [6.2498541, 46.2621969], [6.2616783, 46.2545594], [6.2601586, 46.2516773], [6.2667923, 46.2476914], [6.2787105, 46.2512631], [6.278521, 46.2524587], [6.2852515, 46.2548899], [6.2834653, 46.2559692], [6.2949018, 46.2646027], [6.2966024, 46.2632776], [6.2939311, 46.259527], [6.2950004, 46.2560724], [6.3020766, 46.2547221], [6.3097618, 46.2562236], [6.3057019, 46.2513667], [6.3094283, 46.2500754], [6.3086963, 46.247485], [6.3102878, 46.2439735], [6.2946859, 46.2251526], [6.27698, 46.2155203], [6.2540992, 46.2092213], [6.249558, 46.2049887], [6.2447749, 46.2069118], [6.2451589, 46.2049646], [6.2430357, 46.2045027], [6.2340226, 46.2064219], [6.2281574, 46.2024471], [6.2219466, 46.2006645], [6.2222592, 46.1989873], [6.2183186, 46.1986851], [6.2122775, 46.1927853], [6.2051983, 46.1917612], [6.2048892, 46.1897887], [6.198025, 46.1835092], [6.1949886, 46.1842047], [6.187065, 46.1803623], [6.1862471, 46.1753881], [6.1887838, 46.1663858], [6.1853429, 46.1639669], [6.1742222, 46.1578077], [6.1685645, 46.1571618], [6.1486489, 46.1500869], [6.1448818, 46.1449496], [6.1419014, 46.147224], [6.1364595, 46.1415966], [6.1281558, 46.1403167], [6.1201677, 46.1427557], [6.0985028, 46.1438189], [6.0918209, 46.1519451], [6.0749132, 46.1488419], [6.0522995, 46.1513871], [6.0484379, 46.1470521], [6.0475988, 46.1422089], [6.0450879, 46.1399668], [6.0424876, 46.141411], [6.0393071, 46.139639], [6.0354039, 46.1343322], [6.0329871, 46.1387338], [6.031496, 46.1379735], [6.0316652, 46.1393956], [6.0284621, 46.1404369], [6.015023, 46.1430748], [6.0032397, 46.1417757], [5.9941117, 46.1445684], [5.9835137, 46.1429879], [5.9819285, 46.1374073], [5.9762687, 46.1329214], [5.9652104, 46.1296835], [5.9611438, 46.1307981], [5.9568251, 46.1287821], [5.9559113, 46.1323565], [5.9662579, 46.137872], [5.9642377, 46.1446152], [5.9800723, 46.1662535], [5.9820327, 46.1732705], [5.9847041, 46.1734692], [5.9875942, 46.1703364], [5.9917444, 46.1768409], [5.990414, 46.1776144], [5.9949234, 46.1818645], [5.9902984, 46.1878044], [5.9838085, 46.188883], [5.9819585, 46.1900252], [5.982821, 46.1907756], [5.9637155, 46.1970214], [5.9656408, 46.1995368], [5.9735099, 46.2027927], [5.969249, 46.2066749], [5.9735281, 46.213924], [5.9791231, 46.2172373], [5.9927818, 46.2152237], [5.9935, 46.2179384], [5.9901543, 46.221709], [5.9929417, 46.2229763], [6.0014888, 46.2205063], [6.0071617, 46.2238564], [6.0065953, 46.2265959], [6.0096323, 46.2271842], [6.009582, 46.2289469], [6.0133359, 46.2290291], [6.0130452, 46.2310902], [6.0152581, 46.2304516], [6.016422, 46.2320036], [6.0254399, 46.2332157], [6.0336572, 46.2385548], [6.0461125, 46.2314049], [6.0558595, 46.241652], [6.0633275, 46.2458001], [6.0673114, 46.2417932], [6.0730252, 46.2413479], [6.0735355, 46.2437117], [6.0880562, 46.2471257], [6.1014498, 46.2376461], [6.1068469, 46.2411607], [6.1088285, 46.2398576], [6.120794, 46.2480078], [6.1244594, 46.2525883], [6.120829, 46.2546028], [6.1227574, 46.2564945], [6.1180923, 46.2634476], [6.1200164, 46.2647666], [6.115423, 46.265954], [6.1099028, 46.2705834], [6.113515, 46.2725523], [6.1032862, 46.2786499], [6.1050283, 46.2829553], [6.1023518, 46.2849427], [6.1140812, 46.2947216], [6.1197288, 46.2943716], [6.1186021, 46.2959555], [6.1217713, 46.2992496], [6.1187728, 46.3028408], [6.1206985, 46.3067544], [6.1191474, 46.3077339], [6.1198053, 46.3125199], [6.126091, 46.3177346], [6.1252347, 46.319251], [6.1269579, 46.321241], [6.1315305, 46.3240835], [6.1340197, 46.3280579], [6.1361426, 46.3283702], [6.1351149, 46.3287424], [6.1371186, 46.3307821], [6.1363403, 46.3321189], [6.1392325, 46.333377], [6.1372375, 46.3356353], [6.1394412, 46.3377723], [6.137956, 46.3387422], [6.1493997, 46.3427131], [6.1514923, 46.3473907], [6.1577609, 46.3499541], [6.1584673, 46.3559102], [6.161399, 46.3598768], [6.1699166, 46.3660835], [6.1658976, 46.3719311], [6.1610727, 46.3749023], [6.1593743, 46.3797117], [6.1570218, 46.3777515], [6.1496645, 46.3774895], [6.1347187, 46.3887001], [6.1130035, 46.4000404], [6.1147357, 46.3975118], [6.1138348, 46.3969032], [6.1092193, 46.3996172], [6.1059362, 46.3995181], [6.0976447, 46.4091536], [6.0638578, 46.4163952], [6.073894, 46.4283619], [6.0745787, 46.4321624], [6.0856139, 46.4408404], [6.0864075, 46.4439338], [6.0843926, 46.4474975], [6.0744422, 46.4534893], [6.0769329, 46.4575915], [6.0734857, 46.4598869], [6.0727304, 46.4654405], [6.0969215, 46.4812939], [6.1126314, 46.5095962], [6.1379861, 46.530994], [6.143689, 46.5277477], [6.1534965, 46.5367993], [6.1485873, 46.5393588], [6.1566588, 46.5452979], [6.1104914, 46.5764482], [6.1218502, 46.5840511], [6.1265177, 46.5899171], [6.148074, 46.6021976], [6.1537727, 46.6037677], [6.1612164, 46.6099761], [6.1652701, 46.6100583], [6.1782719, 46.6156437], [6.1789915, 46.6199565], [6.196268, 46.6280871], [6.1958745, 46.62942], [6.2005814, 46.6335025], [6.1995491, 46.6343688], [6.2041117, 46.6360824], [6.2075361, 46.6354037], [6.2128338, 46.6410564], [6.2174558, 46.6422732], [6.2166351, 46.6431099], [6.2190268, 46.6450815], [6.2275505, 46.6481643], [6.2327228, 46.6544316], [6.2672694, 46.6761435], [6.270466, 46.6790251], [6.2688174, 46.6799921], [6.2691826, 46.682498], [6.2792142, 46.6876595], [6.2790838, 46.6899947], [6.2972368, 46.6943976], [6.3251663, 46.7065303], [6.3413046, 46.7101475], [6.3522178, 46.7148823], [6.3538919, 46.718228], [6.3601973, 46.7231413], [6.3645166, 46.7218103], [6.3718638, 46.724116], [6.3713606, 46.7291764], [6.3677996, 46.7291773], [6.3740203, 46.7310931], [6.3849046, 46.7313995], [6.3919997, 46.7388582], [6.3883324, 46.7433692], [6.3953484, 46.7484084], [6.4009802, 46.7508088], [6.4119283, 46.7515918], [6.429869, 46.7564196], [6.4394275, 46.7625619], [6.437958, 46.762945], [6.4385257, 46.766509], [6.4524, 46.7739825], [6.4519129, 46.7783948], [6.4584751, 46.7885479], [6.4347893, 46.8014807], [6.4310763, 46.8123584], [6.4408312, 46.8158214], [6.4395167, 46.8239807], [6.4431544, 46.8327141], [6.4601921, 46.8512939], [6.4645461, 46.8902782], [6.4579341, 46.9007714], [6.4358631, 46.9216356], [6.4326552, 46.9286841], [6.4464703, 46.9340797], [6.4535354, 46.9387811], [6.4765849, 46.960718], [6.4965027, 46.9741095], [6.5048328, 46.9656621], [6.5187201, 46.9709261], [6.5374199, 46.9734513], [6.5718875, 46.982013], [6.5931502, 46.9916765], [6.600038, 46.9924067], [6.6106267, 46.9906383], [6.6181705, 46.9916267], [6.6336875, 46.9981829], [6.6404084, 47.0027993], [6.653558, 47.0222364], [6.6591896, 47.0272816], [6.6790211, 47.0357011], [6.6867357, 47.0374804], [6.696541, 47.0372268], [6.7115123, 47.0480374], [6.7191775, 47.051179], [6.7111693, 47.0541254], [6.7088123, 47.0580576], [6.7007613, 47.0591197], [6.7002168, 47.0613754], [6.6969233, 47.063433], [6.6952125, 47.0625109], [6.6915129, 47.0666703], [6.6934104, 47.0689313], [6.7011544, 47.0701141], [6.7033059, 47.0734399], [6.7062404, 47.0742039], [6.705212, 47.0763881], [6.7075362, 47.0794578], [6.702731, 47.0821401], [6.7078997, 47.0831504], [6.7150798, 47.0884124], [6.7227084, 47.0895754], [6.7258717, 47.0919379], [6.7319898, 47.0894669], [6.7415779, 47.090927], [6.7445661, 47.092688], [6.7467311, 47.0978257], [6.7414935, 47.1041374], [6.7405487, 47.1096216], [6.7468171, 47.1099657], [6.7520443, 47.1145748], [6.7658097, 47.1207312], [6.7759987, 47.1213637], [6.7793427, 47.123757], [6.8060991, 47.1307661], [6.807929, 47.1352647], [6.8158998, 47.1360273], [6.819629, 47.1400953], [6.824626, 47.1419572], [6.8284242, 47.1465466], [6.8391974, 47.149884], [6.8404303, 47.1538634], [6.8499278, 47.1563748], [6.8588143, 47.165261], [6.8444721, 47.1664314], [6.8409761, 47.1711995], [6.8633842, 47.1799969], [6.8673821, 47.1853509], [6.8739978, 47.1854493], [6.8739772, 47.1910191], [6.8804605, 47.2005177], [6.9067708, 47.2143193], [6.9100846, 47.2180018], [6.921344, 47.2205078], [6.9262376, 47.224411], [6.9278093, 47.22849], [6.9330765, 47.230717], [6.939663, 47.2310291], [6.9427017, 47.2344127], [6.9428254, 47.2377153], [6.9554611, 47.2429925], [6.9473441, 47.2505003], [6.9463987, 47.2538802], [6.9510252, 47.2596683], [6.9499747, 47.2656113], [6.9519332, 47.2698429], [6.940793, 47.2863723], [6.9508758, 47.2919158], [6.9686785, 47.2924802], [6.9734589, 47.2911253], [6.9761809, 47.2932599], [6.9766217, 47.2962336], [6.996388, 47.2956997], [7.0033774, 47.301278], [7.0093572, 47.3023543], [7.0109768, 47.3080339], [7.01341, 47.3092023], [7.0157833, 47.3132902], [7.0132737, 47.31988], [7.0092902, 47.3202978], [7.0099836, 47.3245152], [7.033841, 47.3282986], [7.0456146, 47.3264816], [7.0569839, 47.3343682], [7.0530038, 47.3350691], [7.0529324, 47.336618], [7.0597889, 47.3397001], [7.0623707, 47.3440342], [7.0555612, 47.3473408], [7.0498342, 47.3477181], [7.052809, 47.3515644], [7.0498885, 47.3613968], [7.0430849, 47.3642427], [7.0347968, 47.3633335], [7.0340735, 47.369656], [7.0202219, 47.3703231], [7.0181751, 47.3726166], [7.0154774, 47.372915], [7.0131076, 47.3714231], [7.012155, 47.3728596], [7.0074054, 47.3680868], [6.9963997, 47.3635956], [6.9843172, 47.3636489], [6.9746009, 47.3601278], [6.9521066, 47.3599803], [6.9427853, 47.3576803], [6.9331049, 47.3584469], [6.9215361, 47.3551349], [6.9024206, 47.3593555], [6.8996133, 47.3577216], [6.895648, 47.3586145], [6.8947046, 47.3565338], [6.887013, 47.3532973], [6.8793259, 47.3525796], [6.879392, 47.3577742], [6.8849398, 47.3674026], [6.883607, 47.3728593], [6.8957778, 47.3798987], [6.8951012, 47.3816777], [6.9051337, 47.3825146], [6.913415, 47.3880784], [6.9093642, 47.3960786], [6.9154465, 47.3971466], [6.9177484, 47.4031927], [6.9132014, 47.4045971], [6.9196589, 47.4066429], [6.9205758, 47.4050795], [6.9384103, 47.4060862], [6.9415359, 47.4156591], [6.9402723, 47.4333274], [6.9549045, 47.4352546], [6.957514, 47.4338106], [6.9637101, 47.4357772], [6.9662306, 47.4376469], [6.9702926, 47.4471132], [6.9809517, 47.4492188], [6.9901377, 47.4479687], [6.995865, 47.4496368], [7.0021261, 47.4541577], [7.0014085, 47.4559538], [6.9974657, 47.4564784], [6.9977291, 47.4598972], [7.0012664, 47.4619523], [6.9997498, 47.4649713], [7.0004537, 47.4672198], [6.9916994, 47.4663893], [6.9908281, 47.4675965], [6.9929667, 47.4711216], [6.988291, 47.473092], [6.9864353, 47.4763206], [6.9885983, 47.4809982], [6.9886439, 47.4868881], [6.9864223, 47.4921316], [6.9829674, 47.494551], [6.9860244, 47.49334], [7.0003759, 47.4997134], [7.0215035, 47.5044581], [7.0366426, 47.4991952], [7.0369327, 47.497506], [7.0444926, 47.498449], [7.0524081, 47.4951244], [7.0607354, 47.4953933], [7.0720797, 47.4923848], [7.0725515, 47.4897557], [7.0748517, 47.4881832], [7.0942428, 47.4954372], [7.100047, 47.4943109], [7.1125326, 47.4951214], [7.1279794, 47.5039313], [7.1391517, 47.5017999], [7.1504007, 47.4973058], [7.1569243, 47.4920984], [7.1622737, 47.4900176], [7.1730741, 47.489746], [7.2009849, 47.4942809], [7.2029571, 47.4913867], [7.1909086, 47.4885553], [7.1775007, 47.4680487], [7.1790413, 47.4656339], [7.1788891, 47.4608011], [7.1772739, 47.4594034], [7.1782927, 47.4585288], [7.1702182, 47.4429793], [7.1925093, 47.4389997], [7.1957226, 47.435427], [7.1998628, 47.4351526], [7.2069844, 47.4348191], [7.2228414, 47.4398546], [7.2308748, 47.4393953], [7.2388481, 47.4332815], [7.2375178, 47.4305803], [7.239033, 47.4285291], [7.2457612, 47.4265239], [7.2454196, 47.4210352], [7.2465183, 47.4203421], [7.2550971, 47.4244204], [7.2713144, 47.427679], [7.2818303, 47.4347794], [7.2869449, 47.4351324], [7.2926861, 47.4333519], [7.302508, 47.4386192], [7.3234165, 47.4386576], [7.3302124, 47.4417583], [7.3389901, 47.4410917], [7.3449649, 47.4360781], [7.3547429, 47.4339721], [7.368404, 47.4342781], [7.385599, 47.431814], [7.3943444, 47.4351906], [7.403093, 47.4354815], [7.4031306, 47.4386294], [7.4205525, 47.4455758], [7.4244509, 47.4499148], [7.4224177, 47.4507165], [7.428796, 47.4538795], [7.4277527, 47.4572981], [7.4300288, 47.4594917], [7.4457652, 47.4619728], [7.450202, 47.4675201], [7.4558246, 47.4707007], [7.4557367, 47.4733767], [7.4501727, 47.4753302], [7.448402, 47.4737872], [7.4436106, 47.4785144], [7.432125, 47.4810093], [7.4294031, 47.4829547], [7.4208142, 47.4803763], [7.4331417, 47.4971791], [7.4349796, 47.4981098], [7.4564102, 47.4885064], [7.4623896, 47.4890576], [7.472007, 47.480383], [7.4876208, 47.4821348], [7.4916127, 47.4846673], [7.4938011, 47.4884155], [7.5024548, 47.4907737], [7.501145, 47.4935203], [7.5111817, 47.4969974], [7.5087507, 47.5023921], [7.5104485, 47.5026729], [7.5093565, 47.5088908], [7.4990865, 47.5162822], [7.4978691, 47.5212492], [7.4997601, 47.5205763], [7.5022782, 47.5149066], [7.5174593, 47.5172811], [7.5190885, 47.5148178], [7.5207476, 47.515724], [7.5221956, 47.5142011], [7.5237373, 47.515338], [7.5234659, 47.5186787], [7.5275924, 47.5217548], [7.531237, 47.5281643], [7.5268079, 47.5328831], [7.5243897, 47.5318782], [7.5193631, 47.5347253], [7.5107611, 47.5289964], [7.5023064, 47.5284104], [7.5005261, 47.5301389], [7.5014454, 47.5321785], [7.4980459, 47.5361587], [7.4991923, 47.5401053], [7.5093406, 47.5458478], [7.5109814, 47.5445136], [7.5167636, 47.545414], [7.5272555, 47.5527491], [7.5573002, 47.5650334], [7.5593357, 47.569392], [7.5564645, 47.5713891], [7.556895, 47.5724666], [7.5664893, 47.5776703], [7.5846527, 47.5755281], [7.5857191, 47.5840853], [7.5927841, 47.5968834], [7.5921133, 47.6033165], [7.5879797, 47.6078739], [7.5738586, 47.6168365], [7.5695454, 47.6280625], [7.5644943, 47.6345398], [7.5391436, 47.6484225], [7.5233315, 47.6613084], [7.5192052, 47.6691827], [7.5193371, 47.683753], [7.5117461, 47.6977751], [7.5155637, 47.7037535], [7.5400639, 47.7182098], [7.5461388, 47.7258603], [7.5484116, 47.7319414], [7.5482058, 47.7399139], [7.531498, 47.769789], [7.5298172, 47.7809197], [7.5313669, 47.7866841], [7.5433792, 47.8076608], [7.5495798, 47.8226565], [7.5627185, 47.8420014], [7.5629283, 47.8526398], [7.5555593, 47.868006], [7.5565784, 47.8780364], [7.5622544, 47.8847735], [7.5755385, 47.8911941], [7.5811809, 47.8970273], [7.5830795, 47.9034927], [7.5805908, 47.9223667], [7.5832304, 47.9311934], [7.5886895, 47.9377613], [7.6110479, 47.9556862], [7.6199311, 47.9672273], [7.6218969, 47.9724992], [7.6184552, 47.9859685], [7.6100998, 47.9988929], [7.5714025, 48.0305769], [7.5689009, 48.0345704], [7.5739341, 48.0545182], [7.5692677, 48.0811902], [7.5710094, 48.0872325], [7.5792882, 48.101469], [7.5795185, 48.1070216], [7.5769151, 48.1180201], [7.5780768, 48.121948], [7.5822879, 48.1260523], [7.5923532, 48.1301464], [7.5979275, 48.1344875], [7.6005139, 48.1403226], [7.5989169, 48.1515686], [7.600364, 48.1572207], [7.628903, 48.183017], [7.6434242, 48.2064489], [7.6610695, 48.2165983], [7.6665374, 48.2215601], [7.6881795, 48.2772718], [7.6895404, 48.2938416], [7.6935421, 48.3016364], [7.7062196, 48.3102727], [7.7332321, 48.3175798], [7.7392667, 48.3210495], [7.7442686, 48.3267489], [7.7454441, 48.3343612], [7.7316383, 48.3778046], [7.7310704, 48.3860177], [7.7325994, 48.3956771], [7.7371202, 48.4066661], [7.7631799, 48.4511798], [7.7667169, 48.4641731], [7.7679863, 48.4892414], [7.7737246, 48.493473], [7.7947043, 48.5016191], [7.8047299, 48.5125879], [7.806755, 48.5217428], [7.8035192, 48.5387674], [7.8058618, 48.5547975], [7.8045371, 48.5654681], [7.8003913, 48.5784807], [7.800773, 48.5852299], [7.8044453, 48.5921658], [7.8300226, 48.619402], [7.8393911, 48.6409714], [7.8466531, 48.6464733], [7.8626231, 48.6510018], [7.8903447, 48.6628567], [7.963228, 48.7214856], [7.9674721, 48.728063], [7.9670506, 48.7460943], [7.9688153, 48.7536568], [7.9723745, 48.7581731], [7.9830777, 48.761181], [8.0004604, 48.7588471], [8.0126661, 48.7603131], [8.0225159, 48.7678732], [8.0262597, 48.7833573], [8.0303996, 48.7872538], [8.0414735, 48.7906854], [8.0584421, 48.7889597], [8.0667971, 48.7901847], [8.0767243, 48.7948665], [8.0906452, 48.8049589], [8.1043158, 48.8200002], [8.1091028, 48.8385917], [8.1176684, 48.8580972], [8.1274427, 48.8774437], [8.1359016, 48.8873114], [8.1420944, 48.8980039], [8.1516288, 48.9070278], [8.1565878, 48.9140038], [8.169314, 48.9240431], [8.1851646, 48.9410209], [8.1915654, 48.9529103], [8.1953666, 48.95687], [8.2041408, 48.9606353], [8.2328491, 48.9660845], [8.2270073, 48.9736064], [8.2228787, 48.9758829], [8.2160203, 48.9753509], [8.2079236, 48.9700939], [8.2037913, 48.9696293], [8.1994093, 48.9668924], [8.1953284, 48.9690585], [8.1974589, 48.9725863], [8.1959345, 48.9732922], [8.1963471, 48.9763782], [8.1938851, 48.9772258], [8.1876744, 48.9763387], [8.184792, 48.978428], [8.1804304, 48.9775111], [8.1718505, 48.9791185], [8.1705494, 48.9790744], [8.1699385, 48.9762196], [8.1608152, 48.9787034], [8.1592319, 48.977505], [8.1485171, 48.977247], [8.1368499, 48.9793196], [8.1312737, 48.983157], [8.1282852, 48.9823561], [8.1235762, 48.9865757], [8.119694, 48.9847303], [8.1190603, 48.9862599], [8.1149313, 48.9870504], [8.1146466, 48.9859197], [8.1118797, 48.9873747], [8.1081307, 48.9862091], [8.1065502, 48.989163], [8.0880057, 48.9897003], [8.0859731, 48.9931644], [8.0787389, 48.9939981], [8.0720489, 48.9967746], [8.0705659, 48.9958113], [8.0684315, 48.9993987], [8.0646751, 49.000044], [8.0637864, 49.0056083], [8.0582568, 49.0069686], [8.0495522, 49.014457], [8.04489, 49.0139666], [8.0311781, 49.0189235], [8.0227663, 49.0181918], [8.0182537, 49.0216283], [8.0165435, 49.0201953], [8.0125951, 49.0213155], [8.0133381, 49.0235909], [8.0108389, 49.0255524], [8.0080805, 49.0246155], [8.0003605, 49.0283161], [7.989225, 49.0286352], [7.9813843, 49.0258035], [7.9780609, 49.027416], [7.9750359, 49.0265644], [7.9750921, 49.0297946], [7.9728186, 49.0308425], [7.9738001, 49.031602], [7.9720144, 49.0361755], [7.9669246, 49.0362483], [7.9667248, 49.0417599], [7.9569524, 49.0431235], [7.9575663, 49.0448675], [7.9457153, 49.0497061], [7.9452909, 49.0555975], [7.9406867, 49.054273], [7.9399258, 49.0564086], [7.9339765, 49.0579226], [7.9312262, 49.0576832], [7.9310563, 49.0541743], [7.9234264, 49.0443102], [7.9169464, 49.0408813], [7.9131349, 49.0401594], [7.9139131, 49.0415826], [7.9106782, 49.0436485], [7.9107187, 49.0451085], [7.9021874, 49.0447831], [7.889361, 49.0492369], [7.8808867, 49.0458959], [7.8799153, 49.0433982], [7.874373, 49.04033], [7.8673397, 49.032962], [7.8543641, 49.0355206], [7.8518172, 49.0376417], [7.8512505, 49.0423514], [7.8495749, 49.0441079], [7.8446992, 49.0428181], [7.8415295, 49.0458057], [7.8306255, 49.0471364], [7.8260202, 49.0522513], [7.8132165, 49.0565543], [7.8109465, 49.0608891], [7.7944344, 49.0657512], [7.7920629, 49.061057], [7.7882662, 49.0580477], [7.780482, 49.0584003], [7.77637, 49.0564837], [7.7701746, 49.0502276], [7.769397, 49.0476104], [7.7572879, 49.045315], [7.7509298, 49.0480539], [7.7473261, 49.0463655], [7.7408308, 49.0473132], [7.7370209, 49.0443924], [7.7323575, 49.0440063], [7.7318631, 49.0556184], [7.7271509, 49.0549412], [7.7216318, 49.0510577], [7.7180744, 49.0539762], [7.7080709, 49.0524567], [7.7055657, 49.0561993], [7.7006411, 49.0570305], [7.6982536, 49.0559288], [7.6959533, 49.0577848], [7.6927506, 49.0543394], [7.6976317, 49.0518183], [7.6976492, 49.0497532], [7.6809384, 49.0490427], [7.6748259, 49.0449367], [7.6315603, 49.0549149], [7.632886, 49.0628909], [7.6308257, 49.0656772], [7.6308395, 49.0725853], [7.6295217, 49.0735692], [7.6196851, 49.0743201], [7.6004828, 49.0833], [7.5697638, 49.079711], [7.5632691, 49.0802793], [7.535762, 49.0936215], [7.5379638, 49.0963186], [7.528757, 49.0970515], [7.5295119, 49.1020546], [7.5284194, 49.1037252], [7.5253394, 49.1038386], [7.5218558, 49.1080081], [7.5202351, 49.1143674], [7.5155227, 49.1211773], [7.5056088, 49.1226153], [7.4980021, 49.1345011], [7.4894474, 49.1364999], [7.4899193, 49.1422912], [7.4954785, 49.1414783], [7.4975152, 49.1460868], [7.50598, 49.1509733], [7.5063809, 49.1548069], [7.4959804, 49.1551468], [7.4926968, 49.1634969], [7.4939756, 49.1694062], [7.4717048, 49.1684103], [7.4672134, 49.1674414], [7.4650177, 49.1647637], [7.4598285, 49.1628259], [7.4576258, 49.1631229], [7.4548717, 49.1665518], [7.4473366, 49.1688479], [7.439197, 49.1643667], [7.4333795, 49.1652785], [7.4331503, 49.1683151], [7.4405691, 49.1704895], [7.441874, 49.1723122], [7.4394067, 49.1759908], [7.4362301, 49.1769331], [7.435559, 49.1801419], [7.4434296, 49.1821277], [7.4457904, 49.1842666], [7.3653249, 49.1720407], [7.3646801, 49.1668693], [7.3689618, 49.1616885], [7.3625407, 49.1564375], [7.361436, 49.1529407], [7.3626813, 49.1432614], [7.3454613, 49.1432664], [7.3414905, 49.1452644], [7.3300216, 49.1449957], [7.325787, 49.1433235], [7.3136591, 49.1371876], [7.3110312, 49.1303499], [7.3056726, 49.1269494], [7.3044515, 49.1233724], [7.2986609, 49.1172693], [7.2935556, 49.1149892], [7.2826221, 49.1169391], [7.2840862, 49.1235741], [7.2817804, 49.1245431], [7.2804428, 49.1227496], [7.2720388, 49.1243027], [7.2658046, 49.1227567], [7.2492211, 49.1272385], [7.2449651, 49.1300153], [7.2270227, 49.1258228], [7.2055047, 49.123553], [7.2005475, 49.1161908], [7.1983217, 49.1152079], [7.1966464, 49.1217049], [7.1908523, 49.1258149], [7.1919298, 49.1263467], [7.1903694, 49.1280595], [7.1876184, 49.1278462], [7.1861574, 49.1311852], [7.1843721, 49.1314604], [7.1839494, 49.1300015], [7.1777673, 49.1301074], [7.1783665, 49.1285046], [7.176787, 49.1281101], [7.1747497, 49.1291839], [7.1681426, 49.1272924], [7.1651578, 49.1286277], [7.1594015, 49.1204144], [7.1574506, 49.1208268], [7.1507382, 49.1250759], [7.1355358, 49.1285771], [7.1314486, 49.1317856], [7.1316432, 49.1341277], [7.1261554, 49.1419566], [7.1038097, 49.1384916], [7.1026954, 49.1415042], [7.1037082, 49.1456819], [7.1132552, 49.151938], [7.1076193, 49.1524333], [7.106481, 49.1551154], [7.1020061, 49.1557639], [7.0906867, 49.1518774], [7.0839923, 49.1534226], [7.0803587, 49.1489623], [7.0842769, 49.1441185], [7.0818699, 49.1416799], [7.0899559, 49.132941], [7.0895426, 49.1303434], [7.0721241, 49.1243568], [7.0686893, 49.1204724], [7.0684941, 49.1164683], [7.0666026, 49.1142815], [7.0573806, 49.1119687], [7.0520348, 49.1129465], [7.0475024, 49.1156826], [7.0443027, 49.1201972], [7.0468186, 49.1369703], [7.0416814, 49.1465717], [7.0322326, 49.156705], [7.0332945, 49.1636711], [7.027756, 49.1702834], [7.0284802, 49.1754985], [7.0333301, 49.1808873], [7.0333544, 49.1877135], [7.0350314, 49.1914361], [7.0280487, 49.191226], [7.023394, 49.1892194], [7.0215876, 49.1932125], [7.0109133, 49.1879496], [7.0089405, 49.1940109], [6.9990204, 49.1944502], [6.9926104, 49.2008022], [6.9753345, 49.2093795], [6.9716106, 49.2091862], [6.9595947, 49.2031179], [6.9399307, 49.2167256], [6.9382298, 49.2224477], [6.9187594, 49.222736], [6.9188529, 49.2199564], [6.9114077, 49.2150005], [6.9004368, 49.2135965], [6.8926111, 49.2088272], [6.8726189, 49.2149455], [6.8706292, 49.218581], [6.8594026, 49.2227527], [6.8379876, 49.2134511], [6.8362284, 49.2112717], [6.8424518, 49.2085674], [6.8521257, 49.2002128], [6.8501175, 49.1932369], [6.8586019, 49.1866176], [6.8590469, 49.18365], [6.8618825, 49.1818272], [6.8619435, 49.1789235], [6.8594468, 49.1775156], [6.8591839, 49.174613], [6.844514, 49.1730381], [6.84435, 49.1639392], [6.8473818, 49.1571711], [6.8341753, 49.1512816], [6.8169937, 49.1576328], [6.8095989, 49.157993], [6.8026815, 49.1620437], [6.793855, 49.1632441], [6.7900889, 49.1660842], [6.7825842, 49.1682043], [6.761532, 49.1647252], [6.7506838, 49.1666716], [6.7385568, 49.1636722], [6.7268137, 49.1725421], [6.7204236, 49.1752618], [6.7112891, 49.1883652], [6.7315126, 49.2059608], [6.7231778, 49.2190114], [6.719595, 49.2213317], [6.706702, 49.2167426], [6.6957716, 49.2152308], [6.688603, 49.2225205], [6.690687, 49.2312578], [6.6887075, 49.2382944], [6.6847803, 49.241631], [6.6907284, 49.2476621], [6.6900659, 49.2496544], [6.6880863, 49.2492555], [6.6838867, 49.253413], [6.6777036, 49.2552518], [6.6755889, 49.2575216], [6.6643985, 49.2545239], [6.6615829, 49.2580485], [6.6605051, 49.2612791], [6.667782, 49.2707551], [6.6659613, 49.2768704], [6.6703217, 49.280265], [6.6621219, 49.2818758], [6.6600887, 49.2836051], [6.6532691, 49.2812149], [6.6503165, 49.2885701], [6.6441114, 49.2898359], [6.6387971, 49.2956153], [6.6319589, 49.295741], [6.6322311, 49.2976411], [6.6305693, 49.2971301], [6.6273518, 49.2993119], [6.6246991, 49.3027905], [6.6153787, 49.3016258], [6.605003, 49.3121032], [6.5890954, 49.3221256], [6.5956746, 49.3300417], [6.5893003, 49.3347755], [6.591339, 49.3359047], [6.5878431, 49.334776], [6.5859291, 49.3370458], [6.582251, 49.3345451], [6.5784729, 49.3348622], [6.5768769, 49.3367267], [6.5783047, 49.3383435], [6.5759737, 49.3415694], [6.5707122, 49.3435325], [6.5657732, 49.3478313], [6.5635818, 49.3559035], [6.574053, 49.3587521], [6.5817189, 49.3563366], [6.5851925, 49.3532074], [6.5849431, 49.3512723], [6.5883339, 49.3496021], [6.5900963, 49.3548396], [6.5925416, 49.3554612], [6.5917883, 49.3580848], [6.5964897, 49.3593676], [6.6022999, 49.3671105], [6.5997691, 49.3666406], [6.598266, 49.3699723], [6.5945745, 49.3715309], [6.5832277, 49.3685155], [6.5847439, 49.3717221], [6.5842536, 49.3765416], [6.5876393, 49.382988], [6.5867, 49.3851819], [6.5800023, 49.3854663], [6.5768227, 49.389705], [6.5634635, 49.3881946], [6.5600885, 49.3925409], [6.5522457, 49.3941811], [6.5510044, 49.3969117], [6.5521492, 49.3998996], [6.5479178, 49.3998722], [6.5443865, 49.4019419], [6.5407342, 49.4011016], [6.5372837, 49.4085701], [6.5386948, 49.4123938], [6.5487499, 49.4179035], [6.552401, 49.4169033], [6.5573319, 49.4193936], [6.5524579, 49.4213558], [6.5519795, 49.4247734], [6.5416341, 49.4325518], [6.5392589, 49.4337885], [6.5378306, 49.4327757], [6.5343536, 49.4356175], [6.5249516, 49.4354989], [6.4997339, 49.4502049], [6.485666, 49.4519196], [6.464533, 49.466449], [6.455921, 49.46289], [6.443351, 49.468213], [6.440569, 49.4667516], [6.4357143, 49.4691774], [6.4334924, 49.4717251], [6.4347272, 49.472561], [6.4280271, 49.4769475], [6.4258669, 49.4754442], [6.4203648, 49.4763841], [6.408716, 49.4677269], [6.3941807, 49.4641762], [6.3798532, 49.4663043], [6.3797586, 49.4646877], [6.3750635, 49.4643505], [6.374293, 49.4662717], [6.3714606, 49.466764], [6.3715879, 49.4686287], [6.3677166, 49.4694195], [6.3688526, 49.4598675], [6.3644505, 49.4595051], [6.3528538, 49.4673176], [6.347151, 49.4658743], [6.3426495, 49.4691067], [6.3340244, 49.4669399], [6.3327885, 49.4696331], [6.3298969, 49.4700642], [6.3283024, 49.4727345], [6.3206501, 49.4774227], [6.3146038, 49.4770718], [6.3129635, 49.4803982], [6.3054409, 49.4771404], [6.2962246, 49.480196], [6.2951069, 49.4813938], [6.2987995, 49.4886341], [6.2921162, 49.4874401], [6.2912121, 49.4846821], [6.288805, 49.4848461], [6.2875423, 49.4860744], [6.2894802, 49.4870701], [6.2862225, 49.4881458], [6.2843876, 49.4914722], [6.2885571, 49.4915218], [6.2895603, 49.4938335], [6.2838535, 49.49299], [6.279581, 49.494595], [6.279402, 49.498592], [6.2815304, 49.50085], [6.2797112, 49.503314], [6.271857, 49.5047262], [6.263296, 49.503952], [6.2627125, 49.506622], [6.258051, 49.507545], [6.2570057, 49.509796], [6.246565, 49.509037], [6.2451344, 49.51151], [6.241644, 49.511963], [6.2406513, 49.5149373], [6.2361641, 49.5081522], [6.2275753, 49.510357], [6.220003, 49.50877], [6.2181034, 49.509964], [6.2163715, 49.509014], [6.2172304, 49.5068979], [6.2137814, 49.506287], [6.2025013, 49.50701], [6.1957607, 49.50536], [6.1808414, 49.50801], [6.1783085, 49.506958], [6.176859, 49.509975], [6.1749744, 49.510307], [6.1636295, 49.504543], [6.1565456, 49.504013], [6.1538906, 49.501633], [6.1570835, 49.497063], [6.1624928, 49.493484], [6.159437, 49.49177], [6.1573353, 49.491478], [6.155855, 49.493393], [6.152807, 49.49274], [6.1531353, 49.49171], [6.140768, 49.48667], [6.141756, 49.49168], [6.1327953, 49.489994], [6.1280384, 49.49392], [6.126749, 49.490025], [6.1274776, 49.482327], [6.122999, 49.476517], [6.1234493, 49.473465], [6.114191, 49.470486], [6.1110783, 49.472553], [6.104063, 49.471157], [6.0998096, 49.467464], [6.098093, 49.463474], [6.1010227, 49.457863], [6.100775, 49.45289], [6.0923214, 49.45314], [6.0862293, 49.455357], [6.0807056, 49.458466], [6.0792065, 49.463917], [6.0581074, 49.46644], [6.053095, 49.4639], [6.0417732, 49.4478587], [6.032583, 49.449535], [6.027254, 49.44826], [6.025923, 49.45185], [6.0292835, 49.455048], [6.0280743, 49.45575], [6.026697, 49.454193], [6.0217495, 49.454975], [6.0078487, 49.451637], [6.001234, 49.456505], [5.9979343, 49.456497], [5.9819736, 49.451065], [5.9803143, 49.45187], [5.9792995, 49.455242], [5.982359, 49.457035], [5.9857235, 49.455738], [5.9880695, 49.461292], [5.9825788, 49.4635187], [5.9814384, 49.4612192], [5.9793096, 49.4609064], [5.9740051, 49.465486], [5.9736264, 49.4685918], [5.9719402, 49.469567], [5.9723101, 49.4743785], [5.9696459, 49.4755081], [5.9742866, 49.4769482], [5.9749758, 49.4815712], [5.9680892, 49.4864], [5.9737989, 49.4891107], [5.97299, 49.49053], [5.966131, 49.491344], [5.9645977, 49.493004], [5.955202, 49.493095], [5.946208, 49.4976036], [5.9434183, 49.4974024], [5.9438225, 49.4951792], [5.9419684, 49.4979962], [5.9431541, 49.5002317], [5.9359753, 49.5008601], [5.9324102, 49.4995739], [5.9305575, 49.5006438], [5.9275385, 49.4983827], [5.9219453, 49.5007277], [5.907675, 49.50213], [5.907278, 49.500095], [5.90341, 49.498123], [5.8957386, 49.496532], [5.8893566, 49.496754], [5.8850765, 49.498833], [5.8756313, 49.498257], [5.8719236, 49.5002651], [5.8662624, 49.499912], [5.858881, 49.50592], [5.850004, 49.508675], [5.847826, 49.51495], [5.8360577, 49.519962], [5.834303, 49.52372], [5.8347607, 49.52704], [5.845808, 49.529903], [5.839159, 49.537315], [5.837076, 49.542583], [5.8171597, 49.537018], [5.813341, 49.54155], [5.80855, 49.54091], [5.8081264, 49.54256], [5.8180637, 49.54583], [5.8158544, 49.5484767], [5.8123502, 49.5474101], [5.8078568, 49.550831], [5.8011699, 49.5495221], [5.7925247, 49.5516173], [5.7818893, 49.559482], [5.7772669, 49.5597814], [5.7744274, 49.5632297], [5.7583149, 49.5614215], [5.7599062, 49.5583918], [5.755822, 49.5563986], [5.7579251, 49.5503416], [5.755711, 49.5457859], [5.7576662, 49.5429968], [5.747154, 49.5394622], [5.7381608, 49.5388], [5.735199, 49.5433535], [5.732162, 49.5440826], [5.7337956, 49.5455941], [5.7244123, 49.5444062], [5.7227071, 49.5426254], [5.7234441, 49.5414492], [5.7203946, 49.5397959], [5.7149995, 49.539175], [5.7133536, 49.5407538], [5.7049645, 49.5388261], [5.6999927, 49.5401194], [5.698765, 49.5409628], [5.6996233, 49.5424968], [5.6948924, 49.5432706], [5.6906145, 49.5462675], [5.6811186, 49.5454068], [5.6820456, 49.5479941], [5.6793331, 49.5488628], [5.6693001, 49.5482549], [5.6643505, 49.5531214], [5.6607946, 49.5536224], [5.6520078, 49.5501975], [5.6508595, 49.5512584], [5.6483912, 49.5499578], [5.6426386, 49.550444], [5.6434194, 49.5469166], [5.6336647, 49.5443832], [5.6343896, 49.5428966], [5.6307573, 49.5419997], [5.6329334, 49.5395236], [5.6220558, 49.5344102], [5.6155481, 49.527227], [5.6191306, 49.5249426], [5.6214791, 49.5196158], [5.6110512, 49.5059677], [5.6039554, 49.5087317], [5.6038383, 49.5121437], [5.6008737, 49.51351], [5.6022785, 49.5156102], [5.5913245, 49.5229447], [5.5885847, 49.5216771], [5.5712605, 49.5279675], [5.5662757, 49.5276109], [5.5636606, 49.5255618], [5.5565466, 49.5292301], [5.5458603, 49.5239386], [5.5439468, 49.5178677], [5.5411105, 49.515217], [5.5170988, 49.5090892], [5.4995916, 49.5066017], [5.4837019, 49.5074817], [5.4802752, 49.5043032], [5.4793179, 49.5003521], [5.4743433, 49.4972867], [5.4651228, 49.4987988], [5.4663184, 49.5003278], [5.4645073, 49.5015473], [5.4657136, 49.5090225], [5.456612, 49.5133501], [5.4541875, 49.5126265], [5.4542847, 49.5144343], [5.4475012, 49.5179182], [5.455145, 49.5201324], [5.4609593, 49.5257728], [5.4670351, 49.5259443], [5.4653748, 49.5389115], [5.449072, 49.5481776], [5.4427638, 49.550196], [5.4414056, 49.5524275], [5.4477017, 49.5542956], [5.4481922, 49.5568363], [5.4570833, 49.566989], [5.4436976, 49.5676113], [5.4376642, 49.5699384], [5.4293402, 49.5878327], [5.4287915, 49.5901707], [5.4311098, 49.5925494], [5.4284242, 49.5960786], [5.4249862, 49.5983782], [5.4179738, 49.5998376], [5.4112037, 49.6082796], [5.4022801, 49.6098861], [5.3980845, 49.6158458], [5.3819156, 49.6196267], [5.3745716, 49.6235795], [5.3638052, 49.6232092], [5.3616112, 49.6261964], [5.3521387, 49.6309857], [5.3475329, 49.6312435], [5.3448329, 49.6285967], [5.3435418, 49.621985], [5.3379506, 49.6182372], [5.3404354, 49.616681], [5.3368187, 49.6155367], [5.3259382, 49.6162297], [5.3221967, 49.6140145], [5.3183591, 49.6145871], [5.3154414, 49.6113618], [5.3121068, 49.6116529], [5.310942, 49.6184556], [5.3046856, 49.6245886], [5.3050086, 49.6302947], [5.3088211, 49.6367244], [5.3189011, 49.6445191], [5.3181403, 49.6463982], [5.3322645, 49.6525316], [5.3321686, 49.6544918], [5.3091186, 49.6720136], [5.2935537, 49.6771771], [5.290085, 49.6811146], [5.2853567, 49.6828896], [5.2838712, 49.6857285], [5.281255, 49.6858818], [5.281188, 49.6890602], [5.2685113, 49.6965705], [5.2560329, 49.6940687], [5.2506266, 49.6886286], [5.2427526, 49.6853674], [5.2430273, 49.6891747], [5.2321047, 49.6916028], [5.2181165, 49.687651], [5.2057406, 49.6963129], [5.2010194, 49.6926905], [5.1959394, 49.691946], [5.1964115, 49.6936672], [5.1915835, 49.694736], [5.1870774, 49.6935145], [5.1805972, 49.6945278], [5.1641752, 49.6934521], [5.1638065, 49.7003207], [5.1665667, 49.7075219], [5.1660359, 49.7117506], [5.1589499, 49.7169035], [5.1530885, 49.71859], [5.143717, 49.7091976], [5.1408742, 49.7135886], [5.1258231, 49.7124948], [5.1257937, 49.7162264], [5.122809, 49.7170504], [5.1250485, 49.7270886], [5.1190302, 49.735501], [5.1188568, 49.7385478], [5.0943894, 49.7634562], [5.0880056, 49.7663056], [5.0850295, 49.7630056], [5.0717402, 49.7608945], [5.0634342, 49.7621699], [5.061612, 49.7673583], [5.0372565, 49.7718322], [5.0085543, 49.7820597], [5.0064717, 49.784726], [5.0071267, 49.7873782], [5.0010348, 49.7939166], [4.9971496, 49.7950853], [4.9986449, 49.7964259], [4.9984291, 49.7996081], [4.9942752, 49.8008997], [4.9847756, 49.7996516], [4.9686384, 49.8015901], [4.9675106, 49.7985289], [4.9623036, 49.7978237], [4.9569757, 49.8004696], [4.956807, 49.8018539], [4.9471617, 49.799099], [4.945976, 49.7943536], [4.9428737, 49.790493], [4.9420591, 49.7926702], [4.9389194, 49.7930902], [4.9319169, 49.7898588], [4.9307847, 49.7869981], [4.9202054, 49.7887065], [4.9061676, 49.785572], [4.9007772, 49.7861729], [4.8977939, 49.7892345], [4.8877909, 49.7881452], [4.8766865, 49.7934353], [4.8699447, 49.7935591], [4.8713284, 49.7893116], [4.8636988, 49.7887529], [4.8519966, 49.7930478], [4.8591046, 49.7967907], [4.859455, 49.800187], [4.8630875, 49.8017674], [4.8658729, 49.810838], [4.8652699, 49.8133047], [4.8758707, 49.8170623], [4.8763929, 49.8192569], [4.8691772, 49.8230435], [4.8688747, 49.8309571], [4.8663712, 49.8325821], [4.8692491, 49.834199], [4.8671678, 49.8420571], [4.8568037, 49.8413795], [4.8577821, 49.8467044], [4.8520478, 49.8523425], [4.850882, 49.8655341], [4.8475351, 49.868087], [4.8542954, 49.8647897], [4.8625027, 49.8668986], [4.8620967, 49.8721033], [4.8668716, 49.8785966], [4.8717422, 49.8793631], [4.869332, 49.8836458], [4.8771576, 49.8917579], [4.8778571, 49.8945289], [4.8876211, 49.8985711], [4.8853224, 49.9021075], [4.8764085, 49.9014402], [4.877741, 49.9046458], [4.8864616, 49.9058371], [4.8901307, 49.9089349], [4.8806194, 49.9163566], [4.8815764, 49.9220952], [4.8585483, 49.9324122], [4.8489664, 49.9482408], [4.8399318, 49.9512178], [4.8298361, 49.949495], [4.826552, 49.9517073], [4.8067946, 49.9544267], [4.7963302, 49.958114], [4.7911711, 49.9580026], [4.790334, 49.969829], [4.794969, 49.975791], [4.793253, 49.981861], [4.806814, 49.98418], [4.819173, 49.995216], [4.815912, 49.998634], [4.815912, 50.001064], [4.821062, 50.011764], [4.81677, 50.015075], [4.818487, 50.020259], [4.822435, 50.022022], [4.820032, 50.025882], [4.826212, 50.028751], [4.829988, 50.034263], [4.834966, 50.034595], [4.841489, 50.039665], [4.840631, 50.046062], [4.832048, 50.046833], [4.82707, 50.050029], [4.829301, 50.057304], [4.827585, 50.059398], [4.819685, 50.060783], [4.81923, 50.06189], [4.822212, 50.064436], [4.819384, 50.065927], [4.838133, 50.06724], [4.842951, 50.07779], [4.8405912, 50.0829959], [4.8469612, 50.083562], [4.8420417, 50.0917927], [4.8374127, 50.0932051], [4.8490103, 50.0981603], [4.8503754, 50.0996612], [4.8496841, 50.101159], [4.8596487, 50.0992593], [4.8615018, 50.0971278], [4.860457, 50.0930082], [4.8686977, 50.088314], [4.8724173, 50.0877837], [4.875778, 50.0942706], [4.8669529, 50.0970494], [4.869905, 50.0999392], [4.8737181, 50.1074681], [4.8733731, 50.1096423], [4.8670574, 50.1188107], [4.8710917, 50.1248774], [4.8785068, 50.1272473], [4.8784141, 50.1317769], [4.8868196, 50.130788], [4.8909344, 50.1341748], [4.8949188, 50.1348277], [4.8971111, 50.1379186], [4.8950491, 50.1402043], [4.8814073, 50.1412081], [4.8825091, 50.1437221], [4.877572, 50.1537301], [4.8512513, 50.1521851], [4.8407523, 50.1541358], [4.8324337, 50.1531657], [4.8305591, 50.1565385], [4.8241055, 50.1611437], [4.8249624, 50.1692248], [4.8064561, 50.1526527], [4.7799129, 50.1415038], [4.7621672, 50.1364474], [4.762868, 50.134387], [4.7561025, 50.1215935], [4.7481925, 50.1223228], [4.7532955, 50.1164934], [4.751785, 50.1119912], [4.715662, 50.100925], [4.7132619, 50.0969583], [4.7021057, 50.0955571], [4.690324, 50.081304], [4.687804, 50.076311], [4.688526, 50.072703], [4.679764, 50.06805], [4.68427, 50.063331], [4.6860116, 50.0574338], [4.697051, 50.059212], [4.696779, 50.05521], [4.70004, 50.053005], [4.695406, 50.047382], [4.696436, 50.042644], [4.691972, 50.037681], [4.6882234, 50.0286425], [4.6847467, 50.0272762], [4.6873422, 50.0243738], [4.6858597, 50.0208559], [4.6860649, 50.0139212], [4.6888444, 50.011252], [4.6849878, 50.0065975], [4.6870918, 50.0048876], [4.687627, 50.0006871], [4.6939852, 49.9955639], [4.684919, 49.996794], [4.6773377, 49.9954995], [4.6710317, 49.9971779], [4.666464, 49.996474], [4.663286, 49.993989], [4.637201, 49.989402], [4.633744, 49.987326], [4.60774, 49.985364], [4.5974669, 49.9863469], [4.58179, 49.983575], [4.573698, 49.980094], [4.571923, 49.974693], [4.5645211, 49.9704567], [4.5504582, 49.9682811], [4.5410646, 49.9695228], [4.5392711, 49.9664962], [4.532263, 49.962837], [4.5314107, 49.9598059], [4.5247662, 49.9537702], [4.5235754, 49.9502646], [4.518671, 49.9516798], [4.5112169, 49.946515], [4.4952431, 49.9485681], [4.4860604, 49.9461563], [4.4811742, 49.9481331], [4.4455089, 49.9372154], [4.4408396, 49.9412057], [4.4328966, 49.9413405], [4.4165557, 49.9476622], [4.4026717, 49.9493256], [4.3906614, 49.9476931], [4.3836906, 49.9513353], [4.3812166, 49.954441], [4.3718539, 49.9514151], [4.3509827, 49.9522263], [4.335646, 49.963536], [4.32257, 49.963598], [4.309527, 49.969556], [4.299944, 49.965533], [4.289808, 49.963676], [4.2689361, 49.9654756], [4.242202, 49.961597], [4.239568, 49.959088], [4.233681, 49.957514], [4.2248438, 49.959365], [4.2166528, 49.9571365], [4.2018113, 49.9571159], [4.1974955, 49.9546041], [4.1948599, 49.9567426], [4.1961484, 49.9634763], [4.1984697, 49.9654026], [4.1973505, 49.967488], [4.177817, 49.9720699], [4.1728228, 49.9772001], [4.1525762, 49.9745451], [4.1501086, 49.9769671], [4.1459945, 49.9757117], [4.1405456, 49.9789979], [4.1453334, 49.9802695], [4.1476357, 49.9837035], [4.154456, 49.9847384], [4.159331, 49.9928613], [4.1630973, 49.9949889], [4.1605754, 50.0013818], [4.1588785, 50.0020533], [4.1548701, 49.9998582], [4.1451837, 50.003881], [4.1476585, 50.0057182], [4.1465078, 50.0067092], [4.1423331, 50.0056491], [4.144871, 50.008486], [4.1394839, 50.0093528], [4.1363674, 50.0128229], [4.1357582, 50.0197926], [4.1437942, 50.028031], [4.1443045, 50.0308745], [4.1486121, 50.0322874], [4.1522254, 50.0367975], [4.1526879, 50.039805], [4.1622208, 50.0492648], [4.1739978, 50.0454716], [4.1900387, 50.0503942], [4.1942212, 50.0494303], [4.1987997, 50.056581], [4.2183769, 50.0609008], [4.2240791, 50.0636194], [4.2305789, 50.0693291], [4.2308326, 50.0735487], [4.2256146, 50.0815202], [4.2251944, 50.0856219], [4.217299, 50.0881591], [4.2142689, 50.094243], [4.2104327, 50.0968223], [4.2068419, 50.0959303], [4.2015737, 50.0998529], [4.2009939, 50.1012952], [4.2072419, 50.1050924], [4.2064563, 50.1061212], [4.1966693, 50.1064197], [4.1973138, 50.1093067], [4.20403, 50.1155224], [4.2021681, 50.1168646], [4.2035061, 50.1211244], [4.2018687, 50.1243704], [4.1978037, 50.1275458], [4.2008642, 50.1329642], [4.1995075, 50.1341506], [4.1968236, 50.1351948], [4.1757537, 50.13309], [4.1569686, 50.1352771], [4.1551207, 50.1297266], [4.156161, 50.1289644], [4.1543865, 50.1278461], [4.1377175, 50.1303754], [4.1271221, 50.1356386], [4.130855, 50.1407203], [4.1356428, 50.1427124], [4.1351283, 50.1456433], [4.1374473, 50.1516916], [4.1456012, 50.1574372], [4.1505753, 50.1586215], [4.1552729, 50.1629993], [4.1557744, 50.1720753], [4.1480416, 50.1743246], [4.1510364, 50.17954], [4.1561187, 50.1833765], [4.1562475, 50.1881212], [4.1578962, 50.1894254], [4.1559532, 50.192431], [4.1594055, 50.1921614], [4.1603182, 50.1935792], [4.1604601, 50.2023364], [4.1522198, 50.2066834], [4.1528636, 50.2099251], [4.1504163, 50.2135733], [4.1535472, 50.2125625], [4.1560215, 50.2140755], [4.1654983, 50.2146693], [4.1651497, 50.2160284], [4.1692837, 50.2174461], [4.1727209, 50.2171256], [4.172368, 50.2187812], [4.1698859, 50.2184075], [4.1747843, 50.2199587], [4.1814104, 50.2321761], [4.1935248, 50.2404308], [4.202703, 50.2403304], [4.2059188, 50.2437338], [4.21209, 50.2460314], [4.2201298, 50.2516697], [4.2212337, 50.258639], [4.2158213, 50.261545], [4.2081924, 50.2729896], [4.2010007, 50.2748162], [4.1947584, 50.2732804], [4.177424, 50.275038], [4.1746308, 50.2784572], [4.1763614, 50.2844427], [4.1690199, 50.2846718], [4.1699323, 50.2881146], [4.1626181, 50.2889519], [4.1610699, 50.2849393], [4.153369, 50.2848384], [4.1554657, 50.2838487], [4.1543972, 50.2811492], [4.1555158, 50.2803665], [4.1496974, 50.2772798], [4.1492778, 50.2755273], [4.1500969, 50.2741413], [4.1634231, 50.2718671], [4.1635964, 50.2691664], [4.1687209, 50.2665372], [4.1676679, 50.2594929], [4.1650209, 50.2594376], [4.1635756, 50.2574136], [4.1546749, 50.2564249], [4.1457171, 50.2584976], [4.135505, 50.2573987], [4.1350746, 50.2596157], [4.1378827, 50.259863], [4.1387965, 50.2632859], [4.13367, 50.2664399], [4.1363102, 50.2746022], [4.1240584, 50.2728359], [4.1218594, 50.2776384], [4.1252977, 50.2805253], [4.1256753, 50.2883869], [4.1227327, 50.297994], [4.1182516, 50.3004865], [4.1181885, 50.3031483], [4.1170647, 50.3040885], [4.1097065, 50.3018462], [4.1063424, 50.3069487], [4.0971804, 50.3135117], [4.095573, 50.311962], [4.0932539, 50.3130325], [4.0819248, 50.3092083], [4.0789129, 50.3096635], [4.0781799, 50.3207872], [4.0709053, 50.3241373], [4.0648077, 50.3307164], [4.0550572, 50.3325302], [4.0551447, 50.3348955], [4.0532484, 50.3353135], [4.0540046, 50.3393259], [4.0441405, 50.339471], [4.0360627, 50.3436638], [4.0365283, 50.3449192], [4.0334279, 50.3470865], [4.0349712, 50.3483222], [4.0319053, 50.3513569], [4.0324356, 50.3534858], [4.0319604, 50.3523261], [4.0273805, 50.3570152], [4.0280538, 50.3583732], [4.0241789, 50.3591718], [4.0225406, 50.3568097], [4.0172344, 50.3561831], [4.015432, 50.3536916], [4.0178096, 50.3523405], [4.0111175, 50.3499918], [4.0012022, 50.3504774], [3.9990121, 50.3478363], [3.9934837, 50.3486898], [3.9885042, 50.3462133], [3.9886874, 50.3435472], [3.9856626, 50.3421371], [3.9814911, 50.3448238], [3.9751341, 50.3459438], [3.973175, 50.3479673], [3.9713347, 50.3436533], [3.9674868, 50.3406789], [3.9656835, 50.3415041], [3.9680604, 50.3434092], [3.969144, 50.3470859], [3.9677385, 50.3498381], [3.910093, 50.3288422], [3.9009405, 50.326956], [3.8965257, 50.3289473], [3.8857376, 50.3270105], [3.8852252, 50.328713], [3.8905085, 50.3298362], [3.8885595, 50.3317538], [3.8896117, 50.3318739], [3.8895137, 50.336548], [3.8863468, 50.3361751], [3.8861091, 50.3374528], [3.8882586, 50.3375961], [3.8870288, 50.3410443], [3.8840146, 50.3390248], [3.875657, 50.3375899], [3.8621177, 50.3418415], [3.8621117, 50.343772], [3.8572357, 50.3422049], [3.8584858, 50.3457065], [3.8564446, 50.3485337], [3.8531653, 50.3511888], [3.8457828, 50.3532303], [3.8243417, 50.3534436], [3.8234602, 50.3470904], [3.8152584, 50.3448886], [3.811591, 50.3450362], [3.8154048, 50.3496107], [3.8139299, 50.3532157], [3.8065554, 50.3553189], [3.7989917, 50.350936], [3.7834885, 50.3535498], [3.7756421, 50.3531146], [3.7703352, 50.3510132], [3.7666343, 50.3530525], [3.7632782, 50.3478968], [3.747135, 50.3509916], [3.7454197, 50.3500294], [3.7469296, 50.3482923], [3.7421947, 50.3489227], [3.7417671, 50.3473644], [3.7393481, 50.3476728], [3.7390904, 50.3451902], [3.7364903, 50.3432359], [3.7336523, 50.3428462], [3.7383762, 50.3412666], [3.7330465, 50.3382072], [3.7352197, 50.33588], [3.7370684, 50.3360517], [3.7338165, 50.3348443], [3.7338231, 50.3299868], [3.7298055, 50.3304253], [3.7290974, 50.3256388], [3.732317, 50.3215485], [3.7304868, 50.3194854], [3.7312893, 50.3183814], [3.7273141, 50.3153144], [3.7319038, 50.3114815], [3.7285031, 50.3107462], [3.7285922, 50.3094194], [3.7209356, 50.3113289], [3.7202653, 50.3159471], [3.7100001, 50.319471], [3.7089197, 50.3188488], [3.7107171, 50.3176832], [3.7102182, 50.3139755], [3.7153296, 50.3126652], [3.7174184, 50.3089452], [3.7155283, 50.3065517], [3.7201973, 50.3050118], [3.709936, 50.3031647], [3.7022142, 50.310946], [3.6943369, 50.313197], [3.6953964, 50.3167131], [3.6839951, 50.3201641], [3.6897262, 50.319032], [3.6921537, 50.3202026], [3.6926707, 50.3187704], [3.6938258, 50.3218382], [3.6886406, 50.3227777], [3.6849471, 50.3250165], [3.6856209, 50.3266173], [3.6839292, 50.327989], [3.6795174, 50.3291958], [3.6778095, 50.3329668], [3.674698, 50.3329095], [3.6732896, 50.3351085], [3.6773521, 50.3402501], [3.6691491, 50.3449485], [3.6692029, 50.3467213], [3.6647553, 50.347707], [3.6672401, 50.3510526], [3.6671265, 50.3609074], [3.6644243, 50.3655713], [3.6572629, 50.368581], [3.6581603, 50.373472], [3.6654767, 50.3785605], [3.6663974, 50.3818638], [3.6683502, 50.3821828], [3.6671365, 50.3830875], [3.6699004, 50.3853628], [3.6692245, 50.3868849], [3.6736528, 50.3886361], [3.6722929, 50.3941149], [3.672993, 50.3997796], [3.6749376, 50.4023355], [3.6727838, 50.4057033], [3.6739653, 50.4077042], [3.6722134, 50.4146592], [3.670201, 50.416995], [3.6702187, 50.4197756], [3.672564, 50.4201662], [3.672246, 50.4222553], [3.6689407, 50.4229247], [3.6696545, 50.4372248], [3.6667846, 50.4405217], [3.6610371, 50.4430403], [3.6594017, 50.4451073], [3.660247, 50.4463586], [3.6583913, 50.4468296], [3.6601988, 50.4471696], [3.6606614, 50.4498885], [3.6641494, 50.4523875], [3.6628324, 50.4557793], [3.6533842, 50.4635678], [3.6520878, 50.4625917], [3.6483229, 50.4642095], [3.6444331, 50.4625417], [3.6351532, 50.4711321], [3.6302335, 50.479255], [3.6325613, 50.4799295], [3.6190592, 50.4867825], [3.607522, 50.497224], [3.5963298, 50.4921115], [3.5851693, 50.4905308], [3.579766, 50.49182], [3.5791585, 50.4945507], [3.572695, 50.4966059], [3.5718332, 50.4976972], [3.5738104, 50.4987292], [3.5725205, 50.4998488], [3.5683554, 50.5008924], [3.5625229, 50.4978911], [3.5478876, 50.4979589], [3.5391865, 50.4943578], [3.5320589, 50.4960552], [3.5228893, 50.4953752], [3.5151913, 50.491133], [3.5108223, 50.4909648], [3.5006778, 50.4867209], [3.4975523, 50.4931305], [3.4994528, 50.4946277], [3.4962522, 50.4988535], [3.5040952, 50.5057127], [3.5037665, 50.5069167], [3.5094224, 50.5085068], [3.5161405, 50.5128255], [3.5167962, 50.514646], [3.5154707, 50.5152666], [3.5177782, 50.5182587], [3.5176997, 50.5216734], [3.5199234, 50.523617], [3.5048643, 50.5281944], [3.5038845, 50.5297067], [3.4992032, 50.5300799], [3.4911597, 50.5276537], [3.4743888, 50.5336789], [3.470374, 50.5326089], [3.4704648, 50.530613], [3.4641055, 50.5252999], [3.4538553, 50.5192249], [3.4542623, 50.5152439], [3.4505137, 50.5117143], [3.4520203, 50.5103932], [3.4489051, 50.5065876], [3.439363, 50.5072407], [3.4384447, 50.5106544], [3.4289497, 50.5047133], [3.4187303, 50.5022984], [3.4162346, 50.5029769], [3.4086378, 50.4992909], [3.3973791, 50.4984086], [3.3960326, 50.4961134], [3.3920714, 50.4985425], [3.3865037, 50.4942165], [3.3763271, 50.4911317], [3.3707176, 50.493852], [3.3691978, 50.4977829], [3.3616557, 50.5040222], [3.337243, 50.5088518], [3.3295845, 50.5079893], [3.3266053, 50.5105623], [3.3281251, 50.5125141], [3.3218802, 50.5156955], [3.3206624, 50.5187442], [3.3079448, 50.5195268], [3.2884474, 50.5258668], [3.286341, 50.527929], [3.2868867, 50.5318346], [3.2848591, 50.5327102], [3.2845318, 50.5351786], [3.2787652, 50.5386026], [3.2815679, 50.5435814], [3.2782089, 50.5516858], [3.2825227, 50.5520301], [3.2808655, 50.5559855], [3.2788414, 50.555476], [3.275892, 50.5585295], [3.2851786, 50.5616507], [3.2776756, 50.564291], [3.2785006, 50.5728549], [3.2814582, 50.5728934], [3.282029, 50.5753065], [3.2809114, 50.5785003], [3.275655, 50.5819654], [3.2760431, 50.5897438], [3.2777532, 50.5906946], [3.2768256, 50.5914504], [3.2795584, 50.5959139], [3.2745074, 50.5968915], [3.276122, 50.6004013], [3.2737431, 50.6006605], [3.2746373, 50.6047469], [3.2710311, 50.6062054], [3.2700523, 50.6118545], [3.2631218, 50.6166916], [3.2638974, 50.6177479], [3.2578288, 50.6203755], [3.258892, 50.6215244], [3.2552597, 50.6227198], [3.259175, 50.6296766], [3.2556528, 50.6303164], [3.256104, 50.6314268], [3.2526986, 50.6328468], [3.2520534, 50.635842], [3.2440216, 50.6406907], [3.2495422, 50.6474301], [3.2489069, 50.6497647], [3.2452068, 50.6512994], [3.2469422, 50.6522655], [3.2400701, 50.6586262], [3.2423617, 50.6623608], [3.2412048, 50.6688369], [3.2528099, 50.6742576], [3.2652281, 50.6770412], [3.2608768, 50.6791579], [3.2575645, 50.6835623], [3.2585927, 50.6852659], [3.2549198, 50.6867035], [3.2527925, 50.6897512], [3.2545468, 50.6913196], [3.2614672, 50.6914309], [3.2585106, 50.6960769], [3.2610378, 50.701309], [3.2508104, 50.7053496], [3.2521733, 50.7066087], [3.2451472, 50.7130317], [3.2379073, 50.7112578], [3.235601, 50.7130443], [3.2273401, 50.7130305], [3.2202952, 50.7099086], [3.2185716, 50.7121571], [3.2109724, 50.7133588], [3.2090197, 50.7110724], [3.2049371, 50.7120205], [3.2087111, 50.7128846], [3.2097712, 50.7174654], [3.2061271, 50.7201113], [3.1984642, 50.7205105], [3.191228, 50.7255863], [3.1917081, 50.7277435], [3.1985326, 50.7314045], [3.2000147, 50.7345639], [3.1920284, 50.7394833], [3.1879458, 50.7402142], [3.1855816, 50.744429], [3.1862213, 50.7471556], [3.1795646, 50.7536561], [3.1802591, 50.7552611], [3.1712453, 50.7586526], [3.1713708, 50.7622676], [3.151118, 50.7835253], [3.1533683, 50.7856648], [3.1503759, 50.7901], [3.1270253, 50.7863518], [3.1250042, 50.7866277], [3.121391, 50.7907775], [3.1123459, 50.794503], [3.1071192, 50.788358], [3.1086082, 50.7866503], [3.1055075, 50.78239], [3.0900155, 50.7763039], [3.0902084, 50.7742006], [3.0882151, 50.7730867], [3.0813459, 50.7727277], [3.0614339, 50.7805156], [3.0554617, 50.7805346], [3.0405104, 50.7758893], [3.0370291, 50.7712733], [3.0336055, 50.7697862], [3.0265226, 50.7717038], [3.024686, 50.7707137], [3.0150677, 50.7739564], [3.0149377, 50.7714137], [3.0125041, 50.7693726], [2.9934426, 50.7602408], [2.9813906, 50.7570179], [2.9724641, 50.7503314], [2.9624484, 50.7498575], [2.9630901, 50.7518323], [2.9595357, 50.7536245], [2.9514511, 50.7520791], [2.9376979, 50.7442225], [2.938003, 50.738743], [2.9416606, 50.7369213], [2.9447242, 50.7321711], [2.9314726, 50.7279411], [2.9291456, 50.7240084], [2.9310592, 50.7180275], [2.9287661, 50.7090755], [2.9257069, 50.707644], [2.924199, 50.7039962], [2.9219231, 50.7027444], [2.910153, 50.7032396], [2.9085094, 50.7017464], [2.910789, 50.6943026], [2.9057134, 50.6923659], [2.898757, 50.6938946], [2.8853026, 50.7064909], [2.8794501, 50.7027418], [2.8738655, 50.7040991], [2.86979, 50.7031795], [2.8536677, 50.7155408], [2.8481001, 50.7230136], [2.8295212, 50.7197236], [2.819234, 50.7155101], [2.8155899, 50.717635], [2.8106004, 50.7174625], [2.8003436, 50.7235461], [2.7945472, 50.7248767], [2.7953261, 50.7258038], [2.790119, 50.7257584], [2.791323, 50.7281461], [2.7893799, 50.7288673], [2.7903879, 50.7316405], [2.7871494, 50.7326499], [2.7816321, 50.7434224], [2.783599, 50.7442697], [2.7830401, 50.7515205], [2.7779844, 50.7505561], [2.7726714, 50.7551154], [2.7659424, 50.7546589], [2.7615772, 50.759195], [2.7639083, 50.7610759], [2.7630948, 50.7628734], [2.7565101, 50.7626813], [2.7619969, 50.7706931], [2.7612152, 50.77195], [2.7543039, 50.7747309], [2.7535407, 50.7770075], [2.7504107, 50.7785524], [2.7411488, 50.7817421], [2.7383004, 50.780533], [2.7304293, 50.7880625], [2.7291313, 50.7898581], [2.7298294, 50.7919026], [2.7261788, 50.792412], [2.7213315, 50.8023063], [2.725919, 50.8089959], [2.7241079, 50.8105847], [2.7130202, 50.8153443], [2.7107607, 50.8135615], [2.6789327, 50.8134302], [2.675054, 50.8193509], [2.6693883, 50.8227438], [2.6677368, 50.8196461], [2.6560207, 50.8134753], [2.6351027, 50.8129057], [2.6295466, 50.8221718], [2.6255268, 50.8366759], [2.6203343, 50.8388341], [2.6186287, 50.8380645], [2.6162346, 50.8399978], [2.6167189, 50.8479195], [2.611277, 50.8502814], [2.6034931, 50.847733], [2.6028022, 50.8490686], [2.5990157, 50.8490345], [2.59903, 50.853003], [2.6037999, 50.8564386], [2.6043125, 50.8584765], [2.6122387, 50.8634754], [2.6118175, 50.8674544], [2.6128894, 50.867458], [2.6060554, 50.8738967], [2.6104648, 50.8800016], [2.6064558, 50.8825519], [2.6070431, 50.8860639], [2.6042575, 50.8863768], [2.6069863, 50.8903186], [2.6060728, 50.8913044], [2.6095252, 50.8945162], [2.6094247, 50.8981448], [2.6065939, 50.8986444], [2.6056196, 50.9004915], [2.6067785, 50.9017857], [2.604117, 50.9045641], [2.6079991, 50.9101], [2.6063747, 50.9110447], [2.6075268, 50.9127694], [2.6038074, 50.9166349], [2.5944504, 50.9143828], [2.590243, 50.9189437], [2.595841, 50.9212578], [2.6087788, 50.9309057], [2.617806, 50.9347298], [2.6192657, 50.936943], [2.6171513, 50.940477], [2.6179238, 50.9414274], [2.6302525, 50.9432811], [2.6329266, 50.9461862], [2.6287338, 50.9505683], [2.6194205, 50.9673793], [2.6108876, 50.9736032], [2.6125252, 50.9747132], [2.6085378, 50.9792286], [2.6092482, 50.9813971], [2.6067115, 50.9820195], [2.6101175, 50.985329], [2.6070093, 50.9911905], [2.5951633, 50.992126], [2.5792294, 50.9992301], [2.5739725, 51.0032865], [2.5753352, 51.0060145], [2.5709895, 51.0105094], [2.5721513, 51.0134344], [2.5759378, 51.0138746], [2.5619934, 51.0584375], [2.5628473, 51.0649268], [2.5594187, 51.0707155], [2.5416, 51.09352], [2.3889137, 51.268318], [2.369565, 51.3050511], [2.3120147, 51.3043368], [2.273782, 51.3001894], [2.2423535, 51.2944544], [2.1936223, 51.2808645], [2.1706877, 51.2721595], [2.1333588, 51.2539669], [2.1152197, 51.2426423], [2.0754596, 51.2371273], [2.0344048, 51.2277129], [1.9974067, 51.2154827], [1.9690477, 51.2031445], [1.918147, 51.2031493], [1.8900335, 51.2008846], [1.7239442, 51.0985805], [1.5466944, 51.03775], [1.3555833, 50.9491389], [1.2814167, 50.8955278], [1.2627276, 50.8213409], [1.2687941, 50.804091], [1.2502786, 50.7570788], [1.2452915, 50.7407345], [1.2424685, 50.7241829], [1.2418277, 50.7075425], [1.2433705, 50.6909238], [1.252303, 50.6195202], [1.2442345, 50.594634], [1.2412481, 50.5769755], [1.2406086, 50.5603298], [1.2424796, 50.5416449], [1.2516685, 50.5032851], [1.2514218, 50.4913321], [1.2451244, 50.4678789], [1.2296247, 50.4386836], [1.21891, 50.4080659], [1.2163931, 50.3927581], [1.215755, 50.3761233], [1.2189781, 50.3461297], [1.1976231, 50.3204097], [1.1833852, 50.2955518], [1.1727858, 50.2706799], [1.1678498, 50.2543445], [1.1650535, 50.2377855], [1.1643913, 50.2212567], [1.1236155, 50.202744], [1.103978, 50.1918815], [1.0426812, 50.153102], [0.9858137, 50.1260415], [0.9388682, 50.1251465], [0.8878599, 50.1196062], [0.8339143, 50.1078181], [0.7872868, 50.092457], [0.7836705, 50.0893796], [0.7441555, 50.0835266], [0.7111775, 50.0757626], [0.6594005, 50.0732586], [0.5654485, 50.0606486], [0.4703773, 50.0418533], [0.4246406, 50.027916], [0.3791927, 50.0116482], [0.3592418, 50.0030501], [0.2996335, 49.9728726], [0.2858055, 49.9674436], [0.2212365, 49.9472696], [0.1761855, 49.9280869], [0.1368604, 49.9165485], [0.1138629, 49.9074929], [0.056506, 49.8912029], [0.0136006, 49.8728093], [-0.0196251, 49.8542139], [-0.0417475, 49.8393437], [-0.0680629, 49.8272689], [-0.1055859, 49.8045134], [-0.1367121, 49.7780397], [-0.1552776, 49.7571947], [-0.1662619, 49.7421455], [-0.1752753, 49.7265419], [-0.1822419, 49.7105231], [-0.1871262, 49.6941726], [-0.1898908, 49.6776234], [-0.1896818, 49.6503301], [-0.1998617, 49.6362807], [-0.2281683, 49.587203], [-0.2367567, 49.5664328], [-0.2432945, 49.5363288], [-0.2865861, 49.5469916], [-0.3367245, 49.5535646], [-0.3944471, 49.5571042], [-0.4381157, 49.5558094], [-0.5003854, 49.5608165], [-0.6268147, 49.561476], [-0.6776528, 49.5559023], [-0.7044422, 49.5505059], [-0.7218016, 49.5518586], [-0.7329244, 49.5536791], [-0.7722277, 49.5680334], [-0.8153152, 49.5804031], [-0.8597237, 49.5891719], [-0.884553, 49.6087232], [-0.9128661, 49.6467305], [-0.918605, 49.6685634], [-0.929859, 49.6985084], [-0.9620443, 49.7576719], [-0.9844859, 49.7875985], [-1.0091222, 49.814252], [-1.0423553, 49.8396332], [-1.0613245, 49.8508937], [-1.103116, 49.8711708], [-1.1481511, 49.8880228], [-1.2205776, 49.9065582], [-1.3279166, 49.9215313], [-1.3891052, 49.9221535], [-1.4399164, 49.91661], [-1.4866517, 49.9062272], [-1.5518326, 49.8958308], [-1.6722597, 49.8876236], [-1.7100372, 49.9016636], [-1.7581335, 49.9135774], [-1.815139, 49.9204588], [-1.8410246, 49.9261378], [-1.8915458, 49.9327107], [-1.9403797, 49.9345095], [-1.9661529, 49.9338128], [-2.0169765, 49.928269], [-2.0546641, 49.9201431], [-2.0502773, 49.808508], [-2.0597203, 49.7512841], [-2.0658296, 49.6810043], [-2.0830512, 49.6498922], [-2.0849955, 49.6412808], [-2.1319381, 49.5454444], [-2.1388825, 49.5398886], [-2.0988795, 49.4596091], [-1.9938748, 49.3637189], [-1.8930382, 49.3157189], [-1.8347019, 49.2498845], [-1.8347, 49.1823827], [-1.8605306, 49.0648793], [-1.9442096, 48.9637052], [-1.984711, 48.9407067], [-1.9846947, 48.882373], [-2.0846963, 48.8712049], [-2.2430327, 48.871203], [-2.5267063, 48.9268678], [-2.5267099, 49.0585379], [-2.5605483, 49.219875], [-2.6938853, 49.2590411], [-2.7380531, 49.2704298], [-2.7786097, 49.2787629], [-2.9331736, 49.3034399], [-2.9862023, 49.2885722], [-3.0285879, 49.270176], [-3.0656814, 49.2474259], [-3.0961, 49.2230601], [-3.1157379, 49.2036378], [-3.1342469, 49.1799421], [-3.1500479, 49.1483161], [-3.1548787, 49.1319675], [-3.1574206, 49.116586], [-3.2117982, 49.1103252], [-3.4131903, 49.1044292], [-3.4588028, 49.1068496], [-3.4936991, 49.1062514], [-3.5436699, 49.1007067], [-3.5875112, 49.0908184], [-3.6981921, 49.0773693], [-3.747272, 49.0691008], [-3.7935472, 49.0555787], [-3.8251716, 49.0422191], [-4.1187984, 48.9540193], [-4.1571174, 48.9446979], [-4.5920189, 48.8556967], [-4.6428008, 48.8472683], [-4.666263, 48.8411445], [-4.688869, 48.8337478], [-4.7197905, 48.8208714], [-4.7693528, 48.8065576], [-4.8213718, 48.7842585], [-4.856933, 48.7756043], [-4.9054412, 48.7574894], [-5.1702398, 48.681504], [-5.1990665, 48.6776919], [-5.2465222, 48.6667601], [-5.2724002, 48.6580208], [-5.3109006, 48.6409697], [-5.3467256, 48.6187617], [-5.3635726, 48.6053965], [-5.3905277, 48.5773254], [-5.4267032, 48.5316023], [-5.4393749, 48.5068772], [-5.4470718, 48.4836328], [-5.4511557, 48.4581896], [-5.4517733, 48.4415433], [-5.4503132, 48.4249297], [-5.4467732, 48.4084335], [-5.3189315, 48.0839182], [-5.321759, 48.0536313], [-5.320306, 48.0370018], [-5.3167943, 48.0205109], [-5.3112531, 48.0042768], [-5.2940499, 47.972654], [-5.278442, 47.9515727], [-5.2653124, 47.9374416], [-5.2340793, 47.9116309], [-5.2161693, 47.9001089], [-5.176435, 47.8802694], [-5.1323773, 47.865122], [-5.1023825, 47.8582187], [-4.7169733, 47.6942476], [-4.5003908, 47.600227], [-4.4789459, 47.5920377], [-4.4334245, 47.5794014], [-4.4094047, 47.5750014], [-4.3383308, 47.5664284], [-4.2610932, 47.5455437], [-4.2344732, 47.5237047], [-4.1975987, 47.5017157], [-4.1772599, 47.4923439], [-4.1335217, 47.4771931], [-4.0867283, 47.4671603], [-4.0625548, 47.4641487], [-4.0135489, 47.4622484], [-3.9647654, 47.4658675], [-3.9117134, 47.4764717], [-3.6677146, 47.4439445], [-3.5770492, 47.3117917], [-3.5564695, 47.2794436], [-3.5154155, 47.221765], [-3.4966887, 47.1971324], [-3.4858094, 47.1855496], [-3.4584356, 47.1637739], [-3.4305359, 47.1457917], [-3.3984387, 47.1305351], [-3.3515296, 47.1122466], [-3.2969237, 47.0974829], [-3.1347288, 47.0793557], [-3.0852962, 47.0774247], [-3.0368582, 47.0810435], [-2.8787913, 47.1079606], [-2.6884247, 47.0332655], [-2.6700844, 47.0091466], [-2.6969519, 46.7657268], [-2.7026084, 46.7379254], [-2.7032135, 46.7212742], [-2.701801, 46.7046412], [-2.6983827, 46.6881513], [-2.6856395, 46.6560329], [-2.6764084, 46.6406333], [-2.6525529, 46.6116851], [-2.6259921, 46.5859213], [-2.593443, 46.5611314], [-2.5687764, 46.5453775], [-2.5361567, 46.5292079], [-2.5151361, 46.5210152], [-2.4601615, 46.5048122], [-2.0446415, 46.3446191], [-2.0367322, 46.3393777], [-1.8449029, 46.1503968], [-1.8215361, 46.1226548], [-1.7807798, 46.0842545], [-1.7298346, 46.0449029], [-1.7007879, 45.9956427], [-1.6956198, 45.9785248], [-1.6941312, 45.959869], [-1.690759, 45.9433701], [-1.6854343, 45.9271292], [-1.6617422, 45.8718228], [-1.6526423, 45.8564185], [-1.6291298, 45.8274654], [-1.6142898, 45.8135566], [-1.5902018, 45.7954447], [-1.5582151, 45.7275007], [-1.5705199, 45.7004242], [-1.575055, 45.6840679], [-1.5782348, 45.6507173], [-1.5735008, 45.6175782], [-1.5609712, 45.5853347], [-1.5409973, 45.5549688], [-1.5259346, 45.5382934], [-1.49847, 45.514899], [-1.4669219, 45.4951451], [-1.4560732, 45.4818414], [-1.4439726, 45.4493691], [-1.4487566, 45.4134735], [-1.4463931, 45.3793991], [-1.4481208, 45.3149866], [-1.4716987, 45.1695141], [-1.4907555, 44.9882026], [-1.5012215, 44.9251958], [-1.508575, 44.8676543], [-1.5158121, 44.836451], [-1.5180028, 44.8130457], [-1.5324026, 44.7400161], [-1.5411658, 44.7109818], [-1.547207, 44.6742874], [-1.5485318, 44.6513083], [-1.5473009, 44.6360053], [-1.5558223, 44.6141968], [-1.5628289, 44.5811383], [-1.5634177, 44.5644766], [-1.5587794, 44.5313379], [-1.5441119, 44.4821048], [-1.5385431, 44.4693679], [-1.5396942, 44.4477847], [-1.5473793, 44.3972992], [-1.5702261, 44.2820764], [-1.5728035, 44.2610629], [-1.5815723, 44.2187489], [-1.5844288, 44.1935059], [-1.5893144, 44.1719678], [-1.6560542, 43.923957], [-1.6836451, 43.8464691], [-1.6992665, 43.7941509], [-1.7140097, 43.7372643], [-1.7199528, 43.6913377], [-1.738927, 43.6645715], [-1.7650561, 43.6394398], [-1.7833003, 43.6148159], [-1.8040464, 43.5948655], [-1.7717557, 43.4880696], [-1.7717574, 43.3880527], [-1.7878971, 43.3791957], [-1.7904819, 43.3753844], [-1.7891687, 43.3684776], [-1.781617, 43.3630809], [-1.7827806, 43.3598367], [-1.7901473, 43.3532864], [-1.7832433, 43.3487172], [-1.7776841, 43.3480744], [-1.7764863, 43.3445536], [-1.772276, 43.342527], [-1.7569108, 43.3435536], [-1.7529951, 43.3408531], [-1.7517787, 43.3325498], [-1.7489176, 43.3310005], [-1.7416163, 43.3316262], [-1.7374611, 43.3300838], [-1.7386515, 43.3253849], [-1.7372396, 43.3232481], [-1.7415824, 43.316484], [-1.7377534, 43.3136339], [-1.740208, 43.3111984], [-1.7355055, 43.3099357], [-1.7301555, 43.2957488], [-1.720385, 43.3006788], [-1.7134246, 43.2998972], [-1.7034714, 43.3091614], [-1.6953808, 43.3118689], [-1.6855138, 43.3093386], [-1.6742895, 43.3118744], [-1.6693667, 43.3148821], [-1.6543268, 43.3125495], [-1.6520356, 43.3098465], [-1.6451902, 43.3067907], [-1.6354868, 43.3090719], [-1.6240223, 43.3060004], [-1.6225838, 43.3011049], [-1.6279051, 43.293701], [-1.6306801, 43.2850235], [-1.6281232, 43.2813143], [-1.6254716, 43.270599], [-1.6231396, 43.2701232], [-1.6222041, 43.2642908], [-1.6176463, 43.2578185], [-1.6104445, 43.2547857], [-1.6087888, 43.2518507], [-1.6000211, 43.2544663], [-1.5895019, 43.2533579], [-1.5835396, 43.2544317], [-1.5751906, 43.249933], [-1.5685257, 43.2574302], [-1.563404, 43.2700932], [-1.5608786, 43.2722746], [-1.560914, 43.274968], [-1.557016, 43.2794061], [-1.5600855, 43.2841691], [-1.5636509, 43.2846539], [-1.5650433, 43.2880369], [-1.5521376, 43.2918641], [-1.539791, 43.2915697], [-1.5353209, 43.2946667], [-1.5303172, 43.2934087], [-1.5059426, 43.2934816], [-1.5024141, 43.2883965], [-1.4989529, 43.2873381], [-1.4924131, 43.280554], [-1.4829213, 43.2832928], [-1.4782148, 43.2775053], [-1.468642, 43.273304], [-1.46206, 43.2713627], [-1.4539138, 43.2714068], [-1.4384663, 43.2665676], [-1.427021, 43.2671006], [-1.4132586, 43.2734978], [-1.4060163, 43.2706832], [-1.4031011, 43.2666029], [-1.3991307, 43.2660518], [-1.3789242, 43.2500788], [-1.381665, 43.2445934], [-1.3787711, 43.2361843], [-1.3763754, 43.2339862], [-1.3784729, 43.2317989], [-1.3785045, 43.2282252], [-1.3820094, 43.2257231], [-1.3843913, 43.2214193], [-1.3805678, 43.2146637], [-1.3848552, 43.2090134], [-1.3828386, 43.1994826], [-1.3865833, 43.1941494], [-1.3812836, 43.1896809], [-1.3911096, 43.186047], [-1.4019851, 43.1776565], [-1.4040005, 43.1633193], [-1.4020823, 43.1565854], [-1.4102482, 43.1541505], [-1.4163837, 43.1494056], [-1.4097448, 43.1427749], [-1.4149758, 43.1356047], [-1.4142966, 43.1285072], [-1.4243768, 43.1250283], [-1.426993, 43.121036], [-1.427431, 43.1170811], [-1.4429701, 43.1112236], [-1.4407714, 43.1076292], [-1.4496261, 43.1046846], [-1.4520851, 43.1014771], [-1.4629136, 43.0981087], [-1.4698491, 43.0932497], [-1.4730981, 43.0867742], [-1.471006, 43.0789705], [-1.4412466, 43.0462726], [-1.3538887, 43.0282948], [-1.3428186, 43.054059], [-1.3447698, 43.0561019], [-1.3435035, 43.0620693], [-1.3440213, 43.0731107], [-1.3413633, 43.0758206], [-1.3399423, 43.0810665], [-1.3460563, 43.0907342], [-1.3446416, 43.0945202], [-1.3377548, 43.1011623], [-1.3341995, 43.1024451], [-1.3323197, 43.1078372], [-1.3211468, 43.1127111], [-1.3037057, 43.1154759], [-1.2917515, 43.1154399], [-1.2787153, 43.1186834], [-1.2699696, 43.1183245], [-1.2739644, 43.1138035], [-1.2826973, 43.1086973], [-1.2860597, 43.1044501], [-1.2889731, 43.1041379], [-1.2894317, 43.1017633], [-1.292708, 43.1003459], [-1.2953585, 43.095664], [-1.2997747, 43.0923714], [-1.2989896, 43.0915075], [-1.3059113, 43.0803769], [-1.3059653, 43.0755626], [-1.3087435, 43.0729119], [-1.3098111, 43.0691721], [-1.2979209, 43.0671085], [-1.2950066, 43.0637859], [-1.2876974, 43.0637215], [-1.275865, 43.056218], [-1.2710864, 43.0552088], [-1.263581, 43.044018], [-1.247621, 43.0426151], [-1.2357222, 43.0487235], [-1.2292925, 43.0554486], [-1.211938, 43.0495766], [-1.1809628, 43.0326221], [-1.1745806, 43.0347944], [-1.1740348, 43.0376667], [-1.1643338, 43.0350932], [-1.1604157, 43.0316118], [-1.1452528, 43.0257389], [-1.1442755, 43.0135393], [-1.1416609, 43.0076101], [-1.1384356, 43.0097239], [-1.1337953, 43.0083645], [-1.1275228, 43.0136618], [-1.1277897, 43.0151534], [-1.1232755, 43.0156402], [-1.1230287, 43.0172224], [-1.1182977, 43.0198677], [-1.1154878, 43.0246004], [-1.1115121, 43.023998], [-1.1109841, 43.0204612], [-1.1020287, 43.0146048], [-1.0890757, 43.010987], [-1.0835918, 43.0114471], [-1.085819, 43.006654], [-1.0846865, 43.0040822], [-1.0863389, 43.0027319], [-1.0810714, 43.0005183], [-1.0796155, 43.0014989], [-1.0724683, 42.9978373], [-1.037268, 42.9939405], [-1.0330817, 42.994644], [-1.0262544, 42.9920913], [-1.016704, 42.9951161], [-1.0162519, 42.9932368], [-1.0110035, 42.9924746], [-1.0063486, 42.9891096], [-1.0007775, 42.9783381], [-0.9969425, 42.9753594], [-0.9812587, 42.9705744], [-0.9767805, 42.9674388], [-0.9743511, 42.9629677], [-0.9571182, 42.9598245], [-0.9434557, 42.9532436], [-0.9340672, 42.9526754], [-0.9223639, 42.9548745], [-0.9195553, 42.9562212], [-0.9203422, 42.9579966], [-0.9142013, 42.9638047], [-0.90827, 42.9644981], [-0.8995572, 42.9615462], [-0.8963699, 42.9554795], [-0.875307, 42.9549603], [-0.8655758, 42.9510452], [-0.8455752, 42.9514769], [-0.8389507, 42.9527214], [-0.8366692, 42.954705], [-0.8316424, 42.9524413], [-0.8105224, 42.951292], [-0.8052236, 42.9565335], [-0.7900608, 42.9639534], [-0.7721615, 42.9656327], [-0.7673821, 42.9691993], [-0.7606919, 42.9669288], [-0.7554296, 42.9680905], [-0.7516765, 42.9671622], [-0.7498368, 42.9621793], [-0.7447466, 42.957124], [-0.7446555, 42.9522888], [-0.7405947, 42.9490705], [-0.7342002, 42.9398706], [-0.7287844, 42.9366947], [-0.7305823, 42.9347954], [-0.7295022, 42.9290934], [-0.7233745, 42.9229745], [-0.7233368, 42.9181957], [-0.7346926, 42.9131042], [-0.7329453, 42.9085746], [-0.7340482, 42.905772], [-0.7296007, 42.9003595], [-0.7329188, 42.8987365], [-0.7319764, 42.8967388], [-0.7267198, 42.8961059], [-0.727517, 42.8932017], [-0.7178321, 42.8864244], [-0.7042132, 42.8841021], [-0.6994113, 42.8809068], [-0.6986974, 42.8785743], [-0.6865851, 42.8829317], [-0.6815305, 42.882578], [-0.6786976, 42.8845451], [-0.6755033, 42.8799377], [-0.666457, 42.8763674], [-0.6617213, 42.8688071], [-0.6617277, 42.864313], [-0.6556375, 42.8585008], [-0.6487465, 42.855232], [-0.6360291, 42.8533683], [-0.6198414, 42.8382503], [-0.6033332, 42.8325227], [-0.6011629, 42.8296275], [-0.6042064, 42.8283351], [-0.604062, 42.8260575], [-0.6016545, 42.8248228], [-0.6020294, 42.820194], [-0.5986968, 42.8165242], [-0.6007191, 42.8065539], [-0.5988093, 42.8048298], [-0.5903442, 42.8026479], [-0.5872868, 42.8050498], [-0.5820633, 42.8051008], [-0.5767355, 42.8082533], [-0.5691963, 42.8069578], [-0.5661459, 42.8037114], [-0.5647596, 42.7982828], [-0.5708113, 42.7904904], [-0.570503, 42.7830139], [-0.5676173, 42.7807594], [-0.5544482, 42.7795122], [-0.5512146, 42.7775376], [-0.5435774, 42.793263], [-0.5296868, 42.7916884], [-0.5253765, 42.7968588], [-0.5232444, 42.7973724], [-0.5234457, 42.8026885], [-0.526043, 42.8087307], [-0.5252139, 42.8116655], [-0.5184382, 42.8173823], [-0.5135315, 42.8190995], [-0.5129684, 42.8227116], [-0.5055743, 42.8274785], [-0.5012486, 42.8279514], [-0.4978083, 42.8205472], [-0.4930691, 42.8168997], [-0.4841904, 42.8163847], [-0.4809271, 42.8142119], [-0.4781117, 42.809443], [-0.4600605, 42.8038956], [-0.4513553, 42.8035497], [-0.4416477, 42.7953599], [-0.4190978, 42.8057493], [-0.4087011, 42.8076685], [-0.40048, 42.8023998], [-0.3976451, 42.802727], [-0.3941263, 42.7989216], [-0.3834469, 42.8010989], [-0.3832352, 42.806812], [-0.3643673, 42.8165238], [-0.3640189, 42.8204299], [-0.3603176, 42.8220654], [-0.3554186, 42.8279452], [-0.3553647, 42.8306199], [-0.3478981, 42.8353533], [-0.3469108, 42.8377841], [-0.3431163, 42.8361958], [-0.3350993, 42.8380917], [-0.3312891, 42.8340985], [-0.3240782, 42.8347546], [-0.3199365, 42.8424457], [-0.3132716, 42.8494134], [-0.3061316, 42.8413117], [-0.2944026, 42.8380822], [-0.2825956, 42.8377375], [-0.2772389, 42.8356352], [-0.2753846, 42.8337451], [-0.2751404, 42.8285833], [-0.2619932, 42.8244143], [-0.2559817, 42.8189882], [-0.2454217, 42.8209107], [-0.2456493, 42.8225488], [-0.2435536, 42.8236117], [-0.2425764, 42.8202724], [-0.2384697, 42.8167588], [-0.2392169, 42.8092527], [-0.237874, 42.8081942], [-0.2284846, 42.8049957], [-0.2248544, 42.8014045], [-0.2196148, 42.8027479], [-0.2149838, 42.7965002], [-0.2120523, 42.7961498], [-0.208565, 42.7980377], [-0.198062, 42.7956014], [-0.1953221, 42.7921886], [-0.1898524, 42.7907115], [-0.1888243, 42.7868069], [-0.1835751, 42.7874453], [-0.1775931, 42.7855427], [-0.1672848, 42.7909959], [-0.1649035, 42.7958638], [-0.1608291, 42.7984472], [-0.1545135, 42.7927409], [-0.1560399, 42.7852153], [-0.154299, 42.7808209], [-0.1469108, 42.7758147], [-0.1473437, 42.773943], [-0.149826, 42.7730947], [-0.1498053, 42.7692111], [-0.1390367, 42.7670795], [-0.1360621, 42.7635706], [-0.1365168, 42.7618788], [-0.129675, 42.7580501], [-0.1267768, 42.7531595], [-0.1230185, 42.7517469], [-0.1230819, 42.7491865], [-0.1173452, 42.7426183], [-0.1177591, 42.7386847], [-0.1093181, 42.734634], [-0.108162, 42.7325143], [-0.1084245, 42.7293142], [-0.1118123, 42.7262683], [-0.1066501, 42.7208775], [-0.0979623, 42.7223484], [-0.0958719, 42.7207937], [-0.0876692, 42.7214421], [-0.0837879, 42.7181992], [-0.0789754, 42.7167635], [-0.0684884, 42.7180886], [-0.0637677, 42.7104465], [-0.0658116, 42.7073915], [-0.0620974, 42.694972], [-0.0570078, 42.692575], [-0.0488672, 42.6944693], [-0.0422345, 42.6915945], [-0.031778, 42.6908806], [-0.0166627, 42.6852031], [0.0002451, 42.6853611], [0.004753, 42.6874362], [0.0047623, 42.68903], [0.0144159, 42.6940293], [0.0152918, 42.6998055], [0.0135684, 42.7019032], [0.0244213, 42.7025623], [0.0483272, 42.6959707], [0.0541723, 42.6983066], [0.0587638, 42.6977041], [0.0703098, 42.7036041], [0.0721753, 42.7066399], [0.0712632, 42.7090451], [0.0766982, 42.7129361], [0.0769994, 42.7146336], [0.0843582, 42.7162078], [0.0901951, 42.7171312], [0.1064473, 42.7102897], [0.1293212, 42.7141539], [0.133349, 42.7158474], [0.1367375, 42.7225204], [0.1408928, 42.7219586], [0.1538721, 42.724873], [0.162055, 42.7231558], [0.1628817, 42.7285965], [0.1742409, 42.733972], [0.1758198, 42.7368781], [0.2063502, 42.7292088], [0.2114591, 42.7268547], [0.2166295, 42.7220076], [0.2269263, 42.7173825], [0.2323618, 42.7190138], [0.2366923, 42.7174663], [0.2504678, 42.718709], [0.260215, 42.7162829], [0.2607812, 42.7115242], [0.2690718, 42.7038104], [0.2696897, 42.7013039], [0.2638199, 42.6932141], [0.270739, 42.6911005], [0.295691, 42.6741776], [0.3154644, 42.6837973], [0.3209466, 42.6829001], [0.3238505, 42.6868372], [0.3219969, 42.6916233], [0.3266309, 42.6974345], [0.3252995, 42.7051815], [0.3453384, 42.7111884], [0.350079, 42.7163264], [0.3585245, 42.7195903], [0.3604154, 42.723972], [0.3701092, 42.7195637], [0.3719154, 42.7161487], [0.3754522, 42.7141458], [0.3857549, 42.7117054], [0.3928154, 42.7132443], [0.3934713, 42.7061501], [0.3962271, 42.7017463], [0.3944255, 42.6985978], [0.4189692, 42.6941983], [0.422379, 42.6905021], [0.4344018, 42.6913132], [0.4362692, 42.6897266], [0.4484115, 42.6919791], [0.4523484, 42.6946758], [0.4625657, 42.6934312], [0.4738391, 42.7004432], [0.4836324, 42.6990607], [0.4921139, 42.6951414], [0.4925843, 42.6929942], [0.4947746, 42.6922744], [0.5026851, 42.6930093], [0.5168542, 42.6911276], [0.5212665, 42.6945726], [0.5216027, 42.6981225], [0.5279396, 42.7027962], [0.5361052, 42.7002505], [0.5454687, 42.7012668], [0.5633865, 42.6983629], [0.5681803, 42.6960442], [0.5735558, 42.6968866], [0.5815579, 42.6947613], [0.5840345, 42.6961027], [0.5863343, 42.6943918], [0.5920065, 42.7005105], [0.592711, 42.7041315], [0.5975383, 42.7057018], [0.6018739, 42.7011316], [0.610089, 42.6976771], [0.639538, 42.6926552], [0.6481674, 42.6938656], [0.6577419, 42.6906231], [0.6649886, 42.6910831], [0.6689096, 42.689169], [0.6771254, 42.6909747], [0.6739806, 42.6994329], [0.6828406, 42.708933], [0.6695814, 42.7204184], [0.6800937, 42.7234388], [0.6767606, 42.7282665], [0.6701598, 42.7315577], [0.6700754, 42.734291], [0.6671116, 42.7367858], [0.666923, 42.7415173], [0.664114, 42.7422213], [0.6628542, 42.7445452], [0.663703, 42.7497018], [0.6609494, 42.7520903], [0.6473137, 42.7514226], [0.6391775, 42.7549146], [0.6463239, 42.7562901], [0.652036, 42.760471], [0.6549992, 42.7674488], [0.660782, 42.7691227], [0.6651156, 42.7737112], [0.6558176, 42.7766203], [0.6448231, 42.7829817], [0.6476597, 42.7851277], [0.6506061, 42.7850758], [0.6592264, 42.7977855], [0.665894, 42.7997502], [0.6697108, 42.8038335], [0.6699685, 42.8056727], [0.6641451, 42.813283], [0.666065, 42.81879], [0.6696088, 42.8214742], [0.6692119, 42.8243219], [0.6611668, 42.8291497], [0.6591246, 42.8352648], [0.660726, 42.8398388], [0.6685561, 42.8440273], [0.6788696, 42.8469476], [0.6783411, 42.8550985], [0.6916219, 42.8551569], [0.7086465, 42.8615226], [0.7333304, 42.8550196], [0.734998, 42.854344], [0.7360028, 42.8489546], [0.7614593, 42.8427695], [0.7677381, 42.8382537], [0.7855252, 42.8359396], [0.8008625, 42.8406806], [0.8154537, 42.8371554], [0.817768, 42.834594], [0.8206165, 42.8346845], [0.8241272, 42.8316942], [0.8343998, 42.8284967], [0.8437408, 42.8292551], [0.8555987, 42.8268301], [0.8582133, 42.8256902], [0.8611484, 42.8211483], [0.8708824, 42.815748], [0.8852294, 42.8132124], [0.8923751, 42.8081132], [0.8978583, 42.8067607], [0.8994364, 42.8037787], [0.9067638, 42.8009105], [0.9074188, 42.7970014], [0.9164336, 42.7959089], [0.9171433, 42.7937503], [0.9262024, 42.7893051], [0.9333026, 42.7896299], [0.9401817, 42.7976157], [0.9461673, 42.7997643], [0.9465449, 42.801265], [0.9562369, 42.8027162], [0.9601001, 42.8059563], [0.9658277, 42.8036453], [0.9693436, 42.7992505], [0.9770281, 42.7953092], [0.9773871, 42.7912921], [0.9859133, 42.7866239], [0.9955897, 42.7874637], [1.0053862, 42.7908277], [1.0115173, 42.7877936], [1.0141502, 42.7885334], [1.0319796, 42.7850405], [1.0329806, 42.7870833], [1.0384844, 42.7870455], [1.0438642, 42.7848312], [1.0437826, 42.7811046], [1.0479186, 42.7809462], [1.0536354, 42.7826209], [1.0584755, 42.7820086], [1.0593881, 42.7835523], [1.0734228, 42.782602], [1.0767197, 42.7877991], [1.0788848, 42.7883373], [1.0832515, 42.7849724], [1.0839687, 42.7818164], [1.087513, 42.7783681], [1.0957733, 42.774349], [1.1083842, 42.7719256], [1.1093273, 42.7656921], [1.1193547, 42.7634514], [1.1217959, 42.7595924], [1.1280199, 42.7557064], [1.1327847, 42.7503353], [1.1298792, 42.7458444], [1.1312854, 42.7426761], [1.1306055, 42.7392999], [1.1350499, 42.7359532], [1.1328685, 42.7315378], [1.1331992, 42.7282673], [1.1491156, 42.7210963], [1.1520543, 42.7170377], [1.1659432, 42.7088943], [1.175085, 42.7086495], [1.1782366, 42.7130028], [1.1890775, 42.717405], [1.1923353, 42.7163863], [1.2015988, 42.7177449], [1.2096607, 42.7209488], [1.2166416, 42.7200505], [1.2292443, 42.7278269], [1.232857, 42.727419], [1.2348072, 42.7250241], [1.2400751, 42.7252954], [1.2424016, 42.7230891], [1.2472039, 42.7225036], [1.2534541, 42.7141852], [1.2664766, 42.7156993], [1.2682146, 42.7185009], [1.2748809, 42.7187309], [1.2787586, 42.7140149], [1.2951197, 42.7195072], [1.3092436, 42.7175633], [1.3171143, 42.7192407], [1.3272113, 42.7244836], [1.335276, 42.724294], [1.3380266, 42.7184938], [1.3573622, 42.7197377], [1.3578125, 42.7151388], [1.3526055, 42.71108], [1.3511902, 42.7026079], [1.3539507, 42.6997321], [1.3616603, 42.6978572], [1.3649774, 42.6947176], [1.3770263, 42.6953801], [1.3884286, 42.6880698], [1.3897553, 42.6856853], [1.3881616, 42.6829463], [1.3887543, 42.6798536], [1.3869594, 42.677794], [1.3895901, 42.673355], [1.3874561, 42.6687125], [1.3953249, 42.6688175], [1.4012984, 42.6646506], [1.4058883, 42.6565797], [1.4091342, 42.6572051], [1.4137267, 42.6555555], [1.4136785, 42.6472042], [1.4171987, 42.6421478], [1.4162702, 42.635587], [1.4194349, 42.6322351], [1.4204281, 42.6249356], [1.4280211, 42.6209391], [1.4279286, 42.6192341], [1.430508, 42.617399], [1.4294225, 42.6120391], [1.4381267, 42.6027975], [1.447125, 42.6037336], [1.4561692, 42.6020278], [1.4640241, 42.6067878], [1.4689753, 42.606463], [1.4766019, 42.6130817], [1.4775431, 42.6146403], [1.4705824, 42.6260547], [1.4711014, 42.6294066], [1.4680186, 42.6308896], [1.4700352, 42.636075], [1.4769949, 42.6406393], [1.4787773, 42.6514498], [1.4937589, 42.6534892], [1.4993566, 42.6459371], [1.5066124, 42.6452694], [1.5187225, 42.6454747], [1.5283562, 42.6518063], [1.5334268, 42.6497571], [1.5492987, 42.6559357], [1.5581418, 42.6520488], [1.562287, 42.6535635], [1.5683232, 42.6485409], [1.5747943, 42.6479347], [1.5760117, 42.643268], [1.5791681, 42.6419081], [1.5803532, 42.6368285], [1.5843433, 42.6339381], [1.5944409, 42.6326162], [1.6003844, 42.6258772], [1.6025216, 42.6255422], [1.6093857, 42.6285683], [1.6113359, 42.6267326], [1.6184532, 42.6258087], [1.622267, 42.6275731], [1.6285657, 42.6266562], [1.637122, 42.630316], [1.639353, 42.6281823], [1.6531544, 42.6263668], [1.655366, 42.6224787], [1.6639012, 42.6189812], [1.6676988, 42.621682], [1.6729577, 42.6211113], [1.683443, 42.6249425], [1.6921293, 42.6219763], [1.7008524, 42.6223242], [1.7154978, 42.6145763], [1.7227373, 42.6167283], [1.7319813, 42.6146994], [1.73608, 42.6178377], [1.7384087, 42.6117099], [1.7338747, 42.6075698], [1.732985, 42.603519], [1.7302129, 42.6004497], [1.727676, 42.6010001], [1.7263033, 42.5913994], [1.7276538, 42.5882686], [1.7419455, 42.5878725], [1.7523786, 42.5825801], [1.7600986, 42.5809222], [1.7682962, 42.580141], [1.78118, 42.58253], [1.7831481, 42.5819438], [1.7868662, 42.5745126], [1.7696286, 42.5648431], [1.7557218, 42.5651389], [1.748106, 42.5631802], [1.7396811, 42.5567405], [1.737014, 42.5510463], [1.7349422, 42.5499612], [1.734817, 42.5483977], [1.7379132, 42.5495386], [1.7346456, 42.5475269], [1.7356894, 42.5432706], [1.7334962, 42.538797], [1.7348599, 42.5336817], [1.7331035, 42.5306337], [1.7335828, 42.5278975], [1.7323579, 42.527005], [1.7314869, 42.5288732], [1.7290789, 42.5253274], [1.7296903, 42.5204015], [1.7233221, 42.5181791], [1.7252469, 42.5165059], [1.725891, 42.5026989], [1.7288533, 42.4981566], [1.729967, 42.4923862], [1.7471011, 42.4953859], [1.7512934, 42.4923669], [1.760525, 42.4898084], [1.7619109, 42.487576], [1.7718595, 42.4887036], [1.7919423, 42.4854956], [1.8042982, 42.4903593], [1.8167212, 42.4831448], [1.8234742, 42.486526], [1.8388634, 42.4789928], [1.846094, 42.4723842], [1.8474701, 42.468331], [1.8533634, 42.465041], [1.8596357, 42.4625589], [1.862211, 42.4659789], [1.8644747, 42.4663121], [1.8807852, 42.4600682], [1.8830331, 42.4579028], [1.8848129, 42.4496109], [1.8897958, 42.4499773], [1.891171, 42.4477154], [1.8957414, 42.4475928], [1.8982566, 42.4500301], [1.9162915, 42.4462367], [1.9207492, 42.4469423], [1.9327295, 42.4546433], [1.9370504, 42.4536822], [1.942842, 42.4448878], [1.9409035, 42.4299848], [1.958638, 42.4241194], [1.9552896, 42.4108836], [1.9613197, 42.4026571], [1.9599649, 42.3941974], [1.9613053, 42.3903377], [1.9646781, 42.3878906], [1.9653547, 42.3811539], [1.9716878, 42.3739718], [1.9791656, 42.3716], [1.9864072, 42.3619286], [1.991099, 42.3592104], [1.9944303, 42.3600767], [1.9984, 42.3559416], [2.0120481, 42.3530147], [2.0125497, 42.3498663], [2.0159592, 42.3470704], [2.0233364, 42.3556159], [2.0274023, 42.3552824], [2.0329016, 42.3580581], [2.0585176, 42.3578617], [2.0667781, 42.3618776], [2.0686721, 42.3613809], [2.0726092, 42.3654658], [2.0801673, 42.3651825], [2.0846708, 42.3617626], [2.0894569, 42.3738497], [2.1043278, 42.3801461], [2.1167823, 42.3832668], [2.1145385, 42.389015], [2.1148482, 42.3945884], [2.1213317, 42.3970608], [2.1241382, 42.4077053], [2.1326316, 42.4145402], [2.1426158, 42.4162776], [2.1481834, 42.420275], [2.1569382, 42.4234778], [2.1588128, 42.4222399], [2.1660755, 42.4228194], [2.1676294, 42.4248996], [2.1804147, 42.4181882], [2.1841979, 42.4194914], [2.1869503, 42.4174243], [2.1908827, 42.4186145], [2.1997726, 42.4166444], [2.2064819, 42.4174253], [2.2071566, 42.4196189], [2.2243434, 42.425894], [2.234376, 42.4261462], [2.2402492, 42.4285432], [2.2462104, 42.4288695], [2.2511302, 42.4340567], [2.251531, 42.4365546], [2.2569345, 42.4386996], [2.2675171, 42.4336436], [2.2708669, 42.4343082], [2.276643, 42.4324195], [2.2793351, 42.4292035], [2.2858283, 42.4274339], [2.2859245, 42.4261178], [2.2910138, 42.4236431], [2.2980477, 42.423298], [2.3049774, 42.4264651], [2.3064813, 42.4286961], [2.3122698, 42.4286308], [2.3187875, 42.4250759], [2.319731, 42.4215704], [2.3240599, 42.417955], [2.3315458, 42.4160416], [2.343919, 42.4168918], [2.3469328, 42.4078591], [2.3608496, 42.4028421], [2.3717913, 42.4005762], [2.3871322, 42.4002612], [2.3926666, 42.3963539], [2.4054356, 42.3929164], [2.4144882, 42.3921574], [2.429235, 42.3942996], [2.4334266, 42.3932986], [2.4356599, 42.387163], [2.4331426, 42.3811148], [2.4354769, 42.3753168], [2.4468676, 42.3690491], [2.4547565, 42.3696573], [2.4569126, 42.3632022], [2.4674897, 42.3596273], [2.4681783, 42.3569923], [2.4718737, 42.3539591], [2.4727566, 42.3497003], [2.476332, 42.3476358], [2.4756, 42.3460834], [2.4832016, 42.3398527], [2.4999773, 42.3433061], [2.5101523, 42.3396857], [2.5126132, 42.3372019], [2.5260773, 42.3334062], [2.5420165, 42.3338911], [2.5437195, 42.3388422], [2.5515445, 42.341093], [2.551856, 42.3448542], [2.5545708, 42.3482452], [2.5545398, 42.3546736], [2.5566418, 42.3536876], [2.5619174, 42.3554088], [2.5619061, 42.3570347], [2.5675061, 42.3562515], [2.5711551, 42.3584997], [2.5810345, 42.3578185], [2.5895232, 42.3532857], [2.6001548, 42.3515351], [2.6013107, 42.349235], [2.6081329, 42.3485812], [2.6103151, 42.346823], [2.6225219, 42.3452002], [2.6325183, 42.3464699], [2.6343823, 42.3439648], [2.6506848, 42.3443312], [2.6600456, 42.3407703], [2.6716925, 42.3407507], [2.6755123, 42.342314], [2.675244, 42.3571387], [2.6701859, 42.3620083], [2.6669636, 42.3617738], [2.6611277, 42.3652284], [2.660863, 42.3684267], [2.6628745, 42.3717885], [2.6614489, 42.378624], [2.6514838, 42.3857506], [2.6541745, 42.3883661], [2.6655318, 42.385501], [2.671249, 42.3868357], [2.6735246, 42.4000278], [2.6712397, 42.4026092], [2.6741366, 42.405195], [2.6821295, 42.4071669], [2.6932116, 42.4063987], [2.6974243, 42.4102946], [2.7028247, 42.4111238], [2.7174528, 42.4213148], [2.7298374, 42.4227895], [2.7339308, 42.4247315], [2.7385378, 42.4235364], [2.7547745, 42.425454], [2.7575413, 42.424034], [2.7604709, 42.4179831], [2.7705193, 42.4116036], [2.772743, 42.4128936], [2.7769019, 42.4118976], [2.7837899, 42.4174389], [2.8002853, 42.4193192], [2.8026694, 42.4213002], [2.8009876, 42.424345], [2.8043999, 42.4296898], [2.8034605, 42.4318099], [2.8100668, 42.4317001], [2.8103234, 42.4348753], [2.8137764, 42.4363568], [2.815378, 42.4398717], [2.8266306, 42.4388007], [2.8334896, 42.4482235], [2.8326941, 42.4526566], [2.8358036, 42.4544304], [2.8390674, 42.4594089], [2.8567613, 42.4540582], [2.8616296, 42.4550124], [2.864279, 42.4596185], [2.8637605, 42.4641049], [2.8704552, 42.467438], [2.8761335, 42.4656763], [2.8823932, 42.4604598], [2.8856284, 42.460026], [2.8898909, 42.4620287], [2.9049819, 42.4571035], [2.9184408, 42.4561786], [2.9245437, 42.4586157], [2.9248099, 42.4639905], [2.931825, 42.4740142], [2.9453015, 42.4798538], [2.9470577, 42.4821294], [2.950025, 42.4786136], [2.9612031, 42.4727396], [2.9674678, 42.4652315], [2.9763221, 42.4677711], [2.9807069, 42.4671286], [2.9823985, 42.4718191], [2.9896864, 42.4740209], [3.0020827, 42.4723578], [3.0033485, 42.4703837], [3.0128745, 42.4665469], [3.0185718, 42.4702012], [3.0318714, 42.4750273], [3.0366708, 42.4735733], [3.0405513, 42.4745774], [3.0420125, 42.4713126], [3.0407476, 42.4687875], [3.0451558, 42.4636914], [3.0468787, 42.45734], [3.0583288, 42.4458689], [3.067131, 42.442539], [3.0699832, 42.4357563], [3.076523, 42.435379], [3.0774541, 42.4314876], [3.085199, 42.4258439], [3.0987331, 42.4251065], [3.1027818, 42.4269207], [3.1028058, 42.4289484], [3.10709, 42.4315667], [3.1094166, 42.4352386], [3.1208801, 42.4381865], [3.1253679, 42.4349775], [3.1383594, 42.4356847], [3.1447668, 42.4331342], [3.1534841, 42.4357374], [3.1573435, 42.4341999], [3.1637234, 42.4361122], [3.1727907, 42.4346652], [3.448, 42.4353333], [3.4463437, 42.4638302], [3.4372877, 42.4964657], [3.4300322, 42.5122545], [3.4087336, 42.5486821], [3.4014335, 42.5723955], [3.3941649, 42.5881957], [3.379022, 42.6118645], [3.3620937, 42.6321132], [3.3360255, 42.6551852], [3.3106444, 42.6721897], [3.313557, 42.6934194], [3.3104227, 42.7662193], [3.3134124, 42.7887635], [3.313101, 42.8117965], [3.3225866, 42.8425092], [3.3259895, 42.873015], [3.3304849, 42.8914361], [3.3325057, 42.9080338], [3.332638, 42.925249], [3.3291837, 42.9506417], [3.3388361, 42.9795184], [3.3659814, 43.0067619], [3.382404, 43.0297719], [3.4053317, 43.0498029], [3.4349562, 43.0685584], [3.4610232, 43.0648073], [3.4910276, 43.0629282], [3.5473712, 43.0655856], [3.5988427, 43.0756493], [3.6399357, 43.0898808], [3.6772544, 43.108898], [3.6991006, 43.123348], [3.728875, 43.1485291], [3.7554951, 43.1767981], [3.784253, 43.2018659], [3.8273148, 43.2112325], [3.8486445, 43.2178813], [3.8879485, 43.2345194], [3.9061142, 43.2445986], [3.9373781, 43.2668481], [3.9732081, 43.2874927], [3.9962907, 43.3030535], [4.0389692, 43.2947266], [4.0660965, 43.2857247], [4.1057899, 43.2754755], [4.1397208, 43.2692198], [4.20954, 43.2603156], [4.2998726, 43.2565323], [4.4560759, 43.1847295], [4.5047593, 43.1692856], [4.5658611, 43.1564241], [4.5991551, 43.1504183], [4.6439782, 43.1457283], [4.7117107, 43.1469844], [4.749091, 43.1331112], [4.7704818, 43.127428], [4.8148306, 43.1200492], [4.8602258, 43.1181457], [4.8829285, 43.1192691], [4.937531, 43.127038], [5.0463732, 43.0477689], [5.06404, 43.0372795], [5.1269536, 43.0136601], [5.153296, 43.0068024], [5.3426955, 42.9732313], [5.3784424, 42.9699279], [5.5098168, 42.9641258], [5.6167151, 42.9085513], [5.6982652, 42.8738723], [5.7256331, 42.8642679], [5.7673649, 42.8544616], [5.8123387, 42.8481867], [6.1374421, 42.7871547], [6.1706418, 42.7830945], [6.2127515, 42.7819895], [6.4333448, 42.7888739], [6.4774989, 42.796286], [6.4987088, 42.8019762], [6.5975065, 42.8395409], [6.6335262, 42.8562456], [6.695831, 42.8905389], [6.7298974, 42.9127825], [6.7453854, 42.9258088], [6.8590308, 43.0391928], [6.895877, 43.068287], [6.9098969, 43.0812043], [6.9335762, 43.1096744], [6.9504804, 43.1406041], [6.9562423, 43.1567284], [6.9737315, 43.2260036], [7.0395779, 43.25472], [7.2016347, 43.3320268], [7.2638947, 43.3677099], [7.2959093, 43.3815188], [7.3311171, 43.4027432], [7.3489241, 43.416834], [7.4048985, 43.4545337], [7.4862143, 43.5091674], [7.5002447, 43.5165358], [7.4185234, 43.7247599], [7.4090279, 43.7295783], [7.4129057, 43.7316907], [7.4127007, 43.7346954], [7.4222221, 43.7414143], [7.4258777, 43.7418756], [7.4306408, 43.7490241], [7.4359783, 43.7499924], [7.4377795, 43.7517831], [7.438446, 43.7493826], [7.4524351, 43.742195], [7.5329917, 43.5368308], [7.5745706, 43.5594674], [7.6046352, 43.568135], [7.631016, 43.5785906], [7.6103184, 43.6559349], [7.5388503, 43.7438246], [7.5356721, 43.7573385], [7.5293774, 43.7701089], [7.5280279, 43.7763086], [7.5299188, 43.7884062], [7.5250658, 43.79634], [7.518226, 43.8030753], [7.5142879, 43.8193377], [7.5103298, 43.8263652], [7.5101092, 43.8323351], [7.5067782, 43.8378513], [7.5080858, 43.8415023], [7.4990318, 43.8454615], [7.4967298, 43.8493425], [7.4951614, 43.8558245], [7.4954976, 43.8643503], [7.4982848, 43.8642086], [7.5001932, 43.8661191], [7.4973854, 43.8703393], [7.501208, 43.8749744], [7.5105778, 43.8795188], [7.5093104, 43.881363], [7.5128609, 43.8830501], [7.511792, 43.8856215], [7.5174941, 43.8824584], [7.5200385, 43.8862601], [7.5264236, 43.886334], [7.5309951, 43.8903569], [7.5347598, 43.8904273], [7.5383623, 43.8933018], [7.5507262, 43.8937711], [7.5615612, 43.8989884], [7.5628924, 43.9014805], [7.5617032, 43.90774], [7.5628191, 43.909758], [7.558106, 43.917296], [7.5680934, 43.9228446], [7.5685961, 43.9284036], [7.5711118, 43.9283259], [7.569697, 43.932188], [7.5738645, 43.9368033], [7.5666976, 43.9435485], [7.5706838, 43.9444759], [7.5693368, 43.9475631], [7.575347, 43.9456051], [7.574629, 43.9480218], [7.5786662, 43.949865], [7.5815549, 43.9481493], [7.5847885, 43.9540695], [7.5969698, 43.9558661], [7.598756, 43.9574235], [7.6087862, 43.9560699], [7.6112618, 43.9541271], [7.6137436, 43.957154], [7.6325208, 43.9662207], [7.6339341, 43.9687662], [7.6400498, 43.9701234], [7.6434359, 43.9739941], [7.6526336, 43.9738599], [7.6528262, 43.9758207], [7.6548729, 43.9764275], [7.6553756, 43.9850055], [7.6636002, 43.9867702], [7.6638182, 43.9928516], [7.6705224, 43.9984055], [7.6679972, 44.0065033], [7.6653161, 44.0088586], [7.6657695, 44.0114055], [7.6618042, 44.0178557], [7.6633929, 44.0207318], [7.6614519, 44.0226484], [7.6625269, 44.0288365], [7.6647152, 44.0291412], [7.6658945, 44.0313382], [7.6754153, 44.0294351], [7.6763573, 44.0321648], [7.6840674, 44.0370397], [7.691253, 44.0402636], [7.700772, 44.0409554], [7.7028416, 44.0435522], [7.7025431, 44.0490632], [7.7050616, 44.0549997], [7.7142379, 44.0615097], [7.712767, 44.0631851], [7.7142946, 44.0669169], [7.7130453, 44.0746292], [7.7153963, 44.0803734], [7.7189825, 44.0824476], [7.698106, 44.0966371], [7.6964392, 44.1001767], [7.6828424, 44.1140351], [7.6745707, 44.1179682], [7.671804, 44.121293], [7.6699, 44.128139], [7.666426, 44.130751], [7.666822, 44.133659], [7.673914, 44.138248], [7.6794005, 44.1472256], [7.6761029, 44.147967], [7.6753362, 44.1500091], [7.6705149, 44.1530169], [7.6718079, 44.1590883], [7.6809228, 44.1644009], [7.6844841, 44.1739613], [7.677762, 44.1770719], [7.6726654, 44.1773925], [7.6701391, 44.1755344], [7.6519655, 44.1767564], [7.6460873, 44.1785768], [7.6360692, 44.1771029], [7.6298525, 44.170578], [7.6314674, 44.1685548], [7.629633, 44.1648559], [7.6269808, 44.1640277], [7.6276945, 44.1594875], [7.6198643, 44.1495148], [7.6030547, 44.1500287], [7.5958969, 44.1527436], [7.5899305, 44.1503552], [7.576043, 44.1533835], [7.5724248, 44.151476], [7.564199, 44.1555109], [7.565738, 44.1515625], [7.5615945, 44.1485896], [7.5500294, 44.1465924], [7.5513355, 44.1459], [7.5487521, 44.1450314], [7.5382095, 44.1455081], [7.5341655, 44.1479453], [7.5303049, 44.1460934], [7.5270722, 44.1399304], [7.5213052, 44.1376188], [7.5177487, 44.139229], [7.5152118, 44.1381696], [7.5118482, 44.1420147], [7.5069856, 44.1443989], [7.4931219, 44.1404327], [7.49038, 44.1369947], [7.483567, 44.133713], [7.471413, 44.132787], [7.459553, 44.126541], [7.448549, 44.12921], [7.440522, 44.128305], [7.429774, 44.130226], [7.429666, 44.124417], [7.42666, 44.119294], [7.4287161, 44.1166424], [7.4287577, 44.113093], [7.4248688, 44.1121906], [7.4181086, 44.115007], [7.4146813, 44.1188954], [7.4093972, 44.119657], [7.405412, 44.1181429], [7.3930182, 44.1252784], [7.3892205, 44.1251399], [7.3681493, 44.1164811], [7.3646085, 44.1174435], [7.3580157, 44.1161135], [7.3544665, 44.1248308], [7.3521356, 44.1260002], [7.3476787, 44.1355218], [7.3457694, 44.1364095], [7.3468544, 44.1396761], [7.3458554, 44.1433491], [7.3423261, 44.1459689], [7.3217881, 44.142841], [7.317157, 44.1433148], [7.3105191, 44.1475195], [7.3079392, 44.1439864], [7.3033926, 44.1461743], [7.2953833, 44.1440091], [7.2933245, 44.1454754], [7.2880626, 44.1451654], [7.2857733, 44.1422989], [7.28029, 44.1409613], [7.2723594, 44.1474763], [7.2625235, 44.1479087], [7.2570838, 44.1550737], [7.2520126, 44.1558268], [7.2488589, 44.1580569], [7.2417696, 44.1729774], [7.2350546, 44.1754497], [7.2286582, 44.1683891], [7.2188526, 44.1686499], [7.2158979, 44.1708814], [7.2141259, 44.1751232], [7.2045917, 44.1791284], [7.2047014, 44.1823323], [7.2007694, 44.1869219], [7.1936925, 44.1871412], [7.1937566, 44.1897547], [7.1883818, 44.1976302], [7.1883302, 44.2007619], [7.1859983, 44.2013073], [7.1776474, 44.1972452], [7.1735622, 44.2010211], [7.1674662, 44.2023624], [7.1657252, 44.2063139], [7.1627268, 44.2080143], [7.1556028, 44.2036259], [7.1499937, 44.2025298], [7.1484217, 44.2000518], [7.143103, 44.2002315], [7.1138885, 44.2178194], [7.1075672, 44.2180411], [7.1000784, 44.2214684], [7.0925215, 44.2202467], [7.086531, 44.2292818], [7.0768043, 44.2322092], [7.0702161, 44.232981], [7.0624673, 44.2269037], [7.0560414, 44.2294929], [7.0382013, 44.2237541], [7.0330032, 44.2254091], [7.0303435, 44.231378], [7.0268973, 44.2306168], [7.0232952, 44.2341492], [7.0167438, 44.2322052], [7.0130179, 44.2350128], [7.008514, 44.2352417], [7.0041909, 44.2423625], [7.0009695, 44.2437168], [7.001088, 44.246819], [6.9966714, 44.2519073], [6.9984085, 44.2588228], [6.9953207, 44.2649906], [6.997355, 44.2733795], [6.9946498, 44.2773731], [6.9960782, 44.2800848], [6.9835452, 44.2848592], [6.9815102, 44.287152], [6.9717059, 44.2836513], [6.968765, 44.2868466], [6.9713743, 44.2913273], [6.9703713, 44.29428], [6.9666213, 44.2955245], [6.9629377, 44.293534], [6.9576009, 44.2952983], [6.9557799, 44.2973794], [6.9586527, 44.3018379], [6.9580197, 44.3056695], [6.9608523, 44.3088067], [6.9601549, 44.3114482], [6.9543063, 44.3150936], [6.9525569, 44.3194976], [6.9462345, 44.3205991], [6.9416274, 44.3246105], [6.9383756, 44.3246638], [6.9370264, 44.328705], [6.9266902, 44.3329667], [6.9256021, 44.338392], [6.9207447, 44.3454779], [6.9227946, 44.3478006], [6.9218616, 44.351657], [6.9122286, 44.3533966], [6.9057447, 44.3583062], [6.899684, 44.3575694], [6.887345, 44.3614236], [6.8878207, 44.3671167], [6.8950313, 44.3699291], [6.897117, 44.3755563], [6.8951555, 44.3798721], [6.896118, 44.3845791], [6.8947839, 44.3888452], [6.8969681, 44.3950761], [6.8943628, 44.3984529], [6.8949262, 44.4023179], [6.8978107, 44.4054775], [6.8942422, 44.4099078], [6.8929423, 44.4209721], [6.8975224, 44.4208053], [6.8994438, 44.4221794], [6.9016276, 44.420431], [6.9179568, 44.4273967], [6.9247359, 44.4223482], [6.9333162, 44.4250692], [6.9325582, 44.4282538], [6.9338164, 44.4299575], [6.9460669, 44.4272632], [6.948077, 44.429701], [6.9396302, 44.4335609], [6.9363528, 44.4399134], [6.9209567, 44.4457103], [6.9118855, 44.4512072], [6.9061681, 44.4676598], [6.9021434, 44.4701691], [6.8912725, 44.4719896], [6.8761784, 44.4818313], [6.876833, 44.4887042], [6.8681469, 44.4928736], [6.8644417, 44.498746], [6.8615488, 44.5004794], [6.8545067, 44.5288607], [6.8561479, 44.5331856], [6.8588436, 44.5355228], [6.8698631, 44.5371216], [6.8721028, 44.5444959], [6.874566, 44.5465531], [6.8764581, 44.5521832], [6.8800101, 44.5552997], [6.8886055, 44.551967], [6.8922502, 44.5548718], [6.9038209, 44.5554777], [6.9172518, 44.5617499], [6.913565, 44.5695022], [6.933682, 44.5738651], [6.9347702, 44.5972275], [6.9395936, 44.6048045], [6.9472868, 44.6070406], [6.9503956, 44.6102382], [6.948857, 44.6174043], [6.9501986, 44.6198938], [6.9587016, 44.6211737], [6.9642162, 44.6187071], [6.9679499, 44.6195472], [6.9689308, 44.6258948], [6.9548873, 44.6372442], [6.9479283, 44.6538596], [6.9498712, 44.6572424], [6.959388, 44.6640908], [6.9604138, 44.6666755], [6.9581354, 44.6728057], [6.9629496, 44.6782241], [6.9711872, 44.6771442], [6.9776359, 44.6835358], [6.9925403, 44.6900956], [6.9991533, 44.690452], [7.0033678, 44.6870387], [7.0078664, 44.6888835], [7.0177814, 44.688752], [7.0237293, 44.6912986], [7.0289793, 44.6913996], [7.037086, 44.6892713], [7.0478367, 44.682973], [7.053812, 44.6827261], [7.0597192, 44.6799588], [7.071624, 44.6794759], [7.0771286, 44.6809196], [7.0747337, 44.6875498], [7.0755967, 44.6902404], [7.0707549, 44.700874], [7.0679483, 44.7022009], [7.0652277, 44.7082663], [7.0657785, 44.7136039], [7.054066, 44.7150543], [7.042475, 44.7188261], [7.0348423, 44.7261038], [7.0284446, 44.7296844], [7.0302166, 44.7325417], [7.0236707, 44.7397024], [7.0259681, 44.7445673], [7.0212452, 44.7493377], [7.0218792, 44.754453], [7.0249401, 44.7569455], [7.0243253, 44.7634885], [7.0203708, 44.767543], [7.0215912, 44.7713991], [7.0192364, 44.7759584], [7.0113043, 44.7839134], [7.0000793, 44.7890466], [7.0010072, 44.7923087], [7.0092676, 44.7985234], [7.0094755, 44.8013571], [7.014724, 44.8094255], [7.0203888, 44.8139618], [7.0197987, 44.8181097], [7.0250798, 44.8231128], [7.0101195, 44.8259801], [7.0084911, 44.8330804], [7.0061482, 44.8351097], [7.0064674, 44.8394255], [7.0012056, 44.8421834], [6.9941627, 44.8419438], [6.9911429, 44.8442957], [6.981293, 44.8466636], [6.9702329, 44.8463157], [6.967335, 44.84902], [6.9645222, 44.8489511], [6.9522478, 44.8559775], [6.9495436, 44.8560824], [6.944614, 44.8608541], [6.9391989, 44.8609392], [6.9314224, 44.8644491], [6.9219346, 44.8513329], [6.9167535, 44.8492622], [6.9134616, 44.8455471], [6.9067999, 44.8432822], [6.9039253, 44.8470721], [6.8843673, 44.8476644], [6.878214, 44.8510605], [6.8635712, 44.8504981], [6.854358, 44.8580241], [6.8414694, 44.8595964], [6.8332848, 44.8639698], [6.8301648, 44.8678709], [6.8248008, 44.8685665], [6.8120491, 44.8750619], [6.8076445, 44.8758288], [6.8066294, 44.8786309], [6.8020785, 44.881152], [6.8005991, 44.8845949], [6.7998397, 44.8881641], [6.8017233, 44.8910486], [6.7970025, 44.8915317], [6.7926207, 44.8893813], [6.7902332, 44.8904287], [6.7848729, 44.8882727], [6.7830774, 44.8936231], [6.7798381, 44.8935213], [6.7766657, 44.9003378], [6.7709835, 44.9037024], [6.7673295, 44.9022453], [6.7614174, 44.9026972], [6.751206, 44.906146], [6.749776, 44.907334], [6.751115, 44.909723], [6.750305, 44.914274], [6.752776, 44.918845], [6.748482, 44.922126], [6.753248, 44.927262], [6.753991, 44.932032], [6.760715, 44.930571], [6.7607666, 44.9335526], [6.757673, 44.937231], [6.754215, 44.93807], [6.744829, 44.935623], [6.743808, 44.936763], [6.7532, 44.94311], [6.7527896, 44.9460162], [6.7562813, 44.9458265], [6.758538, 44.948071], [6.765327, 44.962125], [6.762411, 44.972689], [6.753409, 44.976729], [6.7494024, 44.9848831], [6.737894, 44.9893386], [6.7374859, 44.9935484], [6.7497779, 44.9958438], [6.7513094, 44.9975574], [6.7501258, 45.0034843], [6.7449983, 45.0111108], [6.7482652, 45.0161652], [6.7474069, 45.017431], [6.7356599, 45.0179498], [6.7226887, 45.0220821], [6.71514, 45.0204697], [6.683711, 45.022016], [6.673405, 45.0197642], [6.6710473, 45.0279138], [6.6639408, 45.0339891], [6.6671631, 45.0409805], [6.6702925, 45.0419462], [6.6698693, 45.0442126], [6.6663039, 45.0464822], [6.6658195, 45.0486654], [6.6626781, 45.0490114], [6.6586765, 45.052538], [6.6636016, 45.0573324], [6.6622695, 45.0603135], [6.6632386, 45.0721211], [6.6550007, 45.0714467], [6.6456491, 45.0753393], [6.6469378, 45.0849077], [6.6430086, 45.0869847], [6.6405622, 45.0852513], [6.6409838, 45.089386], [6.6362299, 45.0930645], [6.635988, 45.096645], [6.6313872, 45.0954846], [6.6329282, 45.0987499], [6.6300478, 45.1009273], [6.6272658, 45.1068023], [6.6293254, 45.1091619], [6.6330649, 45.1100346], [6.6328605, 45.1144097], [6.6342862, 45.1152153], [6.6429013, 45.116249], [6.6487276, 45.1147851], [6.655234, 45.1176303], [6.6586623, 45.1215402], [6.6623643, 45.1204993], [6.6655021, 45.1233518], [6.6726052, 45.1244462], [6.6747476, 45.1289446], [6.6738514, 45.1306739], [6.6804211, 45.1402969], [6.6922875, 45.1394572], [6.7114175, 45.1448441], [6.7269028, 45.1384482], [6.7346639, 45.1387165], [6.7401496, 45.136671], [6.7473052, 45.1400071], [6.754071, 45.1461344], [6.7551483, 45.1495198], [6.7610338, 45.1522836], [6.7682444, 45.159765], [6.7792699, 45.1581379], [6.7871496, 45.1533723], [6.7961532, 45.1532995], [6.8020246, 45.1500495], [6.8125462, 45.1488016], [6.8189657, 45.1442475], [6.8213959, 45.1452514], [6.8237945, 45.1425969], [6.8303229, 45.140343], [6.8360477, 45.1352253], [6.8472416, 45.1355412], [6.8453374, 45.1312568], [6.8477966, 45.1273253], [6.866877, 45.1317136], [6.8736623, 45.1359087], [6.8805728, 45.1348754], [6.8923734, 45.1368354], [6.8970079, 45.1398284], [6.8978334, 45.1427494], [6.8901758, 45.1464824], [6.8899094, 45.1501031], [6.8841425, 45.156767], [6.8922306, 45.1626748], [6.8915976, 45.1670208], [6.896196, 45.1684897], [6.9106116, 45.165466], [6.9140054, 45.1686025], [6.9221878, 45.1671601], [6.9230273, 45.1688053], [6.9318847, 45.1711973], [6.9472475, 45.1704258], [6.9429575, 45.1761522], [6.9554895, 45.1803442], [6.9527026, 45.1865168], [6.95387, 45.1907985], [6.967287, 45.195888], [6.9634298, 45.2014386], [6.9606471, 45.2029182], [6.9657708, 45.2078758], [6.9744493, 45.2077468], [6.9857414, 45.2113524], [6.9930951, 45.2099175], [6.9945054, 45.2155706], [6.9974821, 45.214952], [7.0034728, 45.2198178], [7.0069587, 45.2166981], [7.0198921, 45.2145584], [7.0209439, 45.2174476], [7.0232547, 45.2185115], [7.026311, 45.2153745], [7.0424571, 45.2251538], [7.047217, 45.2257281], [7.0510821, 45.2255555], [7.0541595, 45.2227116], [7.0539848, 45.2208112], [7.0572602, 45.2210103], [7.067564, 45.2099877], [7.0719993, 45.2098732], [7.0799457, 45.2129562], [7.0797609, 45.2161258], [7.0834913, 45.2187428], [7.0808714, 45.2243512], [7.0844493, 45.2261502], [7.0887327, 45.2260089], [7.0915988, 45.2297474], [7.0957434, 45.2308392], [7.0998553, 45.2352383], [7.1064682, 45.2373371], [7.1076418, 45.2433135], [7.1104239, 45.2465912], [7.1250886, 45.2439636], [7.1299324, 45.2481879], [7.1307536, 45.251229], [7.1374816, 45.2563719], [7.1322562, 45.260798], [7.1333744, 45.2661666], [7.1292988, 45.2712562], [7.1355015, 45.2774322], [7.1353219, 45.2825764], [7.1218296, 45.2951331], [7.1202905, 45.3033738], [7.1173861, 45.3077826], [7.1178903, 45.3115815], [7.1127125, 45.3144251], [7.1093733, 45.3183879], [7.1121711, 45.3236547], [7.109395, 45.3277094], [7.1156325, 45.3288185], [7.125977, 45.3272139], [7.1347, 45.331186], [7.1315326, 45.340656], [7.1335286, 45.3430875], [7.1336813, 45.3472144], [7.1386502, 45.3515378], [7.1509338, 45.3537563], [7.1638941, 45.3607061], [7.1603249, 45.3617476], [7.1612014, 45.3628697], [7.1577221, 45.36917], [7.1624044, 45.3768545], [7.1627232, 45.3815043], [7.170215, 45.3857579], [7.1740502, 45.3859047], [7.1780943, 45.3892143], [7.1796365, 45.3908094], [7.1777076, 45.3935399], [7.1784203, 45.3968698], [7.1859342, 45.4042025], [7.1823991, 45.4077522], [7.1660771, 45.4121515], [7.1580046, 45.4161887], [7.1520995, 45.423188], [7.1353893, 45.4260483], [7.114587, 45.4330789], [7.1131904, 45.434295], [7.1147114, 45.4413908], [7.1118982, 45.4434962], [7.110654, 45.4469488], [7.1002025, 45.4543678], [7.0986409, 45.4585003], [7.0982301, 45.4610894], [7.1002508, 45.4645461], [7.1044364, 45.4669522], [7.1036189, 45.4680215], [7.0888598, 45.4708261], [7.0867947, 45.4726755], [7.0821808, 45.4721291], [7.077044, 45.4736891], [7.0637851, 45.4738023], [7.0603253, 45.4707828], [7.0486167, 45.472447], [7.0472761, 45.4772089], [7.0455846, 45.4782896], [7.0473741, 45.4810005], [7.04751, 45.4853555], [7.0552801, 45.4876247], [7.0574537, 45.490526], [7.0527296, 45.4956899], [7.0446638, 45.4973702], [7.0385405, 45.4958191], [7.0209781, 45.4966596], [7.0093714, 45.4999504], [6.9998427, 45.5049956], [7.0014827, 45.512047], [7.0051982, 45.5173667], [7.0035699, 45.5208497], [6.9908762, 45.532009], [6.995951, 45.5444383], [6.992729, 45.5483149], [6.9912768, 45.5554585], [6.9898345, 45.5564897], [6.9897599, 45.5628797], [6.9967991, 45.5688906], [6.9936045, 45.5717657], [6.9952577, 45.5757034], [6.9805825, 45.5833904], [6.977992, 45.5882144], [6.9806875, 45.595274], [6.9795989, 45.597101], [6.9862724, 45.6125293], [6.983232, 45.6167842], [6.9845734, 45.6201645], [6.9873916, 45.6245132], [6.9980358, 45.6313079], [7.0015261, 45.636234], [7.0009683, 45.6397708], [6.9923508, 45.6396513], [6.9893162, 45.644098], [6.9743271, 45.646665], [6.9701976, 45.6542259], [6.9610198, 45.6547344], [6.9307323, 45.6457282], [6.9164601, 45.6510311], [6.9148869, 45.6518949], [6.916688, 45.6565763], [6.9154352, 45.6609529], [6.9021874, 45.6638355], [6.9068194, 45.6699101], [6.9051378, 45.6721852], [6.9066998, 45.6761494], [6.9032333, 45.6806164], [6.899839, 45.6808949], [6.8931825, 45.6755106], [6.8847169, 45.680394], [6.878505, 45.6786802], [6.8687232, 45.6810068], [6.8654995, 45.6847788], [6.8571385, 45.6849918], [6.8463548, 45.6902789], [6.8464579, 45.6932856], [6.8412161, 45.7006021], [6.8305082, 45.7020217], [6.8270691, 45.7040453], [6.8261692, 45.7074105], [6.8199614, 45.7145118], [6.8190797, 45.7187578], [6.8086319, 45.7250688], [6.8080067, 45.7273541], [6.8141556, 45.7335878], [6.8170193, 45.7400517], [6.8055763, 45.7477057], [6.8074885, 45.7502992], [6.8050307, 45.7591099], [6.8065789, 45.7698238], [6.8037003, 45.7721077], [6.8030079, 45.7797262], [6.8015322, 45.7814326], [6.8056118, 45.7924919], [6.8144689, 45.7947828], [6.8113338, 45.7981329], [6.816054, 45.8106451], [6.8087573, 45.8134809], [6.8067678, 45.8183152], [6.8134111, 45.8259709], [6.8182446, 45.8359381], [6.8262561, 45.8381144], [6.8330787, 45.836987], [6.8402109, 45.8408135], [6.8536325, 45.8372538], [6.8621218, 45.8324848], [6.8621703, 45.8285602], [6.864461, 45.8286369], [6.8657191, 45.8251615], [6.8687281, 45.8251502], [6.8721755, 45.8304263], [6.8688419, 45.833227], [6.8729974, 45.8362408], [6.8693536, 45.8393547], [6.8731182, 45.8398634], [6.8750114, 45.8441637]]}}]}