{"type": "FeatureCollection", "generator": "overpass-turbo", "copyright": "The data included in this document is from www.openstreetmap.org. The data is made available under ODbL.", "timestamp": "2025-03-02T14:06:30Z", "features": [{"type": "Feature", "properties": {"@id": "relation/51701", "ISO3166-1": "CH", "ISO3166-1:alpha2": "CH", "ISO3166-1:alpha3": "CHE", "ISO3166-1:numeric": "756", "TMC:cid_58:tabcd_1:Class": "Area", "TMC:cid_58:tabcd_1:LCLversion": "8.00", "TMC:cid_58:tabcd_1:LocationCode": "6", "admin_level": "2", "alt_name:cs": "\u0160v\u00fdcarsk\u00e1 konfederace", "alt_name:eo": "Svisio;Svisujo", "alt_name:gsw": "Schwiz", "boundary": "administrative", "capital_city": "Bern", "country_code_fips": "SZ", "default_language": "de", "driving_side": "right", "flag": "https://upload.wikimedia.org/wikipedia/commons/f/f3/Flag_of_Switzerland.svg", "int_name": "Schweiz", "land_area": "administrative", "name": "Schweiz/Suisse/Svizzera/Svizra", "name:ace": "Swiss", "name:af": "Switserland", "name:als": "Schweiz", "name:am": "\u1235\u12ca\u12d8\u122d\u120b\u1295\u12f5", "name:an": "Suiza", "name:ang": "S\u01bfissland", "name:ar": "\u0633\u0648\u064a\u0633\u0631\u0627", "name:arc": "\u0723\u0718\u071d\u0723\u072a\u0710", "name:arz": "\u0633\u0648\u064a\u0633\u0631\u0627", "name:ast": "Suiza", "name:az": "\u0130sve\u00e7r\u0259", "name:ba": "\u0428\u0432\u0435\u0439\u0446\u0430\u0440\u0438\u044f", "name:bar": "Schweiz", "name:bat-smg": "\u0160veicar\u0117j\u0117", "name:bcl": "Suisa", "name:be": "\u0428\u0432\u0435\u0439\u0446\u0430\u0440\u044b\u044f", "name:be-tarask": "\u0428\u0432\u0435\u0439\u0446\u0430\u0440\u044b\u044f", "name:bg": "\u0428\u0432\u0435\u0439\u0446\u0430\u0440\u0438\u044f", "name:bi": "Switzerland", "name:bn": "Switzerland", "name:bo": "\u0f66\u0f74\u0f51\u0f0b\u0f66\u0f72\u0f0d", "name:bpy": "\u09b8\u09c1\u0987\u099c\u09be\u09b0\u09b2\u09cd\u09af\u09be\u09a8\u09cd\u09a1", "name:br": "Suis", "name:bs": "\u0160vicarska", "name:bug": "Swiss", "name:bxr": "\u0428\u0432\u0435\u0439\u0446\u0430\u0440\u0438", "name:ca": "Su\u00efssa", "name:cdo": "S\u00f4\u0324i-s\u00ea\u0324\u1e73", "name:ce": "\u0428\u0432\u0435\u0439\u0446\u0430\u0440\u0438", "name:ceb": "Swisa", "name:chr": "\u13cd\u13eb\u13e3\u13b3\u13c2", "name:chy": "Switzerland", "name:ckb": "\u0633\u0648\u06cc\u0633\u0631\u0627", "name:co": "Svizzera", "name:crh": "\u0130svi\u00e7re", "name:cs": "\u0160v\u00fdcarsko", "name:csb": "Szwajcarsk\u00f4", "name:cu": "\u0421\u0432\u0438\u0446\u0454\u0440\u0430", "name:cv": "\u0428\u0432\u0435\u0439\u0446\u0430\u0440\u0438", "name:cy": "Y Swistir", "name:da": "Schweiz", "name:de": "Schweiz", "name:diq": "\u0130swi\u00e7re", "name:dsb": "\u0160wicarska", "name:dv": "\u0790\u07aa\u0788\u07a8\u0792\u07a6\u078d\u07ad\u0782\u07b0\u0791\u07aa", "name:dz": "\u0f66\u0f74\u0f60\u0f72\u0f4a\u0f0b\u0f5b\u0f62\u0f0b\u0f63\u0f7a\u0f53\u0f0b", "name:ee": "Switzerland", "name:el": "\u0395\u03bb\u03b2\u03b5\u03c4\u03af\u03b1", "name:eml": "Sv\u00e9zzra", "name:en": "Switzerland", "name:eo": "Svislando", "name:es": "Suiza", "name:et": "\u0160veits", "name:eu": "Suitza", "name:ext": "Sui\u00e7a", "name:fa": "\u0633\u0648\u0626\u06cc\u0633", "name:fi": "Sveitsi", "name:fo": "Sveis", "name:fr": "Suisse", "name:frp": "Suisse", "name:frr": "Swaits", "name:fur": "Svuizare", "name:fy": "Switserl\u00e2n", "name:ga": "An Eilbh\u00e9is", "name:gag": "\u015evey\u021bariya", "name:gd": "An Eilbheis", "name:gl": "Su\u00edza", "name:gn": "Suisa", "name:gsw": "Schwiiz", "name:gu": "\u0ab8\u0acd\u0ab5\u0abf\u0aa4\u0acd\u0a9d\u0ab0\u0ab2\u0ac7\u0aa8\u0acd\u0aa1", "name:gv": "Yn Elveeish", "name:hak": "Shu\u00ec-s\u1e73", "name:haw": "Kuikilani", "name:he": "\u05e9\u05d5\u05d5\u05d9\u05e5", "name:hi": "\u0938\u094d\u0935\u093f\u091f\u094d\u091c\u093c\u0930\u0932\u0948\u0902\u0921", "name:hif": "Switzerland", "name:hr": "\u0160vicarska", "name:hsb": "\u0160wicarska", "name:ht": "Swis", "name:hu": "Sv\u00e1jc", "name:hy": "\u0547\u057e\u0565\u0575\u0581\u0561\u0580\u056b\u0561", "name:ia": "Suissa", "name:id": "Swiss", "name:ie": "Svissia", "name:ilo": "Switzerland", "name:io": "Suisia", "name:is": "Sviss", "name:it": "Svizzera", "name:ja": "\u30b9\u30a4\u30b9", "name:jbo": "elvetias", "name:jv": "Swiss", "name:ka": "\u10e8\u10d5\u10d4\u10d8\u10ea\u10d0\u10e0\u10d8\u10d0", "name:kaa": "Shveytsariya", "name:kbd": "\u0428\u0443\u044d\u0446\u0430\u0440\u044d", "name:kg": "Suisi", "name:kk": "\u0428\u0432\u0435\u0439\u0446\u0430\u0440\u0438\u044f", "name:kl": "Schweizi", "name:kn": "\u0cb8\u0ccd\u0cb5\u0cbf\u0c9f\u0ccd\u0c9c\u0cb0\u0ccd\u0cb2\u0ccd\u0caf\u0cbe\u0c82\u0ca1\u0ccd", "name:ko": "\uc2a4\uc704\uc2a4", "name:koi": "\u0428\u0432\u0435\u0439\u0446\u0430\u0440\u043c\u0443", "name:krc": "\u0428\u0432\u0435\u0439\u0446\u0430\u0440\u0438\u044f", "name:ksh": "Shw\u00e4\u0133z", "name:ku": "Sw\u00eesre", "name:kv": "\u0428\u0432\u0435\u0439\u0446\u0430\u0440\u0438\u044f", "name:kw": "Swistir", "name:ky": "\u0428\u0432\u0435\u0439\u0446\u0430\u0440\u0438\u044f", "name:la": "Helvetia", "name:lad": "Suisa", "name:lb": "Schw\u00e4iz", "name:lez": "\u0428\u0432\u0435\u0439\u0446\u0430\u0440\u0438\u044f", "name:li": "Zweitserland", "name:lij": "Sviss\u00eba", "name:lmo": "Sv\u00eczzera", "name:ln": "Swisi", "name:lt": "\u0160veicarija", "name:ltg": "\u0160veicareja", "name:lv": "\u0160veice", "name:lzh": "\u745e\u58eb", "name:mdf": "\u0428\u0432\u0435\u0439\u0446\u0430\u0440\u0438\u044f", "name:mg": "Soisa", "name:mhr": "\u0428\u0432\u0435\u0439\u0446\u0430\u0440\u0438\u0439", "name:mi": "Huiterangi", "name:mk": "\u0428\u0432\u0430\u0458\u0446\u0430\u0440\u0438\u0458\u0430", "name:ml": "\u0d38\u0d4d\u0d35\u0d3f\u0d31\u0d4d\u0d31\u0d4d\u0d38\u0d30\u0d4d\u0d32\u0d3e\u0d28\u0d4d\u0d31\u0d4d", "name:mn": "\u0428\u0432\u0435\u0439\u0446\u0430\u0440\u0438", "name:mr": "\u0938\u094d\u0935\u093f\u0924\u094d\u091d\u0930\u094d\u0932\u0902\u0921", "name:ms": "Switzerland", "name:mt": "\u017bvizzera", "name:my": "\u1006\u103d\u1005\u103a\u1007\u102c\u101c\u1014\u103a\u1014\u102d\u102f\u1004\u103a\u1004\u1036", "name:na": "Switzerland", "name:nah": "Suiza", "name:nan": "S\u016bi-se", "name:nap": "Sguizzera", "name:nds": "Swiez", "name:nds-nl": "Zwitserlaand", "name:ne": "\u0938\u094d\u0935\u093f\u091c\u0930\u0932\u094d\u092f\u093e\u0923\u094d\u0921", "name:new": "\u0938\u094d\u0935\u093f\u091f\u094d\u091c\u0930\u0932\u094d\u092f\u093e\u0923\u094d\u0921", "name:nl": "Zwitserland", "name:nn": "Sveits", "name:no": "Sveits", "name:nov": "Suisia", "name:nrm": "Suisse", "name:nv": "Swis Bik\u00e9yah", "name:oc": "So\u00efssa", "name:or": "\u0b38\u0b41\u0b07\u0b1c\u0b30\u0b32\u0b4d\u0b5f\u0b3e\u0b23\u0b4d\u0b21", "name:os": "\u0428\u0432\u0435\u0439\u0446\u0430\u0440\u0438", "name:pa": "\u0a38\u0a35\u0a3f\u0a1f\u0a1c\u0a3c\u0a30\u0a32\u0a48\u0a02\u0a21", "name:pag": "Switzerland", "name:pam": "Suiza", "name:pap": "Suisa", "name:pcd": "Suisse", "name:pdc": "Schweiz", "name:pfl": "Schwaiz", "name:pih": "Switsaland", "name:pl": "Szwajcaria", "name:pms": "Sv\u00ecssera", "name:pnb": "\u0633\u0648\u06cc\u0679\u0632\u0631\u0644\u06cc\u0646\u0688", "name:pnt": "\u0395\u03bb\u03b2\u03b5\u03c4\u03af\u03b1", "name:ps": "\u0633\u0648\u064a\u0633", "name:pt": "Su\u00ed\u00e7a", "name:qu": "Suwisa", "name:rm": "Svizra", "name:rmy": "Elveciya", "name:ro": "Elve\u0163ia", "name:roa-rup": "Shwaits\u00e3", "name:roa-tara": "Svizzere", "name:ru": "\u0428\u0432\u0435\u0439\u0446\u0430\u0440\u0438\u044f", "name:rue": "\u0428\u0432\u0430\u0439\u0446", "name:rw": "Ubusuwisi", "name:sa": "\u0938\u094d\u0935\u093f\u091f\u091c\u0930\u0932\u0948\u0902\u0921", "name:sah": "\u0428\u0432\u0435\u0439\u0446\u0430\u0440\u0438\u044f", "name:sc": "Isv\u00ectzera", "name:scn": "Sv\u00eczzira", "name:sco": "Swisserland", "name:se": "\u0160veica", "name:sh": "\u0160vajcarska", "name:si": "\u0dc3\u0dca\u0dc0\u0dd2\u0da7\u0dca\u0dc3\u0dbb\u0dca\u0dbd\u0db1\u0dca\u0dad\u0dba", "name:sk": "\u0160vaj\u010diarsko", "name:sl": "\u0160vica", "name:smn": "Sveitsi", "name:sms": "Svei\u02b9cc", "name:so": "Iswiizerlaan", "name:sq": "Zvicra", "name:sr": "\u0428\u0432\u0430\u0458\u0446\u0430\u0440\u0441\u043a\u0430", "name:ss": "ISwizalandi", "name:stq": "Swaits", "name:su": "Suis", "name:sv": "Schweiz", "name:sw": "Uswisi", "name:szl": "Szwajcaryj\u014f", "name:ta": "\u0b9a\u0bc1\u0bb5\u0bbf\u0b9f\u0bcd\u0b9a\u0bb0\u0bcd\u0bb2\u0bbe\u0ba8\u0bcd\u0ba4\u0bc1", "name:te": "\u0c38\u0c4d\u0c35\u0c3f\u0c1f\u0c4d\u0c1c\u0c30\u0c4d\u0c32\u0c3e\u0c02\u0c21\u0c4d", "name:tet": "Suisa", "name:tg": "\u0428\u0432\u0435\u0439\u0442\u0441\u0430\u0440\u0438\u044f", "name:th": "\u0e1b\u0e23\u0e30\u0e40\u0e17\u0e28\u0e2a\u0e27\u0e34\u0e15\u0e40\u0e0b\u0e2d\u0e23\u0e4c\u0e41\u0e25\u0e19\u0e14\u0e4c", "name:tk": "\u015ewe\u00fdsari\u00fda", "name:tl": "Suwisa", "name:tok": "ma Suwasi", "name:tpi": "Suwisalan", "name:tr": "\u0130svi\u00e7re", "name:tt": "\u0428\u0432\u0435\u0439\u0446\u0430\u0440\u0438\u044f", "name:tzl": "Sui\u00e7a", "name:udm": "\u0428\u0432\u0435\u0439\u0446\u0430\u0440\u0438\u044f", "name:ug": "Shw\u00e9tsariye", "name:uk": "\u0428\u0432\u0435\u0439\u0446\u0430\u0440\u0456\u044f", "name:ur": "\u0633\u0648\u06cc\u0679\u0632\u0631 \u0644\u06cc\u0646\u0688", "name:uz": "Shveysariya", "name:vec": "Sv\u00eczera", "name:vep": "\u0160veicarii", "name:vi": "Th\u1ee5y S\u0129", "name:vls": "Zwitserland", "name:vo": "Jveiz\u00e4n", "name:vro": "Sveits", "name:war": "Swiza", "name:wo": "Suwis", "name:wuu": "\u745e\u58eb", "name:xal": "\u0421\u0432\u0438\u0441\u043d \u04ba\u0430\u0437\u0440", "name:xmf": "\u10e8\u10d5\u10d4\u10d8\u10ea\u10d0\u10e0\u10d8\u10d0", "name:yi": "\u05e9\u05d5\u05d5\u05d9\u05d9\u05e5", "name:yo": "Sw\u00edts\u00e0land\u00ec", "name:yue": "\u745e\u58eb", "name:za": "Nyeiqswq", "name:zea": "Zwitserland", "name:zh": "\u745e\u58eb", "name:zh-Hans": "\u745e\u58eb", "name:zh-Hant": "\u745e\u58eb", "name:zh-Latn-pinyin": "Ru\u00ecsh\u00ec", "official_name:ca": "Confederaci\u00f3 Helv\u00e8tica", "official_name:cs": "\u0160v\u00fdcarsk\u00e1 konfederace", "official_name:de": "Schweizerische Eidgenossenschaft", "official_name:el": "\u0395\u03bb\u03b2\u03b5\u03c4\u03b9\u03ba\u03ae \u03a3\u03c5\u03bd\u03bf\u03bc\u03bf\u03c3\u03c0\u03bf\u03bd\u03b4\u03af\u03b1", "official_name:en": "Swiss Confederation", "official_name:eo": "Svisa Konfederacio", "official_name:fi": "Sveitsin valaliitto", "official_name:fr": "Conf\u00e9d\u00e9ration suisse", "official_name:id": "Konfederasi Swiss", "official_name:it": "Confederazione Svizzera", "official_name:ja": "\u30b9\u30a4\u30b9\u9023\u90a6", "official_name:la": "Confoederatio Helvetica", "official_name:lb": "Schw\u00e4izeresch Eidgenossenschaft", "official_name:lt": "\u0160veicarijos Konfederacija", "official_name:rm": "Confederaziun svizra", "official_name:sk": "\u0160vaj\u010diarska konfeder\u00e1cia", "official_name:sv": "Schweiziska edsf\u00f6rbundet", "official_name:vi": "Li\u00ean bang Th\u1ee5y S\u0129", "official_name:zh": "\u745e\u58eb\u8054\u90a6 / \u745e\u58eb\u806f\u90a6", "official_name:zh-Hans": "\u745e\u58eb\u8054\u90a6", "official_name:zh-Hant": "\u745e\u58eb\u806f\u90a6", "old_name:eo": "Helvetio;Helvetujo", "ref:nuts": "CH0", "ref:nuts:1": "CH0", "source:name:oc": "ieo-bdtopoc", "timezone": "Europe/Zurich", "type": "boundary", "website": "https://www.ch.ch/", "wikidata": "Q39", "wikipedia": "de:Schweiz"}, "geometry": {"type": "LineString", "coordinates": [[9.1818174, 47.6559572], [9.1759711, 47.6539842], [9.1754922, 47.6557733], [9.1706381, 47.6548513], [9.1578392, 47.6657631], [9.1507745, 47.6676471], [9.1395226, 47.6641373], [9.1192424, 47.6683235], [9.1033074, 47.6765711], [9.0946466, 47.6793342], [9.0760642, 47.6786028], [9.0236914, 47.6868642], [9.015103, 47.6854016], [8.9897883, 47.6751986], [8.9800251, 47.6734702], [8.9747786, 47.6689458], [8.945784, 47.6593899], [8.9416185, 47.6563096], [8.926236, 47.6551064], [8.9021927, 47.6486235], [8.8937116, 47.6483615], [8.8836747, 47.6538977], [8.8753984, 47.6549498], [8.8761541, 47.6604498], [8.873804, 47.6695025], [8.8678732, 47.675897], [8.8605587, 47.6803123], [8.8505313, 47.681177], [8.8510749, 47.6855954], [8.8563401, 47.6891008], [8.8577084, 47.6926565], [8.8508033, 47.6946685], [8.8515279, 47.6976362], [8.854815, 47.6970505], [8.858066, 47.6987507], [8.8601637, 47.6981709], [8.860613, 47.6962704], [8.8632138, 47.698437], [8.8662918, 47.6963886], [8.8632639, 47.6924128], [8.8667066, 47.6939611], [8.8733863, 47.6939721], [8.8761329, 47.6968564], [8.8696808, 47.7018713], [8.8727502, 47.7040707], [8.8665872, 47.705481], [8.8483278, 47.7033771], [8.8457497, 47.7111645], [8.8431653, 47.7121632], [8.8335759, 47.7145665], [8.8300722, 47.7118797], [8.8255139, 47.7110107], [8.8190362, 47.7127845], [8.8262375, 47.7178733], [8.8185167, 47.7176522], [8.8126914, 47.7237743], [8.8047966, 47.7245307], [8.8121626, 47.7304315], [8.8085301, 47.7312185], [8.8066762, 47.7382929], [8.7964646, 47.7345564], [8.7991824, 47.7271267], [8.7918, 47.7288066], [8.7865918, 47.7263443], [8.7848232, 47.7273563], [8.7807117, 47.7216017], [8.7762975, 47.7227324], [8.777334, 47.7208658], [8.7747751, 47.7190864], [8.7697526, 47.7184628], [8.7703112, 47.7150305], [8.7728666, 47.7132243], [8.7693763, 47.7068542], [8.7939733, 47.7042622], [8.7975844, 47.7028527], [8.7975844, 47.6972156], [8.8063188, 47.6965194], [8.810095, 47.6933617], [8.8061438, 47.6916015], [8.8000898, 47.6918582], [8.7970719, 47.6884427], [8.793514, 47.6801129], [8.7960343, 47.6753353], [8.7913315, 47.6749702], [8.7836562, 47.6771374], [8.7568193, 47.6896325], [8.7280231, 47.6927644], [8.7264855, 47.6966228], [8.7277053, 47.7004471], [8.7321998, 47.7117666], [8.7362915, 47.7163367], [8.7329853, 47.7185155], [8.7246722, 47.7201602], [8.7248107, 47.721292], [8.7179262, 47.7216265], [8.7111438, 47.7301477], [8.7145891, 47.7385941], [8.7202306, 47.7410015], [8.7236221, 47.7456501], [8.7395369, 47.7465181], [8.7414379, 47.7481833], [8.7411365, 47.7519845], [8.7289453, 47.7579693], [8.7308089, 47.7596079], [8.7273265, 47.7622678], [8.7140709, 47.7653995], [8.7014679, 47.760867], [8.6951312, 47.7557106], [8.6887084, 47.7583598], [8.6884219, 47.7619432], [8.6835903, 47.7705988], [8.6886266, 47.7735199], [8.683212, 47.7773014], [8.6823685, 47.7836984], [8.6800496, 47.7852616], [8.6810325, 47.7866027], [8.6762183, 47.7857739], [8.6675604, 47.7877033], [8.6622989, 47.7917689], [8.6573927, 47.7917502], [8.6602975, 47.7963318], [8.6568627, 47.8004405], [8.6496053, 47.7984612], [8.6457491, 47.7907107], [8.645444, 47.7872297], [8.6498028, 47.7832998], [8.6480975, 47.7740697], [8.6529527, 47.7734033], [8.6453324, 47.7685351], [8.6475527, 47.7669694], [8.6444581, 47.7643135], [8.6405523, 47.7643501], [8.6316528, 47.7581961], [8.6276868, 47.7594006], [8.6250219, 47.7638988], [8.6194299, 47.7676677], [8.6233547, 47.7772857], [8.6187712, 47.7781538], [8.6150808, 47.7839766], [8.615752, 47.7871521], [8.6204906, 47.7889567], [8.6221373, 47.7948664], [8.6178968, 47.7960474], [8.6186023, 47.7983227], [8.6114098, 47.8019101], [8.6008463, 47.8030243], [8.5928509, 47.7987166], [8.5877329, 47.8026637], [8.5753085, 47.7995919], [8.5759196, 47.8017289], [8.5732012, 47.8060202], [8.5703387, 47.8062526], [8.568028, 47.8084544], [8.563053, 47.8037933], [8.5619748, 47.7926065], [8.5749449, 47.7896371], [8.5744472, 47.7868989], [8.577318, 47.7816742], [8.5628738, 47.7779015], [8.5631264, 47.7806094], [8.5529028, 47.7846422], [8.5324472, 47.7780396], [8.5264537, 47.778022], [8.5201803, 47.7705317], [8.5103117, 47.776198], [8.5086587, 47.7742445], [8.5022927, 47.7736502], [8.4953513, 47.7707516], [8.4890195, 47.7732083], [8.4734918, 47.7643248], [8.4666066, 47.7537218], [8.4567673, 47.7495792], [8.4558325, 47.7428093], [8.4500978, 47.7389646], [8.4526146, 47.7308575], [8.4571091, 47.7301754], [8.454592, 47.7271257], [8.454926, 47.7224615], [8.4453412, 47.7230672], [8.4401875, 47.7197441], [8.4416497, 47.7179077], [8.4364555, 47.7182075], [8.4260735, 47.7113055], [8.4201329, 47.7095217], [8.4171148, 47.7101911], [8.404648, 47.6980305], [8.406397, 47.6955782], [8.4119652, 47.6944187], [8.4207729, 47.683882], [8.4161846, 47.6797969], [8.4085051, 47.6785823], [8.4055761, 47.6741998], [8.4121963, 47.6663416], [8.423629, 47.6668727], [8.4320519, 47.662094], [8.436601, 47.6573931], [8.4451024, 47.653874], [8.4536496, 47.6547817], [8.4572716, 47.6527471], [8.4659551, 47.6572599], [8.4671234, 47.6560423], [8.4637097, 47.6484746], [8.4670988, 47.6415524], [8.4734846, 47.6384159], [8.4780582, 47.6397799], [8.471041, 47.6423636], [8.4777044, 47.6446454], [8.4730728, 47.6482903], [8.4764227, 47.6501087], [8.4803684, 47.6492432], [8.4827802, 47.6440909], [8.4874035, 47.6450761], [8.4895687, 47.6425321], [8.492384, 47.642091], [8.4943633, 47.6420738], [8.4933296, 47.6469603], [8.5136388, 47.6475047], [8.5229005, 47.644895], [8.5317719, 47.6457529], [8.5346599, 47.6496405], [8.5290426, 47.6551029], [8.5299745, 47.6569727], [8.5268985, 47.6604871], [8.533419, 47.663129], [8.5344069, 47.6593565], [8.5415669, 47.6568807], [8.5388482, 47.6627441], [8.5399321, 47.6650858], [8.5597083, 47.6702363], [8.5636636, 47.6699981], [8.5647646, 47.6652499], [8.5708788, 47.6647469], [8.577714, 47.6614639], [8.5883144, 47.6665318], [8.5931687, 47.6668028], [8.598027, 47.6727081], [8.6067058, 47.6721052], [8.6060049, 47.6693055], [8.6080902, 47.6641464], [8.6256741, 47.6552183], [8.6287457, 47.6523146], [8.628632, 47.6489849], [8.6231838, 47.6407817], [8.6155962, 47.6377003], [8.6065482, 47.6370832], [8.6028052, 47.6397059], [8.6042463, 47.6413355], [8.6119492, 47.6422953], [8.6139883, 47.6444199], [8.6123743, 47.6498873], [8.6075629, 47.6524447], [8.6040054, 47.6509184], [8.6014067, 47.6457043], [8.5956909, 47.6430375], [8.5981014, 47.6268997], [8.6047608, 47.617009], [8.6049379, 47.6134367], [8.595746, 47.6055872], [8.592548, 47.6061284], [8.5900483, 47.6012511], [8.5877312, 47.6017238], [8.5842585, 47.5997973], [8.582577, 47.5961383], [8.5768753, 47.5968239], [8.5748687, 47.5955084], [8.5711364, 47.5982008], [8.5666425, 47.5971467], [8.5622076, 47.6002879], [8.5616395, 47.6013055], [8.5664004, 47.6060928], [8.5663776, 47.6098595], [8.5745245, 47.6119662], [8.571231, 47.6124845], [8.569322, 47.6172013], [8.5629176, 47.6167017], [8.5578837, 47.6244557], [8.5443192, 47.6251534], [8.5429244, 47.6270485], [8.5386795, 47.6263021], [8.5389336, 47.6309744], [8.5256195, 47.6317096], [8.5207561, 47.6343164], [8.5156468, 47.6337913], [8.51589, 47.6285146], [8.5127709, 47.6256023], [8.5151608, 47.6233945], [8.507414, 47.6238529], [8.5082847, 47.6175487], [8.4933297, 47.6144368], [8.4832925, 47.6136926], [8.4791924, 47.6152288], [8.4781134, 47.6109952], [8.475273, 47.6079364], [8.4703026, 47.6085544], [8.4713758, 47.6065929], [8.4681317, 47.6053943], [8.4685311, 47.6038606], [8.456675, 47.6023273], [8.457024, 47.5973809], [8.4612206, 47.5926672], [8.4605232, 47.588379], [8.4648199, 47.5880087], [8.4668689, 47.5842478], [8.4810248, 47.5852051], [8.488692, 47.5878298], [8.4947497, 47.5810327], [8.485278, 47.5771512], [8.4767216, 47.5778387], [8.4641844, 47.5721924], [8.4561683, 47.572436], [8.4383336, 47.567257], [8.4303038, 47.5666572], [8.3966426, 47.5771754], [8.3889309, 47.5727146], [8.3827827, 47.5656586], [8.3582417, 47.570005], [8.3293885, 47.5710167], [8.3222294, 47.5739075], [8.3125123, 47.5823097], [8.2975878, 47.5892604], [8.2952819, 47.5936902], [8.2978435, 47.6043831], [8.2919119, 47.609158], [8.2791402, 47.611712], [8.2653993, 47.6093335], [8.2632786, 47.6099099], [8.2604817, 47.6146916], [8.2569124, 47.6153157], [8.2446246, 47.6124603], [8.2377928, 47.6126441], [8.2309144, 47.6066293], [8.2266275, 47.6050264], [8.2239145, 47.6072259], [8.2200674, 47.6172673], [8.2135886, 47.6202047], [8.2063097, 47.6211118], [8.1971933, 47.6185749], [8.1927612, 47.6152626], [8.1852812, 47.6054788], [8.1749205, 47.6017799], [8.1643899, 47.5939804], [8.1495004, 47.5959154], [8.1382954, 47.5902033], [8.1381189, 47.5856227], [8.1362892, 47.5838529], [8.1101412, 47.5827505], [8.1030688, 47.5762457], [8.1015441, 47.5666058], [8.0993054, 47.5626312], [8.0902497, 47.5578287], [8.0812789, 47.5580457], [8.0672028, 47.5645009], [8.0597028, 47.563677], [8.0476953, 47.5559171], [8.0407795, 47.5536671], [8.0207163, 47.5504054], [8.000378, 47.5564287], [7.9781131, 47.5551548], [7.9602825, 47.558058], [7.9533263, 47.5554955], [7.9491613, 47.5459669], [7.9442648, 47.543787], [7.9325254, 47.5469456], [7.9179471, 47.5475027], [7.9116053, 47.5510394], [7.9072839, 47.5591642], [7.9113233, 47.5662594], [7.9106453, 47.5710659], [7.9039662, 47.5798819], [7.8919978, 47.587423], [7.8846179, 47.5888958], [7.8683931, 47.5886708], [7.8604142, 47.5874419], [7.8505046, 47.5829944], [7.8410609, 47.5820935], [7.8364185, 47.5835623], [7.8336018, 47.5866332], [7.8225444, 47.5879878], [7.8187819, 47.5868849], [7.8155408, 47.5826211], [7.8100862, 47.568308], [7.8004996, 47.5630586], [7.7956852, 47.5573822], [7.782902, 47.5531446], [7.7589753, 47.5485741], [7.7506395, 47.5442756], [7.7187484, 47.5417615], [7.6973359, 47.5329077], [7.6826824, 47.5326294], [7.667971, 47.5357644], [7.6613088, 47.5448323], [7.6489955, 47.5482959], [7.6399737, 47.5581648], [7.6339535, 47.5612168], [7.6361189, 47.5639171], [7.6482757, 47.559931], [7.6642272, 47.5653987], [7.6706995, 47.5658147], [7.6723599, 47.5654399], [7.6724486, 47.5637255], [7.6773158, 47.563745], [7.6751444, 47.5654226], [7.6791014, 47.5695], [7.6834998, 47.571254], [7.6834203, 47.5684215], [7.6859194, 47.5656103], [7.6896532, 47.571398], [7.6836701, 47.5739056], [7.6838528, 47.5766573], [7.6818996, 47.5774562], [7.6808517, 47.582684], [7.672069, 47.5852391], [7.6717499, 47.5872763], [7.6836452, 47.5960217], [7.6901533, 47.5975697], [7.6938018, 47.6007754], [7.6830086, 47.5984931], [7.6751713, 47.5919819], [7.6673301, 47.5919456], [7.6456696, 47.5969552], [7.6417835, 47.5941917], [7.64324, 47.5913407], [7.6396302, 47.5903641], [7.6280205, 47.581365], [7.6191343, 47.5768697], [7.604882, 47.5778737], [7.6048159, 47.5849295], [7.5890388, 47.5898969], [7.5846578, 47.58087], [7.5846527, 47.5755281], [7.5664893, 47.5776703], [7.556895, 47.5724666], [7.5564645, 47.5713891], [7.5593357, 47.569392], [7.5573002, 47.5650334], [7.5272555, 47.5527491], [7.5167636, 47.545414], [7.5109814, 47.5445136], [7.5093406, 47.5458478], [7.4991923, 47.5401053], [7.4980459, 47.5361587], [7.5014454, 47.5321785], [7.5005261, 47.5301389], [7.5023064, 47.5284104], [7.5107611, 47.5289964], [7.5193631, 47.5347253], [7.5243897, 47.5318782], [7.5268079, 47.5328831], [7.531237, 47.5281643], [7.5275924, 47.5217548], [7.5234659, 47.5186787], [7.5237373, 47.515338], [7.5221956, 47.5142011], [7.5207476, 47.515724], [7.5190885, 47.5148178], [7.5174593, 47.5172811], [7.5022782, 47.5149066], [7.4997601, 47.5205763], [7.4978691, 47.5212492], [7.4990865, 47.5162822], [7.5079113, 47.5108123], [7.5103091, 47.5059936], [7.5104485, 47.5026729], [7.5087507, 47.5023921], [7.5111817, 47.4969974], [7.501145, 47.4935203], [7.5024548, 47.4907737], [7.4938011, 47.4884155], [7.4916127, 47.4846673], [7.487277, 47.4820136], [7.472007, 47.480383], [7.4623896, 47.4890576], [7.4564102, 47.4885064], [7.4349796, 47.4981098], [7.4331417, 47.4971791], [7.4208142, 47.4803763], [7.4294031, 47.4829547], [7.432125, 47.4810093], [7.4436106, 47.4785144], [7.448402, 47.4737872], [7.4501727, 47.4753302], [7.4557367, 47.4733767], [7.4558246, 47.4707007], [7.450202, 47.4675201], [7.4457652, 47.4619728], [7.4300288, 47.4594917], [7.4277527, 47.4572981], [7.428796, 47.4538795], [7.4224177, 47.4507165], [7.4244509, 47.4499148], [7.4205525, 47.4455758], [7.4031306, 47.4386294], [7.403093, 47.4354815], [7.3943444, 47.4351906], [7.385599, 47.431814], [7.368404, 47.4342781], [7.3547429, 47.4339721], [7.3449649, 47.4360781], [7.3389901, 47.4410917], [7.3302124, 47.4417583], [7.3234165, 47.4386576], [7.302508, 47.4386192], [7.2926861, 47.4333519], [7.2869449, 47.4351324], [7.2818303, 47.4347794], [7.2713144, 47.427679], [7.2550971, 47.4244204], [7.2465183, 47.4203421], [7.2454196, 47.4210352], [7.2457612, 47.4265239], [7.239033, 47.4285291], [7.2375178, 47.4305803], [7.2388481, 47.4332815], [7.2308748, 47.4393953], [7.2228414, 47.4398546], [7.2069844, 47.4348191], [7.1998628, 47.4351526], [7.1957226, 47.435427], [7.1925093, 47.4389997], [7.1702182, 47.4429793], [7.1782927, 47.4585288], [7.1772739, 47.4594034], [7.1788891, 47.4608011], [7.1790413, 47.4656339], [7.1775007, 47.4680487], [7.1909086, 47.4885553], [7.2029571, 47.4913867], [7.2012133, 47.4942181], [7.1712605, 47.4895484], [7.1622737, 47.4900176], [7.1569243, 47.4920984], [7.1504007, 47.4973058], [7.1391517, 47.5017999], [7.1279794, 47.5039313], [7.1125326, 47.4951214], [7.100047, 47.4943109], [7.0942428, 47.4954372], [7.0748517, 47.4881832], [7.0725515, 47.4897557], [7.0720797, 47.4923848], [7.0607354, 47.4953933], [7.0524081, 47.4951244], [7.0444926, 47.498449], [7.0369327, 47.497506], [7.0366426, 47.4991952], [7.0215035, 47.5044581], [7.0003759, 47.4997134], [6.9860244, 47.49334], [6.9829674, 47.494551], [6.9864223, 47.4921316], [6.9886439, 47.4868881], [6.9885983, 47.4809982], [6.9864353, 47.4763206], [6.988291, 47.473092], [6.9929667, 47.4711216], [6.9908281, 47.4675965], [6.9916994, 47.4663893], [7.0004537, 47.4672198], [6.9997498, 47.4649713], [7.0012664, 47.4619523], [6.9977291, 47.4598972], [6.9974657, 47.4564784], [7.0014085, 47.4559538], [7.0021261, 47.4541577], [6.995865, 47.4496368], [6.9901377, 47.4479687], [6.9809517, 47.4492188], [6.9702926, 47.4471132], [6.9662306, 47.4376469], [6.9637101, 47.4357772], [6.957514, 47.4338106], [6.9549045, 47.4352546], [6.9402723, 47.4333274], [6.9415359, 47.4156591], [6.9384103, 47.4060862], [6.9205758, 47.4050795], [6.9196589, 47.4066429], [6.9132014, 47.4045971], [6.9177484, 47.4031927], [6.9154465, 47.3971466], [6.9093642, 47.3960786], [6.913415, 47.3880784], [6.9051337, 47.3825146], [6.8951012, 47.3816777], [6.8957778, 47.3798987], [6.883607, 47.3728593], [6.8849398, 47.3674026], [6.879392, 47.3577742], [6.8793259, 47.3525796], [6.887013, 47.3532973], [6.8947046, 47.3565338], [6.895648, 47.3586145], [6.8996133, 47.3577216], [6.9024206, 47.3593555], [6.9215361, 47.3551349], [6.9331049, 47.3584469], [6.9427853, 47.3576803], [6.9521066, 47.3599803], [6.9746009, 47.3601278], [6.9843172, 47.3636489], [6.9963997, 47.3635956], [7.0074054, 47.3680868], [7.012155, 47.3728596], [7.0131076, 47.3714231], [7.0154774, 47.372915], [7.0181751, 47.3726166], [7.0202219, 47.3703231], [7.0340735, 47.369656], [7.0347968, 47.3633335], [7.0430849, 47.3642427], [7.0498885, 47.3613968], [7.052809, 47.3515644], [7.0498342, 47.3477181], [7.0555612, 47.3473408], [7.0623707, 47.3440342], [7.0597889, 47.3397001], [7.0529324, 47.336618], [7.0530038, 47.3350691], [7.0569839, 47.3343682], [7.0456146, 47.3264816], [7.033841, 47.3282986], [7.0099836, 47.3245152], [7.0092902, 47.3202978], [7.0132737, 47.31988], [7.0157833, 47.3132902], [7.01341, 47.3092023], [7.0109768, 47.3080339], [7.0093572, 47.3023543], [7.0033774, 47.301278], [6.996388, 47.2956997], [6.9766217, 47.2962336], [6.9761809, 47.2932599], [6.9734589, 47.2911253], [6.9686785, 47.2924802], [6.9508758, 47.2919158], [6.940793, 47.2863723], [6.9519332, 47.2698429], [6.9499747, 47.2656113], [6.9510252, 47.2596683], [6.9463987, 47.2538802], [6.9473441, 47.2505003], [6.9554611, 47.2429925], [6.9428254, 47.2377153], [6.9427017, 47.2344127], [6.939663, 47.2310291], [6.9330765, 47.230717], [6.9278093, 47.22849], [6.9262376, 47.224411], [6.921344, 47.2205078], [6.9100846, 47.2180018], [6.9067708, 47.2143193], [6.8804605, 47.2005177], [6.8739772, 47.1910191], [6.8739978, 47.1854493], [6.8673821, 47.1853509], [6.8633842, 47.1799969], [6.8409761, 47.1711995], [6.8444721, 47.1664314], [6.8588143, 47.165261], [6.8499278, 47.1563748], [6.8404303, 47.1538634], [6.8391974, 47.149884], [6.8284242, 47.1465466], [6.824626, 47.1419572], [6.819629, 47.1400953], [6.8158998, 47.1360273], [6.807929, 47.1352647], [6.8060991, 47.1307661], [6.7793427, 47.123757], [6.7759987, 47.1213637], [6.7658097, 47.1207312], [6.7520443, 47.1145748], [6.7468171, 47.1099657], [6.7405487, 47.1096216], [6.7414935, 47.1041374], [6.7467311, 47.0978257], [6.7445661, 47.092688], [6.7415779, 47.090927], [6.7319898, 47.0894669], [6.7258717, 47.0919379], [6.7227084, 47.0895754], [6.7150798, 47.0884124], [6.7078997, 47.0831504], [6.702731, 47.0821401], [6.7075362, 47.0794578], [6.705212, 47.0763881], [6.7062404, 47.0742039], [6.7033059, 47.0734399], [6.7011544, 47.0701141], [6.6934104, 47.0689313], [6.6915129, 47.0666703], [6.6952125, 47.0625109], [6.6969233, 47.063433], [6.7002168, 47.0613754], [6.7007613, 47.0591197], [6.7088123, 47.0580576], [6.7111693, 47.0541254], [6.7191775, 47.051179], [6.7115123, 47.0480374], [6.696541, 47.0372268], [6.6867357, 47.0374804], [6.6790211, 47.0357011], [6.6591896, 47.0272816], [6.653558, 47.0222364], [6.6404084, 47.0027993], [6.6336875, 46.9981829], [6.6181705, 46.9916267], [6.6106267, 46.9906383], [6.600038, 46.9924067], [6.5931502, 46.9916765], [6.5718875, 46.982013], [6.5374199, 46.9734513], [6.5187201, 46.9709261], [6.5048328, 46.9656621], [6.4965027, 46.9741095], [6.4765849, 46.960718], [6.4535354, 46.9387811], [6.4464703, 46.9340797], [6.4326552, 46.9286841], [6.4358631, 46.9216356], [6.4579341, 46.9007714], [6.4645461, 46.8902782], [6.4601921, 46.8512939], [6.4431544, 46.8327141], [6.4395167, 46.8239807], [6.4408312, 46.8158214], [6.4310763, 46.8123584], [6.4347893, 46.8014807], [6.4584751, 46.7885479], [6.4519129, 46.7783948], [6.4524, 46.7739825], [6.4385257, 46.766509], [6.437958, 46.762945], [6.4394275, 46.7625619], [6.429869, 46.7564196], [6.4119283, 46.7515918], [6.4009802, 46.7508088], [6.3953484, 46.7484084], [6.3883324, 46.7433692], [6.3919997, 46.7388582], [6.3849046, 46.7313995], [6.3740203, 46.7310931], [6.3677996, 46.7291773], [6.3713606, 46.7291764], [6.3718638, 46.724116], [6.3645166, 46.7218103], [6.3601973, 46.7231413], [6.3538919, 46.718228], [6.3522178, 46.7148823], [6.3413046, 46.7101475], [6.3251663, 46.7065303], [6.2972368, 46.6943976], [6.2790838, 46.6899947], [6.2792142, 46.6876595], [6.2691826, 46.682498], [6.2688174, 46.6799921], [6.270466, 46.6790251], [6.2672694, 46.6761435], [6.2327228, 46.6544316], [6.2275505, 46.6481643], [6.2190268, 46.6450815], [6.2166351, 46.6431099], [6.2174558, 46.6422732], [6.2128338, 46.6410564], [6.2075361, 46.6354037], [6.2041117, 46.6360824], [6.1995491, 46.6343688], [6.2005814, 46.6335025], [6.1958745, 46.62942], [6.196268, 46.6280871], [6.1789915, 46.6199565], [6.1782719, 46.6156437], [6.1652701, 46.6100583], [6.1612164, 46.6099761], [6.1537727, 46.6037677], [6.148074, 46.6021976], [6.1265177, 46.5899171], [6.1218502, 46.5840511], [6.1104914, 46.5764482], [6.1566588, 46.5452979], [6.1485873, 46.5393588], [6.1534965, 46.5367993], [6.143689, 46.5277477], [6.1379861, 46.530994], [6.1126314, 46.5095962], [6.0969215, 46.4812939], [6.0727304, 46.4654405], [6.0734857, 46.4598869], [6.0769329, 46.4575915], [6.0744422, 46.4534893], [6.0843926, 46.4474975], [6.0864075, 46.4439338], [6.0856139, 46.4408404], [6.0745787, 46.4321624], [6.073894, 46.4283619], [6.0638578, 46.4163952], [6.0976447, 46.4091536], [6.1059362, 46.3995181], [6.1092193, 46.3996172], [6.1138348, 46.3969032], [6.1147357, 46.3975118], [6.1130035, 46.4000404], [6.1347187, 46.3887001], [6.1496645, 46.3774895], [6.1570218, 46.3777515], [6.1593743, 46.3797117], [6.1610727, 46.3749023], [6.1658976, 46.3719311], [6.1699166, 46.3660835], [6.161399, 46.3598768], [6.1584673, 46.3559102], [6.1577609, 46.3499541], [6.1514923, 46.3473907], [6.1493997, 46.3427131], [6.137956, 46.3387422], [6.1394412, 46.3377723], [6.1372375, 46.3356353], [6.1392325, 46.333377], [6.1363403, 46.3321189], [6.1371186, 46.3307821], [6.1351149, 46.3287424], [6.1361426, 46.3283702], [6.1340197, 46.3280579], [6.1315305, 46.3240835], [6.1269579, 46.321241], [6.1252347, 46.319251], [6.126091, 46.3177346], [6.1198053, 46.3125199], [6.1191474, 46.3077339], [6.1206985, 46.3067544], [6.1187728, 46.3028408], [6.1217713, 46.2992496], [6.1186021, 46.2959555], [6.1197288, 46.2943716], [6.1140812, 46.2947216], [6.1023518, 46.2849427], [6.1050283, 46.2829553], [6.1032862, 46.2786499], [6.113515, 46.2725523], [6.1099028, 46.2705834], [6.115423, 46.265954], [6.1200164, 46.2647666], [6.1180923, 46.2634476], [6.1227574, 46.2564945], [6.120829, 46.2546028], [6.1244594, 46.2525883], [6.120794, 46.2480078], [6.1088285, 46.2398576], [6.1068469, 46.2411607], [6.1014498, 46.2376461], [6.0880562, 46.2471257], [6.0735355, 46.2437117], [6.0730252, 46.2413479], [6.0673114, 46.2417932], [6.0633275, 46.2458001], [6.0558595, 46.241652], [6.0461125, 46.2314049], [6.0336572, 46.2385548], [6.0254399, 46.2332157], [6.016422, 46.2320036], [6.0152581, 46.2304516], [6.0130452, 46.2310902], [6.0133359, 46.2290291], [6.009582, 46.2289469], [6.0096323, 46.2271842], [6.0065953, 46.2265959], [6.0071617, 46.2238564], [6.0014888, 46.2205063], [5.9929417, 46.2229763], [5.9901543, 46.221709], [5.9935, 46.2179384], [5.9927818, 46.2152237], [5.9791231, 46.2172373], [5.9735281, 46.213924], [5.969249, 46.2066749], [5.9735099, 46.2027927], [5.9656408, 46.1995368], [5.9637155, 46.1970214], [5.982821, 46.1907756], [5.9819585, 46.1900252], [5.9838085, 46.188883], [5.9902984, 46.1878044], [5.9949234, 46.1818645], [5.990414, 46.1776144], [5.9917444, 46.1768409], [5.9875942, 46.1703364], [5.9847041, 46.1734692], [5.9820327, 46.1732705], [5.9800723, 46.1662535], [5.9642377, 46.1446152], [5.9662579, 46.137872], [5.9559113, 46.1323565], [5.9568251, 46.1287821], [5.9611438, 46.1307981], [5.9652104, 46.1296835], [5.9762687, 46.1329214], [5.9819285, 46.1374073], [5.9835137, 46.1429879], [5.9941117, 46.1445684], [6.0032397, 46.1417757], [6.015023, 46.1430748], [6.0284621, 46.1404369], [6.0316652, 46.1393956], [6.031496, 46.1379735], [6.0329871, 46.1387338], [6.0354039, 46.1343322], [6.0393071, 46.139639], [6.0424876, 46.141411], [6.0450879, 46.1399668], [6.0475988, 46.1422089], [6.0484379, 46.1470521], [6.0522995, 46.1513871], [6.0749132, 46.1488419], [6.0918209, 46.1519451], [6.0985028, 46.1438189], [6.1201677, 46.1427557], [6.1281558, 46.1403167], [6.1364595, 46.1415966], [6.1419014, 46.147224], [6.1448818, 46.1449496], [6.1486489, 46.1500869], [6.1685645, 46.1571618], [6.1742222, 46.1578077], [6.1853429, 46.1639669], [6.1887838, 46.1663858], [6.1862471, 46.1753881], [6.187065, 46.1803623], [6.1949886, 46.1842047], [6.198025, 46.1835092], [6.2048892, 46.1897887], [6.2051983, 46.1917612], [6.2122775, 46.1927853], [6.2183186, 46.1986851], [6.2222592, 46.1989873], [6.2219466, 46.2006645], [6.2281574, 46.2024471], [6.2340226, 46.2064219], [6.2430357, 46.2045027], [6.2451589, 46.2049646], [6.2447749, 46.2069118], [6.249558, 46.2049887], [6.2540992, 46.2092213], [6.27698, 46.2155203], [6.2946859, 46.2251526], [6.3102878, 46.2439735], [6.3086963, 46.247485], [6.3094283, 46.2500754], [6.3057019, 46.2513667], [6.3097618, 46.2562236], [6.3020766, 46.2547221], [6.2950004, 46.2560724], [6.2939311, 46.259527], [6.2966024, 46.2632776], [6.2949018, 46.2646027], [6.2834653, 46.2559692], [6.2852515, 46.2548899], [6.278521, 46.2524587], [6.2787105, 46.2512631], [6.2667923, 46.2476914], [6.2601586, 46.2516773], [6.2616783, 46.2545594], [6.2498541, 46.2621969], [6.2428782, 46.2728507], [6.23759, 46.2775515], [6.2390334, 46.2794645], [6.2380085, 46.2821234], [6.2399017, 46.282075], [6.2417391, 46.2850142], [6.24897, 46.2865585], [6.2529314, 46.2905082], [6.2486217, 46.2942757], [6.2501308, 46.2964841], [6.2482236, 46.2965765], [6.249285, 46.2988422], [6.2469354, 46.3000338], [6.2489199, 46.3018243], [6.2195646, 46.3118838], [6.2529745, 46.3604259], [6.3352077, 46.4037215], [6.4256379, 46.4158117], [6.519124, 46.4563726], [6.6818777, 46.4543368], [6.8210834, 46.4271524], [6.8019343, 46.3888896], [6.8019705, 46.3858394], [6.806424, 46.3829587], [6.8054372, 46.3784102], [6.7988362, 46.3742931], [6.7926795, 46.3675856], [6.7807165, 46.3665295], [6.7717249, 46.3611693], [6.7711008, 46.3538159], [6.7745843, 46.3473325], [6.7790902, 46.3446227], [6.7845331, 46.3368317], [6.7843162, 46.332804], [6.7964003, 46.3329997], [6.7990015, 46.3290748], [6.7974267, 46.3266655], [6.8003617, 46.3200419], [6.8070449, 46.3207467], [6.8157042, 46.3158724], [6.8198054, 46.3155471], [6.8215245, 46.3129513], [6.8253401, 46.3119657], [6.8302712, 46.3061314], [6.8281163, 46.3025654], [6.8299582, 46.3001798], [6.8347838, 46.2997957], [6.8396282, 46.2950721], [6.8439219, 46.2942911], [6.8473463, 46.2898911], [6.8543563, 46.2925341], [6.8577893, 46.2912952], [6.8643418, 46.2831535], [6.8649338, 46.2801905], [6.8589064, 46.2738779], [6.8601917, 46.2662283], [6.8544587, 46.2592945], [6.8554217, 46.2552017], [6.8519884, 46.2521379], [6.8398013, 46.2482192], [6.8371599, 46.2408102], [6.8307494, 46.2344674], [6.8212233, 46.2323082], [6.8217391, 46.2233627], [6.8169735, 46.220353], [6.8134731, 46.2153546], [6.809859, 46.2138399], [6.8099938, 46.2119662], [6.8038427, 46.2048683], [6.8033234, 46.2031288], [6.8125574, 46.1814205], [6.8066707, 46.1780614], [6.8053407, 46.1725818], [6.7917076, 46.1628128], [6.792647, 46.1597245], [6.7903776, 46.1535558], [6.7945255, 46.1477591], [6.7975693, 46.13671], [6.8014378, 46.1353162], [6.8074292, 46.1364423], [6.8150725, 46.1292701], [6.8186957, 46.1310854], [6.8389436, 46.1327455], [6.8420278, 46.1319764], [6.8429767, 46.1290372], [6.8515709, 46.1266582], [6.8732662, 46.1259462], [6.8823204, 46.1229423], [6.8907124, 46.1255062], [6.9000083, 46.1239403], [6.8930795, 46.1138062], [6.8934101, 46.1099699], [6.8953798, 46.1087825], [6.8931314, 46.1047142], [6.8823362, 46.0951793], [6.8917895, 46.085123], [6.8903566, 46.0809048], [6.8880235, 46.07912], [6.8909598, 46.0740908], [6.8801494, 46.0693633], [6.8720667, 46.0510053], [6.8779193, 46.046314], [6.8861567, 46.0443693], [6.8896966, 46.0419678], [6.8914056, 46.0426379], [6.8919077, 46.0462364], [6.8950174, 46.0481491], [6.9097118, 46.050761], [6.9110259, 46.0541001], [6.9245985, 46.0652411], [6.9339979, 46.0659885], [6.9375064, 46.0642703], [6.9382595, 46.0631937], [6.9364336, 46.0624966], [6.936924, 46.0600979], [6.9350047, 46.0561304], [6.9439193, 46.0505924], [6.9501919, 46.0514973], [6.9545329, 46.0416657], [6.9629003, 46.0304301], [6.9665388, 46.0311467], [6.9710459, 46.0256741], [6.9812934, 46.0196204], [6.9851712, 46.004448], [7.0006461, 45.9985518], [7.0054345, 46.0014241], [7.0102969, 45.9971029], [7.012064, 45.9869888], [7.0190546, 45.9840141], [7.0236556, 45.9781293], [7.0101194, 45.9731088], [7.0089702, 45.9691722], [7.0176426, 45.9605383], [7.0369605, 45.9552063], [7.0382443, 45.9454791], [7.0364246, 45.9441455], [7.0356315, 45.9375508], [7.0414839, 45.9313212], [7.0432584, 45.9234138], [7.0534923, 45.915395], [7.060788, 45.9133509], [7.0643846, 45.9094319], [7.0641899, 45.9002288], [7.0727639, 45.8954715], [7.0765917, 45.895232], [7.0765341, 45.8903113], [7.0801102, 45.8851954], [7.0953676, 45.875906], [7.0924549, 45.8721909], [7.0961916, 45.8677227], [7.0977074, 45.8621052], [7.1015494, 45.8591755], [7.1181316, 45.8591789], [7.1230006, 45.8632407], [7.131632, 45.867016], [7.1351804, 45.8726478], [7.1536499, 45.8792714], [7.164049, 45.8767401], [7.1641896, 45.8736311], [7.1614501, 45.8718568], [7.1753362, 45.8629026], [7.1793762, 45.8634045], [7.1847681, 45.8599676], [7.1906176, 45.8586781], [7.1967501, 45.8604392], [7.2008235, 45.863079], [7.1985228, 45.8658214], [7.1976441, 45.8703635], [7.2001362, 45.8755095], [7.203234, 45.8762432], [7.2060943, 45.8801702], [7.2157141, 45.8838706], [7.2164189, 45.8887288], [7.2256558, 45.8897563], [7.2283332, 45.8920229], [7.2398411, 45.8899777], [7.2478233, 45.8932656], [7.2524945, 45.8919489], [7.2530632, 45.8885261], [7.2567925, 45.8882336], [7.2711957, 45.899765], [7.2768036, 45.9007355], [7.2848326, 45.9151479], [7.28935, 45.9174936], [7.2903857, 45.9202698], [7.2944371, 45.9218133], [7.3020131, 45.9170834], [7.3163456, 45.9166053], [7.3180962, 45.9117227], [7.3236407, 45.9102444], [7.3320154, 45.9109094], [7.3442886, 45.9152832], [7.3506738, 45.9116453], [7.3565068, 45.9105498], [7.3563504, 45.9073948], [7.3612529, 45.9032426], [7.3664959, 45.9040557], [7.3818365, 45.8967334], [7.3857012, 45.8970051], [7.3946892, 45.9023613], [7.3976761, 45.9053759], [7.3977769, 45.9083624], [7.4016664, 45.9113323], [7.4057272, 45.9089768], [7.4111137, 45.9085915], [7.4208027, 45.9121017], [7.4222581, 45.9146027], [7.426601, 45.915143], [7.4341783, 45.9199741], [7.4447481, 45.9315152], [7.456415, 45.9324315], [7.4594457, 45.9356514], [7.4720149, 45.9343621], [7.474917, 45.9365022], [7.472023, 45.9480351], [7.4786028, 45.9525756], [7.4877878, 45.9558104], [7.494043, 45.9560145], [7.4963016, 45.9575156], [7.4955944, 45.9596568], [7.4992733, 45.9624165], [7.5076268, 45.9585707], [7.5180799, 45.9627018], [7.5226127, 45.9577241], [7.5345803, 45.956995], [7.5384457, 45.9549047], [7.543119, 45.9573472], [7.5463532, 45.9624086], [7.5415421, 45.9762391], [7.5449682, 45.979969], [7.5459435, 45.9838182], [7.5501802, 45.9859729], [7.561819, 45.9856461], [7.5701212, 45.9876787], [7.578376, 45.9860496], [7.5819948, 45.9783091], [7.581122, 45.9750718], [7.586981, 45.9709264], [7.6100027, 45.9693887], [7.6198437, 45.9723627], [7.6392514, 45.970126], [7.6537092, 45.9742852], [7.656992, 45.9765661], [7.6642849, 45.9756658], [7.6682783, 45.9738354], [7.6705667, 45.9698833], [7.6770492, 45.9650801], [7.6783332, 45.958829], [7.6810552, 45.9569556], [7.6903239, 45.9544993], [7.6990095, 45.9544689], [7.709709, 45.9482818], [7.7074882, 45.9345421], [7.7117326, 45.9325349], [7.7127704, 45.9286644], [7.7201307, 45.9235819], [7.7348895, 45.9237966], [7.7365539, 45.928694], [7.7450032, 45.9343565], [7.7476801, 45.9410548], [7.769385, 45.9369682], [7.7772709, 45.9299913], [7.7869233, 45.9274701], [7.7918272, 45.9243245], [7.7937094, 45.9203876], [7.7995537, 45.9173285], [7.8043823, 45.9186615], [7.8099672, 45.9230338], [7.8219436, 45.9270147], [7.8322781, 45.9247121], [7.8366397, 45.9218363], [7.8579008, 45.9210394], [7.8635632, 45.9167004], [7.8663329, 45.9197303], [7.8730427, 45.9206941], [7.8770798, 45.9272119], [7.8714191, 45.9321697], [7.8684964, 45.9375782], [7.8707016, 45.9474648], [7.8772033, 45.9493916], [7.8776533, 45.9540495], [7.8752708, 45.9577199], [7.8811279, 45.9637465], [7.8807995, 45.968358], [7.8778068, 45.9732094], [7.8938494, 45.978606], [7.8953007, 45.9824503], [7.9002871, 45.9877103], [7.9035604, 45.9887261], [7.908696, 45.9969671], [7.9326186, 45.9959969], [7.949353, 45.9976006], [7.95818, 45.996076], [7.9771859, 45.999423], [7.989027, 45.9960011], [7.9943252, 46.0004912], [7.9940189, 46.0021119], [7.999762, 46.0082906], [8.001105, 46.0121966], [8.0123972, 46.0119878], [8.0132495, 46.0158607], [8.0107641, 46.0188549], [8.0175132, 46.0247131], [8.0142202, 46.0300999], [8.0118958, 46.0312032], [8.0220699, 46.0389726], [8.0314049, 46.0417455], [8.0344676, 46.0442302], [8.0216897, 46.0695032], [8.0224562, 46.0747167], [8.0291, 46.080923], [8.0295873, 46.0895961], [8.0338782, 46.0952443], [8.0347232, 46.1008515], [8.0437064, 46.1000879], [8.0490747, 46.1022281], [8.0546037, 46.1013285], [8.0692172, 46.1059911], [8.0818, 46.1054497], [8.0971503, 46.1084167], [8.0998704, 46.1109954], [8.1082182, 46.1116247], [8.1098272, 46.1150006], [8.1138156, 46.1174409], [8.1152706, 46.1222141], [8.1142501, 46.1241336], [8.1159836, 46.1273677], [8.1152611, 46.1302395], [8.1216963, 46.1326742], [8.1233867, 46.1348295], [8.1443044, 46.1368491], [8.1501803, 46.1408772], [8.1540248, 46.1462187], [8.1549304, 46.147802], [8.1532199, 46.1484403], [8.1530778, 46.1538795], [8.1496427, 46.1572487], [8.1497535, 46.1625828], [8.1511295, 46.165422], [8.1566678, 46.1693375], [8.1584996, 46.1740674], [8.1652756, 46.1770043], [8.1650665, 46.1828638], [8.1533003, 46.1911073], [8.1513491, 46.1961293], [8.1513374, 46.2029616], [8.1435307, 46.211599], [8.1388826, 46.2261526], [8.1273086, 46.2282879], [8.1243141, 46.229771], [8.1201817, 46.2361939], [8.1154273, 46.2360061], [8.1115702, 46.241113], [8.1119662, 46.2453065], [8.1101591, 46.2495092], [8.1016608, 46.2494367], [8.1006747, 46.2522954], [8.0887593, 46.2535519], [8.0824061, 46.2569436], [8.0805046, 46.2606607], [8.0860738, 46.2621853], [8.0856718, 46.2665507], [8.0968202, 46.2713622], [8.1055093, 46.2796326], [8.1133498, 46.2810075], [8.1183444, 46.2861503], [8.1207786, 46.2919381], [8.1286658, 46.294769], [8.1381418, 46.3019976], [8.1481905, 46.3011884], [8.1596095, 46.2960605], [8.1788632, 46.2975107], [8.1944553, 46.303453], [8.1986571, 46.3022554], [8.2121063, 46.309703], [8.2112999, 46.3123354], [8.2148857, 46.3161612], [8.2146508, 46.3197162], [8.2249373, 46.3262125], [8.2218365, 46.3300123], [8.225253, 46.3327774], [8.2240826, 46.3344678], [8.2356241, 46.3403696], [8.2496575, 46.3407198], [8.2494568, 46.3446795], [8.2528608, 46.3464543], [8.2597264, 46.3451723], [8.2627925, 46.3460497], [8.2599116, 46.3488324], [8.2655431, 46.3518052], [8.2650775, 46.3570713], [8.2607439, 46.3609082], [8.2643072, 46.3645257], [8.2728952, 46.3669548], [8.2840857, 46.3637053], [8.289719, 46.3691057], [8.2952646, 46.3705213], [8.2999717, 46.3739492], [8.3127607, 46.377162], [8.3149782, 46.38409], [8.3186953, 46.3864452], [8.3141402, 46.3901689], [8.3171912, 46.3939237], [8.3156075, 46.3989108], [8.309683, 46.4040843], [8.3035072, 46.4025302], [8.294547, 46.4049822], [8.2886233, 46.4087152], [8.2918825, 46.4092125], [8.2988148, 46.414153], [8.2989709, 46.4174354], [8.3076903, 46.4258254], [8.3132102, 46.4236419], [8.3258283, 46.4251903], [8.3281166, 46.4282761], [8.3391901, 46.4330916], [8.3427627, 46.4366617], [8.3525178, 46.4418194], [8.3556205, 46.4467693], [8.3669678, 46.4520028], [8.3752253, 46.4530595], [8.3785717, 46.4508728], [8.3891058, 46.4526775], [8.3928992, 46.4515212], [8.3964706, 46.4547567], [8.4023039, 46.4547684], [8.4085787, 46.4585402], [8.4172663, 46.4588076], [8.4211198, 46.4609784], [8.43517, 46.4640049], [8.4385186, 46.4641555], [8.4386613, 46.4627148], [8.4461263, 46.4637015], [8.4500377, 46.4619126], [8.4531833, 46.4581781], [8.4532538, 46.4549838], [8.461975, 46.4507045], [8.4624875, 46.4451835], [8.465918, 46.4443606], [8.4638585, 46.4390846], [8.457534, 46.4347669], [8.4607561, 46.4284023], [8.4573913, 46.4254933], [8.4568832, 46.4229697], [8.4584516, 46.4198969], [8.4629391, 46.4178054], [8.4682533, 46.4119998], [8.4630883, 46.4049007], [8.463592, 46.4027758], [8.4711357, 46.3959872], [8.4608457, 46.3866488], [8.4664154, 46.3801516], [8.4668806, 46.3683172], [8.4701703, 46.3622328], [8.4647034, 46.3583061], [8.4615213, 46.3532503], [8.4643627, 46.3471269], [8.4634264, 46.3367266], [8.4653463, 46.3338484], [8.4604781, 46.3284317], [8.4557144, 46.3271702], [8.4539811, 46.3212751], [8.4436893, 46.3194508], [8.4414111, 46.3156026], [8.4418074, 46.3102191], [8.4390066, 46.3069875], [8.4405514, 46.304158], [8.4327235, 46.302005], [8.42775, 46.2983151], [8.4337984, 46.2919377], [8.4343082, 46.2878849], [8.4497581, 46.2743253], [8.4557075, 46.2643043], [8.4484546, 46.2614005], [8.4478085, 46.2580327], [8.4418671, 46.254442], [8.4444634, 46.2489583], [8.4638983, 46.2446455], [8.467335, 46.2343765], [8.4714635, 46.2319548], [8.4925783, 46.229133], [8.5144684, 46.2203803], [8.5218215, 46.2219025], [8.5325471, 46.2183626], [8.536372, 46.2042909], [8.5402401, 46.1982256], [8.5535488, 46.1920405], [8.5549792, 46.1872403], [8.5540131, 46.1862333], [8.5636858, 46.1838735], [8.569786, 46.176927], [8.5728743, 46.1651288], [8.5784119, 46.1618343], [8.5841967, 46.1629453], [8.5866992, 46.1618853], [8.5891929, 46.159188], [8.5882961, 46.1565612], [8.6034467, 46.1549215], [8.6038345, 46.153685], [8.600202, 46.1533176], [8.5998619, 46.1495157], [8.5938933, 46.147013], [8.5929672, 46.1430192], [8.5958313, 46.1425851], [8.6097043, 46.1328883], [8.609772, 46.1270131], [8.6118217, 46.1217208], [8.6474783, 46.123602], [8.6563273, 46.1160396], [8.6576119, 46.1127419], [8.6699196, 46.1089914], [8.6793955, 46.1104619], [8.6813584, 46.1057799], [8.6858035, 46.1022041], [8.6965735, 46.1020139], [8.713991, 46.0972321], [8.7242721, 46.1102205], [8.742343, 46.1223106], [8.7568015, 46.1035741], [8.7600255, 46.1015841], [8.768244, 46.1007678], [8.7830083, 46.0940992], [8.7998182, 46.0947414], [8.8060228, 46.1013511], [8.8153376, 46.097369], [8.8338327, 46.08279], [8.8408015, 46.0807707], [8.8475045, 46.0757558], [8.8520348, 46.0756306], [8.8545039, 46.0615864], [8.8440827, 46.0484548], [8.834671, 46.0513393], [8.8286027, 46.0464007], [8.8355175, 46.0437141], [8.8328392, 46.040512], [8.8301188, 46.0415999], [8.8270515, 46.0325175], [8.8218449, 46.0270068], [8.8197178, 46.0252717], [8.8058828, 46.0219543], [8.793078, 46.0081367], [8.7859221, 45.9891496], [8.7906839, 45.9885976], [8.7923858, 45.9895668], [8.7922474, 45.9917996], [8.7941676, 45.9921993], [8.8101401, 45.9898464], [8.8138337, 45.9909816], [8.8198264, 45.9875236], [8.8316221, 45.9879901], [8.8341972, 45.9852142], [8.8392687, 45.9841796], [8.8399784, 45.9816516], [8.8425798, 45.9814393], [8.843298, 45.9777417], [8.8496244, 45.972878], [8.8606932, 45.9661102], [8.8647344, 45.9654574], [8.8682985, 45.9606214], [8.8782158, 45.9566423], [8.8936571, 45.958982], [8.8966462, 45.954748], [8.8986014, 45.9462586], [8.8934911, 45.9373823], [8.8933121, 45.9311849], [8.8968135, 45.9264483], [8.9040064, 45.9220517], [8.9074451, 45.9177895], [8.9142865, 45.9178005], [8.9241547, 45.905663], [8.9249369, 45.9008594], [8.9215352, 45.8957726], [8.9241475, 45.8922226], [8.9273205, 45.8917079], [8.9319359, 45.885041], [8.9337815, 45.8703345], [8.9370309, 45.8673067], [8.9420565, 45.8703446], [8.9453151, 45.8670214], [8.9332292, 45.8616048], [8.9152399, 45.8434021], [8.9127644, 45.8380336], [8.9122392, 45.8304652], [8.9205143, 45.8342699], [8.929115, 45.8334362], [8.9290652, 45.8353892], [8.9321894, 45.8366792], [8.9328719, 45.8389266], [8.9391522, 45.8412974], [8.9563184, 45.8434814], [8.9566215, 45.8414079], [8.9619654, 45.8391584], [8.9613745, 45.8364222], [8.9701045, 45.8323899], [8.9743605, 45.8331401], [8.9762084, 45.8366432], [8.9813724, 45.8357194], [8.9867296, 45.8386578], [8.9910574, 45.8360339], [8.9899455, 45.8354015], [8.997502, 45.8349366], [8.9977172, 45.8325383], [8.9929719, 45.8233702], [8.9939171, 45.822049], [8.9975985, 45.8233681], [9.0037734, 45.8204375], [9.0173349, 45.8179579], [9.0174858, 45.8198634], [9.0223078, 45.8218906], [9.0288596, 45.8206442], [9.0342463, 45.822741], [9.0310406, 45.8247722], [9.0326, 45.8251117], [9.0344922, 45.8323028], [9.0378827, 45.8355264], [9.0353382, 45.8391914], [9.0357588, 45.8409889], [9.0386292, 45.8419484], [9.0406327, 45.8464944], [9.0437048, 45.8465644], [9.0471418, 45.8509187], [9.0506875, 45.8521663], [9.0483103, 45.8532304], [9.0515425, 45.8551372], [9.0493566, 45.8585601], [9.0492321, 45.862873], [9.0534207, 45.8681731], [9.0528456, 45.869731], [9.0555608, 45.8715888], [9.0546518, 45.8733638], [9.0574738, 45.8752665], [9.066349, 45.8755079], [9.0718577, 45.8821537], [9.0773748, 45.8845835], [9.0794762, 45.8886553], [9.0772682, 45.8905483], [9.0779791, 45.8920924], [9.0816049, 45.8918326], [9.0851385, 45.8959323], [9.0888757, 45.8968978], [9.0874013, 45.8990353], [9.0890232, 45.9006581], [9.086819, 45.9022263], [9.0769409, 45.8993081], [9.0754618, 45.9061378], [9.0773334, 45.9092415], [9.0765632, 45.9115021], [9.0722329, 45.9126717], [9.0677556, 45.9105952], [9.068142, 45.9129304], [9.0590608, 45.9164674], [9.0598938, 45.9209659], [9.0493287, 45.9204442], [9.0494841, 45.9220678], [9.0427678, 45.9273526], [9.029843, 45.9265092], [9.0265355, 45.9286851], [9.0193634, 45.9283515], [9.0224618, 45.9371727], [9.0197693, 45.9397021], [9.0135608, 45.9415144], [9.0121974, 45.9437853], [9.0171227, 45.9490154], [9.0153229, 45.9508116], [9.0139619, 45.9605539], [8.99402, 45.9665632], [8.9889929, 45.9703487], [8.9884715, 45.9728334], [8.9904923, 45.9712312], [8.9958169, 45.9728568], [8.9953394, 45.9805043], [9.0073592, 45.9803105], [9.0111466, 45.9831972], [9.011414, 45.9880069], [9.0180125, 45.9876627], [9.0224951, 45.9895792], [9.0228056, 45.9927237], [9.0284221, 45.9936613], [9.0245095, 46.0007629], [9.0225421, 46.0168563], [9.0090476, 46.0269526], [9.0075704, 46.0297768], [9.0095408, 46.0373818], [9.016943, 46.0431896], [9.0160726, 46.0466028], [9.0171974, 46.0497541], [9.0230037, 46.0530285], [9.0287545, 46.0530375], [9.0393035, 46.0589164], [9.0447597, 46.0589918], [9.0501972, 46.0623781], [9.0601875, 46.0606155], [9.0739434, 46.0624863], [9.0782932, 46.0653022], [9.0790404, 46.0759801], [9.0841661, 46.0787576], [9.0895508, 46.0870914], [9.0779271, 46.1099346], [9.0739135, 46.1141319], [9.0729449, 46.1185096], [9.0893274, 46.125451], [9.0999736, 46.1266173], [9.1011538, 46.1292542], [9.105276, 46.1320276], [9.1122547, 46.1346685], [9.1209473, 46.1345213], [9.126894, 46.1447528], [9.1345112, 46.1532585], [9.1408729, 46.1550702], [9.149631, 46.1606061], [9.1568071, 46.1623235], [9.1593659, 46.1696185], [9.1612166, 46.1707312], [9.1704874, 46.1718801], [9.1808306, 46.1691798], [9.1839443, 46.1706204], [9.1875323, 46.1749873], [9.1946547, 46.1791261], [9.1949208, 46.1840112], [9.1980353, 46.1869591], [9.1953268, 46.1894492], [9.1948302, 46.1936322], [9.1977134, 46.1961361], [9.1976892, 46.1993358], [9.20229, 46.2084124], [9.2066863, 46.2103725], [9.2142814, 46.2107905], [9.2187392, 46.2143674], [9.2198992, 46.2205556], [9.2228723, 46.2239831], [9.2210475, 46.2292341], [9.2349227, 46.2333588], [9.2458309, 46.2321827], [9.2485896, 46.2336989], [9.2496671, 46.2446942], [9.2482055, 46.247342], [9.2512989, 46.2508515], [9.2490177, 46.2558216], [9.2530481, 46.2618925], [9.2518478, 46.2657858], [9.250317, 46.266316], [9.2569886, 46.2693535], [9.2592548, 46.2730458], [9.258759, 46.2784458], [9.2682599, 46.2821687], [9.2723523, 46.2897184], [9.2848503, 46.2970581], [9.2835118, 46.3059191], [9.2815377, 46.3093734], [9.2850517, 46.3144399], [9.2938393, 46.316573], [9.2958593, 46.323617], [9.3001292, 46.3266096], [9.2965814, 46.3284718], [9.2923114, 46.3345802], [9.2927172, 46.3380155], [9.2998753, 46.3435958], [9.296019, 46.3491255], [9.2977779, 46.3518545], [9.2962001, 46.3556868], [9.2826897, 46.3579986], [9.2787021, 46.366634], [9.276062, 46.3677761], [9.2771084, 46.3719111], [9.2750661, 46.3737132], [9.2777201, 46.3750028], [9.2781845, 46.3791945], [9.2803735, 46.3797187], [9.2843742, 46.3851927], [9.2785654, 46.3894071], [9.2757961, 46.394991], [9.2818637, 46.4015285], [9.2788841, 46.4033782], [9.2825256, 46.4050881], [9.2799473, 46.4146446], [9.2769096, 46.415288], [9.2754532, 46.4195178], [9.2728897, 46.4201513], [9.2699973, 46.4180711], [9.2636366, 46.4205189], [9.2614835, 46.424384], [9.2496466, 46.4311536], [9.2479564, 46.4360726], [9.2469833, 46.4468066], [9.2522404, 46.4493609], [9.2654765, 46.451095], [9.2721573, 46.4550922], [9.2780691, 46.4614949], [9.274554, 46.4630445], [9.2734199, 46.4660052], [9.2773475, 46.4791696], [9.2742019, 46.483625], [9.2787427, 46.4875718], [9.2788144, 46.4916368], [9.2833804, 46.4970218], [9.2913048, 46.4974229], [9.3051236, 46.5009949], [9.310899, 46.5040583], [9.3370633, 46.5060053], [9.3390704, 46.5038084], [9.3510964, 46.5053857], [9.3551051, 46.504286], [9.3632216, 46.5093819], [9.368342, 46.5051288], [9.3733498, 46.5039614], [9.3731728, 46.4991891], [9.3698088, 46.4978308], [9.3684488, 46.4942198], [9.3764055, 46.4846799], [9.3852827, 46.4823129], [9.385414, 46.4804508], [9.3880986, 46.4789849], [9.3897735, 46.4730935], [9.3956833, 46.4716785], [9.3977457, 46.4697025], [9.4116592, 46.4668887], [9.4240749, 46.4761577], [9.4242461, 46.4820786], [9.4263416, 46.4857631], [9.4245756, 46.4887017], [9.4341838, 46.4979097], [9.4550605, 46.5053257], [9.4585357, 46.5083555], [9.4635487, 46.5088764], [9.4643205, 46.5077883], [9.4610555, 46.5054919], [9.4626562, 46.4980198], [9.4610397, 46.4848517], [9.4490853, 46.4843814], [9.4496915, 46.4799851], [9.4628626, 46.4805002], [9.4655789, 46.4695051], [9.4635346, 46.4657975], [9.4592771, 46.4633058], [9.4586866, 46.4570621], [9.4606971, 46.4422811], [9.4574733, 46.4371974], [9.4577664, 46.4323093], [9.4544528, 46.4209506], [9.4558756, 46.4163566], [9.4617052, 46.4118307], [9.4614034, 46.4095105], [9.4668174, 46.398315], [9.4664888, 46.3919246], [9.4687973, 46.3889361], [9.4645793, 46.3836254], [9.4612265, 46.3834259], [9.4632182, 46.380228], [9.4611859, 46.3758563], [9.4759326, 46.3706113], [9.4794356, 46.3711837], [9.4830533, 46.367206], [9.4962684, 46.3644374], [9.4998201, 46.3598657], [9.5004483, 46.3560432], [9.5086465, 46.351329], [9.5082335, 46.3480309], [9.5114785, 46.3366149], [9.513781, 46.3355022], [9.5141442, 46.3324588], [9.5167095, 46.3326066], [9.5184485, 46.3270845], [9.5331785, 46.3127452], [9.5495379, 46.3023421], [9.5545189, 46.3057646], [9.5585105, 46.3064355], [9.5627572, 46.3024185], [9.5731097, 46.2992148], [9.5794922, 46.2950968], [9.5898905, 46.2951124], [9.592701, 46.293536], [9.5991365, 46.295772], [9.6103558, 46.294581], [9.6186696, 46.2874857], [9.62406, 46.2883949], [9.6346724, 46.2860002], [9.6388318, 46.2859869], [9.6493926, 46.2896162], [9.6517645, 46.2927948], [9.6623408, 46.296662], [9.6686464, 46.2958765], [9.6699644, 46.2998271], [9.6769835, 46.3031686], [9.681231, 46.2998416], [9.6814831, 46.2970857], [9.6882974, 46.2936283], [9.6937409, 46.2937164], [9.7018543, 46.2910526], [9.7098321, 46.2918122], [9.7144877, 46.2928922], [9.7144902, 46.2970151], [9.7180877, 46.3061712], [9.7244373, 46.3099028], [9.7257997, 46.3130967], [9.7261414, 46.319493], [9.7180184, 46.3216256], [9.7172757, 46.3239658], [9.7188428, 46.3267617], [9.7233606, 46.329036], [9.723422, 46.3310135], [9.7275784, 46.3326748], [9.7229422, 46.3407052], [9.7368839, 46.3507035], [9.7392909, 46.3499397], [9.743502, 46.3518039], [9.7472645, 46.3477542], [9.75762, 46.3441613], [9.7649419, 46.3375915], [9.7775246, 46.3347927], [9.7847185, 46.3407425], [9.8023565, 46.3439485], [9.8094231, 46.3484354], [9.8183191, 46.3496752], [9.8276001, 46.3554186], [9.8327163, 46.3612507], [9.8461146, 46.361892], [9.8494721, 46.3645781], [9.8558204, 46.3630397], [9.8653102, 46.3646647], [9.8683192, 46.3623584], [9.8802637, 46.3682026], [9.8835252, 46.3715963], [9.8832753, 46.3736139], [9.8983139, 46.3765889], [9.9063797, 46.3807596], [9.909723, 46.3796118], [9.9170057, 46.3703425], [9.9201056, 46.371555], [9.9228845, 46.3704913], [9.9249881, 46.3660668], [9.9310374, 46.367855], [9.93017, 46.3718985], [9.9344614, 46.3748487], [9.9527592, 46.3793014], [9.958462, 46.3781242], [9.9557037, 46.373638], [9.964455, 46.3637742], [9.9841682, 46.3535367], [9.9851411, 46.3516256], [9.99355, 46.3524065], [9.9962877, 46.3511702], [9.9944297, 46.3464743], [9.9958989, 46.3458327], [9.9959245, 46.3422094], [9.9909809, 46.3396445], [9.9906192, 46.3371362], [9.9858839, 46.3342402], [9.9841813, 46.3285165], [9.9799775, 46.3231323], [9.9945369, 46.3139347], [10.0000553, 46.3131759], [9.9996481, 46.3098459], [9.9962594, 46.3073353], [10.0008427, 46.3037381], [10.0007606, 46.3015338], [9.9960636, 46.2973546], [9.9916954, 46.2962855], [9.9959074, 46.2849432], [10.0086993, 46.2807604], [10.0312066, 46.2770403], [10.0435907, 46.2700506], [10.0555243, 46.2658412], [10.0579957, 46.2582112], [10.0561318, 46.2569862], [10.0587597, 46.2557447], [10.0606173, 46.2482605], [10.0574736, 46.2471352], [10.0570576, 46.2441762], [10.0537303, 46.2418188], [10.0536771, 46.2358245], [10.043943, 46.2296387], [10.0585906, 46.2249775], [10.0630611, 46.2201974], [10.0708307, 46.2171555], [10.081091, 46.2254514], [10.0885663, 46.2277982], [10.1034622, 46.2285714], [10.1091386, 46.2257282], [10.1232544, 46.2237905], [10.1285913, 46.2255956], [10.1323004, 46.2248788], [10.1460027, 46.2301253], [10.1508508, 46.2396429], [10.1749126, 46.2546131], [10.1765029, 46.2582769], [10.171995, 46.2665954], [10.1634078, 46.2712969], [10.1634145, 46.2746147], [10.1612765, 46.2772491], [10.1624232, 46.2822451], [10.1544133, 46.2854418], [10.1566003, 46.2892857], [10.1542133, 46.2927865], [10.1390678, 46.2994587], [10.1386677, 46.3046767], [10.1165953, 46.3140865], [10.1130391, 46.3233135], [10.1044275, 46.3336323], [10.1059441, 46.3421969], [10.109219, 46.3462522], [10.1084357, 46.3522978], [10.1130758, 46.3525573], [10.1188455, 46.357145], [10.1291017, 46.3608681], [10.127306, 46.3691648], [10.1260071, 46.3697564], [10.1284106, 46.3740242], [10.1272354, 46.3774606], [10.1426086, 46.3862241], [10.1475613, 46.3868612], [10.1557316, 46.3848913], [10.1619296, 46.3874525], [10.1639813, 46.390639], [10.1618481, 46.4029918], [10.1626405, 46.4050963], [10.1668839, 46.4073848], [10.161158, 46.4154217], [10.1570794, 46.4158806], [10.14937, 46.4128219], [10.147653, 46.4142256], [10.1486634, 46.4152715], [10.1471094, 46.4231248], [10.1422312, 46.4271075], [10.1431841, 46.4283225], [10.1329947, 46.4290837], [10.1289254, 46.4317419], [10.1189916, 46.4290977], [10.1172123, 46.4260332], [10.1085938, 46.4281267], [10.1060445, 46.4253736], [10.1025775, 46.4247956], [10.1006944, 46.4213424], [10.0922825, 46.4226658], [10.0807996, 46.4210606], [10.0792046, 46.423111], [10.0802553, 46.4254169], [10.0771771, 46.4282029], [10.0643776, 46.4258734], [10.0603057, 46.4283906], [10.0579899, 46.4320458], [10.0582456, 46.4382584], [10.0562651, 46.4408692], [10.0525664, 46.4397014], [10.0420535, 46.4427235], [10.0391547, 46.446944], [10.0424329, 46.4490125], [10.0418509, 46.4523193], [10.043856, 46.4549776], [10.0469089, 46.4559091], [10.0465777, 46.4574984], [10.0524761, 46.4604087], [10.0543439, 46.4646302], [10.0515426, 46.4677374], [10.051534, 46.4719553], [10.0447797, 46.476721], [10.042841, 46.4800577], [10.0484758, 46.4878149], [10.0452058, 46.4903795], [10.0448002, 46.4930628], [10.0455677, 46.4962389], [10.0490361, 46.4996068], [10.0439268, 46.503874], [10.0423723, 46.5101254], [10.0468062, 46.5105146], [10.0514217, 46.5133003], [10.0539911, 46.5225884], [10.0504844, 46.5288526], [10.0535277, 46.5316706], [10.044381, 46.5368808], [10.0439582, 46.540118], [10.0467533, 46.5440471], [10.0616225, 46.5457754], [10.0635028, 46.5486876], [10.0688769, 46.5514099], [10.0717014, 46.5590387], [10.0823813, 46.5635536], [10.085395, 46.5672287], [10.0799632, 46.5711171], [10.0786603, 46.575125], [10.0955767, 46.5773425], [10.1007414, 46.5827519], [10.1011538, 46.5891819], [10.0970076, 46.5934664], [10.097684, 46.5976866], [10.1013903, 46.6009774], [10.0988327, 46.6054597], [10.1023501, 46.6107195], [10.1066477, 46.6106974], [10.1134869, 46.6071007], [10.1276411, 46.6050826], [10.1361985, 46.6075386], [10.137346, 46.6107421], [10.1435054, 46.6106882], [10.1515061, 46.6146183], [10.162405, 46.6157068], [10.1830538, 46.6239711], [10.1927506, 46.6259355], [10.1934003, 46.623143], [10.2063572, 46.6207704], [10.2153152, 46.6169502], [10.2199523, 46.6215821], [10.2197772, 46.624224], [10.2241724, 46.629126], [10.2388767, 46.6353523], [10.2402521, 46.6350942], [10.2411749, 46.6270468], [10.2447744, 46.6221686], [10.2588761, 46.6104438], [10.2483822, 46.6006666], [10.2420748, 46.592209], [10.2414632, 46.5891131], [10.2460576, 46.5750088], [10.2541197, 46.5712463], [10.2638025, 46.5770918], [10.2695204, 46.5776654], [10.2767283, 46.5725606], [10.2874589, 46.5703447], [10.2895522, 46.5645256], [10.2960231, 46.5589873], [10.2964924, 46.5549125], [10.2944282, 46.5519215], [10.296064, 46.5499758], [10.3081357, 46.5494274], [10.3114788, 46.5467019], [10.3254591, 46.5517458], [10.3381762, 46.5427261], [10.3501541, 46.5494139], [10.3497514, 46.5527139], [10.3518501, 46.5558562], [10.3704696, 46.5539365], [10.3796818, 46.5498032], [10.3842532, 46.5500455], [10.397115, 46.5439435], [10.4091576, 46.5493081], [10.4182509, 46.5513348], [10.4336083, 46.5413378], [10.4366209, 46.5373572], [10.4527897, 46.530709], [10.458495, 46.5364942], [10.4591047, 46.5413042], [10.4715543, 46.5428645], [10.4710842, 46.5483669], [10.477754, 46.5573739], [10.4740485, 46.5627427], [10.4746861, 46.5666535], [10.4766047, 46.5675955], [10.4774155, 46.5711551], [10.4805395, 46.5747602], [10.4846946, 46.5774329], [10.483398, 46.5810695], [10.4878242, 46.589538], [10.4837629, 46.5921557], [10.4873299, 46.5980591], [10.4844756, 46.6050651], [10.4912662, 46.6113389], [10.4922941, 46.6151164], [10.487209, 46.6156155], [10.4624573, 46.6330944], [10.4461258, 46.6412769], [10.441825, 46.6390033], [10.4197466, 46.6381166], [10.4092491, 46.6349718], [10.4013023, 46.6371815], [10.3999539, 46.6384736], [10.4017064, 46.6404623], [10.4002343, 46.6458365], [10.3966774, 46.6495968], [10.3964227, 46.6524724], [10.3921149, 46.6551393], [10.3909743, 46.6589047], [10.3927046, 46.6611373], [10.3909903, 46.6680411], [10.3923623, 46.6716063], [10.385466, 46.6818219], [10.3817965, 46.6843049], [10.3835413, 46.6872772], [10.3932955, 46.6892075], [10.4033022, 46.7055039], [10.4095108, 46.7053107], [10.416068, 46.7089985], [10.4153491, 46.7121014], [10.4180094, 46.7145345], [10.4187612, 46.7190186], [10.4144472, 46.7206589], [10.4098514, 46.7251448], [10.4089504, 46.728274], [10.4005621, 46.7323811], [10.4006211, 46.7337317], [10.4100966, 46.7376519], [10.4129086, 46.7407901], [10.4356866, 46.7527511], [10.4413999, 46.7520382], [10.4426021, 46.7538396], [10.444237, 46.7598206], [10.4416848, 46.7718639], [10.439217, 46.7753798], [10.4352072, 46.7775342], [10.4336918, 46.7819734], [10.422706, 46.7882431], [10.4266306, 46.7894071], [10.4279246, 46.7913414], [10.4267274, 46.7942357], [10.4292779, 46.7951275], [10.4295439, 46.7967801], [10.4389801, 46.7976389], [10.4476632, 46.8011534], [10.448226, 46.8033073], [10.4506746, 46.8041351], [10.4578297, 46.8165576], [10.4560236, 46.8184751], [10.4559242, 46.8220043], [10.4603936, 46.8245409], [10.4565903, 46.8301893], [10.4591169, 46.8317392], [10.4600512, 46.8346384], [10.463053, 46.8340739], [10.4665877, 46.8360608], [10.4663928, 46.8394542], [10.4638636, 46.8412953], [10.4688564, 46.8477656], [10.4717956, 46.8487714], [10.4679946, 46.8621059], [10.4712624, 46.8729572], [10.4692174, 46.8810977], [10.4646828, 46.8842734], [10.4750778, 46.8942849], [10.4751691, 46.9011317], [10.4777228, 46.9034464], [10.4785285, 46.9105884], [10.4862047, 46.9154534], [10.4852687, 46.9186203], [10.4882935, 46.9262776], [10.4852822, 46.9314418], [10.4893516, 46.9377888], [10.476186, 46.9410275], [10.4688096, 46.9470933], [10.456912, 46.950851], [10.4555774, 46.9528425], [10.4491413, 46.9523122], [10.426142, 46.957465], [10.4220114, 46.9607632], [10.422961, 46.965572], [10.4271051, 46.971231], [10.4265641, 46.9756935], [10.4205876, 46.9799408], [10.4125254, 46.9826375], [10.4067907, 46.988549], [10.4021809, 46.9908622], [10.3983091, 46.9971253], [10.3893181, 47.0005251], [10.384695, 46.9999965], [10.372071, 46.9906726], [10.3549981, 46.992366], [10.3465112, 46.9895904], [10.344795, 46.9830712], [10.3399905, 46.9813093], [10.3407049, 46.9783736], [10.3345108, 46.9725173], [10.3340953, 46.9694795], [10.3295077, 46.9642765], [10.3296795, 46.9589488], [10.3278289, 46.9539816], [10.3245703, 46.952191], [10.3093489, 46.9501997], [10.3075917, 46.9464733], [10.3085991, 46.9434518], [10.3061303, 46.9403095], [10.3171752, 46.9309553], [10.3160518, 46.9251765], [10.3007876, 46.9246539], [10.2968663, 46.9199499], [10.2910292, 46.9232596], [10.2668744, 46.9288293], [10.2405831, 46.9313701], [10.2420114, 46.9188282], [10.2370312, 46.9157013], [10.2332973, 46.9016407], [10.2257169, 46.8959397], [10.2276279, 46.8902094], [10.2348302, 46.8846816], [10.233914, 46.8778339], [10.2319744, 46.8757994], [10.2327368, 46.8709043], [10.2308372, 46.8694364], [10.2326652, 46.8662925], [10.2192278, 46.8672836], [10.2038237, 46.864614], [10.1990124, 46.8666268], [10.1936587, 46.8664423], [10.1912016, 46.862983], [10.1834951, 46.8590061], [10.1820054, 46.8555112], [10.1717562, 46.8536641], [10.169062, 46.8506592], [10.162691, 46.8509894], [10.1574114, 46.8478611], [10.1545819, 46.8503203], [10.1472815, 46.8514056], [10.1394105, 46.8473781], [10.1230851, 46.8484838], [10.1199453, 46.8473842], [10.1191889, 46.8441904], [10.1052423, 46.8408852], [10.1005371, 46.84624], [10.0919772, 46.8514316], [10.0926731, 46.8581338], [10.0874505, 46.8611963], [10.0595933, 46.8607711], [10.0511978, 46.8639422], [10.0505361, 46.8709148], [10.0525828, 46.8746941], [10.0519377, 46.8767513], [10.0424375, 46.8804396], [10.0393089, 46.8858067], [10.0322055, 46.8880172], [10.0264672, 46.8958057], [10.0198597, 46.898779], [10.0178184, 46.9016148], [10.0059087, 46.8987998], [9.9973992, 46.9020349], [9.9901098, 46.9024082], [9.9868058, 46.9055273], [9.9824336, 46.9061986], [9.981782, 46.9119187], [9.9778951, 46.9159003], [9.9665663, 46.9122226], [9.9631115, 46.9123974], [9.9590704, 46.9160246], [9.946121, 46.9123495], [9.9372253, 46.9133112], [9.9215303, 46.918824], [9.9123097, 46.9260554], [9.9063207, 46.9253006], [9.9000247, 46.9273371], [9.8944853, 46.9316447], [9.8844069, 46.9330178], [9.8807249, 46.9350167], [9.8761296, 46.9346278], [9.8776839, 46.9381338], [9.8807189, 46.9400674], [9.8765706, 46.9407057], [9.8767676, 46.9476219], [9.8748781, 46.9503903], [9.8771756, 46.9516063], [9.8787197, 46.9570665], [9.8707312, 46.9632091], [9.8755831, 46.9674954], [9.8757003, 46.9736528], [9.8845489, 46.9808478], [9.8830919, 46.9832673], [9.8848165, 46.9854648], [9.8911209, 46.9883498], [9.8923039, 46.9903589], [9.889512, 46.9941582], [9.8887771, 47.0007231], [9.8732561, 47.0063484], [9.8707338, 47.0096536], [9.8720209, 47.0102041], [9.8711507, 47.0130577], [9.8803497, 47.0172237], [9.8794015, 47.0195565], [9.8762464, 47.0212266], [9.8597449, 47.0232098], [9.8569573, 47.0188022], [9.8527287, 47.0164129], [9.8410085, 47.0151188], [9.8381429, 47.0129497], [9.8397313, 47.0126543], [9.8361195, 47.012531], [9.8335368, 47.0145182], [9.8307567, 47.0143189], [9.8235302, 47.0198587], [9.8075641, 47.0235627], [9.8013994, 47.0290874], [9.7918885, 47.0316862], [9.7849142, 47.0384853], [9.7691335, 47.0390113], [9.7630769, 47.0373717], [9.7480774, 47.0369227], [9.7453077, 47.0391342], [9.7452376, 47.0411041], [9.7418488, 47.042675], [9.718211, 47.0433745], [9.7070102, 47.0480458], [9.7056711, 47.0503506], [9.7085942, 47.0516644], [9.7076239, 47.0538077], [9.69756, 47.0523884], [9.6881914, 47.0552262], [9.6820807, 47.0588839], [9.6818398, 47.0620979], [9.6582148, 47.0581823], [9.6450573, 47.059775], [9.6413247, 47.0539224], [9.6326718, 47.0512522], [9.6172016, 47.0536259], [9.603472, 47.0617744], [9.5997619, 47.0589706], [9.5821595, 47.052704], [9.5729162, 47.0527638], [9.5589416, 47.0484291], [9.5545504, 47.050261], [9.5516187, 47.058843], [9.5397528, 47.0651482], [9.5165385, 47.0600894], [9.5120732, 47.0568181], [9.4999962, 47.0571275], [9.4995322, 47.0541548], [9.4913076, 47.0562517], [9.4857484, 47.0490919], [9.4818879, 47.0525407], [9.4822741, 47.0561191], [9.4768868, 47.0546059], [9.4757865, 47.0517524], [9.4717767, 47.0615162], [9.4723774, 47.0650283], [9.4922746, 47.073844], [9.5135292, 47.0856362], [9.5195806, 47.0983373], [9.5123851, 47.1303024], [9.5081841, 47.1407276], [9.4997225, 47.1497721], [9.4906624, 47.1644987], [9.4858412, 47.1814434], [9.4897548, 47.1964945], [9.4996332, 47.2113569], [9.5035029, 47.2235074], [9.5204517, 47.2439624], [9.5301131, 47.2624922], [9.5310481, 47.2711259], [9.5461797, 47.2800301], [9.5513322, 47.2867942], [9.5565198, 47.2984176], [9.5814429, 47.3110644], [9.5882928, 47.317549], [9.5993193, 47.3448173], [9.6038173, 47.3501321], [9.6244598, 47.3661451], [9.6262729, 47.3650807], [9.6353723, 47.3673698], [9.6567411, 47.3688256], [9.6634007, 47.3717617], [9.6731406, 47.3810655], [9.6741357, 47.3893037], [9.673111, 47.3919406], [9.6600883, 47.3975456], [9.6543745, 47.4043994], [9.6516178, 47.404626], [9.6504423, 47.4204335], [9.6444766, 47.4336636], [9.6458783, 47.4388518], [9.6579866, 47.4477909], [9.6592769, 47.4517486], [9.6553647, 47.4540485], [9.6458081, 47.4556356], [9.6223413, 47.457472], [9.6169671, 47.4619427], [9.6117717, 47.4692689], [9.609044, 47.4705422], [9.6066372, 47.4698438], [9.6035991, 47.462373], [9.5958388, 47.4628414], [9.5816705, 47.4832853], [9.5650344, 47.4928774], [9.562202, 47.4959175], [9.5617745, 47.5044908], [9.550566, 47.5371757], [9.5319082, 47.5357151], [9.5146841, 47.5369248], [9.4529335, 47.5901961], [9.4451294, 47.5948297], [9.2677011, 47.6562374], [9.2558169, 47.6591228], [9.2478319, 47.6592475], [9.2458802, 47.6576686], [9.2344323, 47.6567569], [9.2025008, 47.6554655], [9.1870827, 47.65748], [9.1818174, 47.6559572]]}, "id": "relation/51701"}]}